index,title,address,lat,lon
0,경상남도 창원시 창원서부경찰서 동읍파출소,경남 창원시 의창구 동읍 용잠리 222-5,35.2787182404502,128.689282964033
1,서울특별시 영등포구 영등포동 공공복합시설 건립공사,,,
2,충청북도 진천군 광혜원 문화복지회관,,,
3,서울특별시 노원구 서울과학기술대학교 창조융합연구동,서울 노원구 공릉동 189,37.6298580333571,127.079322579266
4,경기도 양평군 양동면 삼산보건진료소,,,
5,경기도 파주시 법원읍 행정복지센터,경기 파주시 법원읍 법원리 376-1,37.8490489585185,126.882392907004
6,경기도 화성시 서경초등학교,경기 화성시 기산동 477,37.217019843865,127.050864337613
7,경상북도 칠곡군 석적유치원,경북 칠곡군 석적읍 중리 208-3,36.0758168568304,128.413952490863
8,충청남도 태안군 사법역사문화교육관,충남 태안군 안면읍 중장리 765-44,36.4822639577051,126.336654802057
9,인천광역시 계양구 인천광역시 농업기술지원센터,,,
10,충청남도 서산시 (가칭)서산예천유치원,,,
11,강원도 화천군 화천신읍 공공실버주택,강원 화천군 화천읍 신읍리 658-4,38.1147448299119,127.702546292365
12,경상남도 창녕군 남지국민체육센터(작은영화관),,,
13,충청북도 청주시 (가칭) 서현2초등학교 신축공사,,,
14,경상북도 봉화군 국립공원공단 태백산국립공원 백천분소,,,
15,경상남도 진주시 진주 충효교육원 별관,,,
16,경기도 의정부시 고산지구 주6 주차타워,,,
17,부산광역시 연제구 한빛공원 공영주차장 건립,,,
18,경상남도 밀양시 의열체험관,,,
19,부산광역시 영도구 대통전수방 창의산업공간,,,
20,경기도 수원시 수원시 매산동 행복주택 및 행정복지센터 복합개발 사업,,,
21,충청남도 금산군 자연치유교육및문화체험권역개발사업 B동,,,
22,충청남도 금산군 자연치유교육및문화체험권역개발사업 A동,,,
23,대구광역시 중구 동인커뮤니티센터,대구 중구 동인동3가 328-2,35.8730687278374,128.610908213387
24,강원도 원주시 기업유치원 신축공사,,,
25,경상북도 고령군 우곡면(객기) 기초생활 거점조성사업,,,
26,경기도 화성시 삼괴청소년 문화의집,,,
27,경상남도 통영시 정량천 생태하천 공중화장실,,,
28,경상남도 거제시 아주 청소년 문화의집,,,
29,전라남도 무안군 남악신도시 파크골프장,,,
30,전라남도 무안군 남악신도시 자전거공원 공중화장실,,,
31,전라남도 순천시 순천 트레이닝센터 건립공사,,,
32,광주광역시 남구 월산2 어린이공원 화장실,광주 서구 화정동 892,35.1409848940965,126.876867714261
33,전라남도 나주시 종자관리소청사(행정동) 건립공사,,,
34,경기도 고양시 고양 내일꿈제작소,,,
35,경상남도 진주시 진주시 장애인 문화체육센터,,,
36,경기도 수원시 호매실 2유치원,경기 수원시 권선구 호매실동 411-1,37.2668776274001,126.955541746305
37,경기도 연천군 연천군 다목적복지센터,,,
38,경기도 가평군 가평 북면파출소,경기 가평군 북면 목동리 848,37.8856826764873,127.550076485529
39,제주특별자치도 서귀포시 상예1 다목적회관,,,
40,충청남도 당진시 대덕초등학교,충남 당진시 대덕동 1882,36.8830691903604,126.63967765492
41,강원도 고성군 토성청소년문화의집,,,
42,울산광역시 북구 북구 평생학습관,울산 북구 연암동 1118-2,35.5844888316188,129.361724753547
43,대전광역시 유성구 대전유성경찰서 신성지구대,,,
44,제주특별자치도 제주시 사회복지법인 유진 단기거주시설(해안빌리지),,,
45,인천광역시 강화군 신문4리 경로당,,,
46,전라남도 강진군 칠량면 기초생활거점사업,,,
47,인천광역시 강화군 인산1리(호곡) 경로당,인천 강화군 양도면 인산리 365-1,37.6960551592454,126.422007681461
48,충청남도 아산시 아산경찰서 탕정파출소,충남 아산시 탕정면 용두리 487,36.799193212472,127.04722730163
49,광주광역시 광산구 하남3지구 주민복합시설 건립공사,,,
50,경상북도 경주시 (가칭) 제2종합안전체험관,,,
51,경상북도 영주시 영주시 신영주 번개시장 주차장,,,
52,경상남도 합천군 합천군 평생학습관,경남 합천군 합천읍 합천리 387-4,35.5672304737305,128.165891707448
53,대구광역시 동구 도동문화마을 커뮤니티센터,대구 동구 도동 470-1,35.9191676910053,128.66239095309
54,경상남도 양산시 물금2고등학교 교사 신축공사,,,
55,부산광역시 강서구 신호민원센터,,,
56,충청남도 당진시 당진꿈나래학교,충남 당진시 합덕읍 운산리 678-42,36.8122015027559,126.762137866805
57,경기도 시흥시 벅스빌리지 건립공사,,,
58,경상남도 창원시 북면1고등학교,경남 창원시 의창구 소답동 159-19,35.2619673877991,128.630904490969
59,충청남도 천안시 (가칭)천안성성2유치원,,,
60,충청남도 공주시 공주세무서,충남 공주시 반죽동 332,36.454142416806,127.120461821833
61,강원도 인제군 인제군 장애인보호 작업장 신축공사,,,
62,전라북도 군산시 군산 회현면 면청사 건립사업,,,
63,전라북도 군산시 너나들이 쉼터 신축공사,,,
64,전라북도 부안군 부안해양경찰서 구조대 청사 신축공사,,,
65,전라남도 화순군 화순내수면 양식단지,,,
66,충청남도 아산시 아산시 여성커뮤니티 센터,,,
67,강원도 홍천군 홍천남산유치원,강원 홍천군 홍천읍 연봉리 158-1,37.6827267472736,127.877963383452
68,울산광역시 북구 울산교육연수원,울산 북구 정자동,35.6166927379079,129.443094530052
69,서울특별시 양천구 신정종합사회복지관,서울 양천구 신정동 919-6,37.5272623219076,126.855617467081
70,경상북도 포항시 죽도시장 공영주차장,경북 포항시 북구 죽도동 2-69,36.0363458258605,129.367269566945
71,서울특별시 영등포구 당산근린공원,서울 영등포구 당산동3가 385,37.5255122202678,126.895769419966
72,충청북도 보은군 내북면 농촌중심지 활성화사업 생태 공중화장실,,,
73,충청북도 보은군 내북면 농촌중심지 활성화사업 쉼터 공중화장실,,,
74,경기도 파주시 파주 운정 다누림 복지관,,,
75,전라남도 완도군 완도군 고금면 면사무소,전남 완도군 고금면 농상리 409,34.3949511549156,126.80429881936
76,경기도 시흥시 시흥배곧우체국 건립공사,,,
77,경기도 동두천시 동두천 자연휴양림,,,
78,경기도 고양시 고양 드론센터,경기 고양시 덕양구 대자동 645-6,37.7137136478885,126.886424418041
79,전라남도 순천시 순천시 신대도서관,전남 순천시 해룡면 신대리,34.9339333826056,127.561892307361
80,경기도 화성시 (가칭)동탄7고등학교,,,
81,충청북도 청주시 가로수도서관,충북 청주시 흥덕구 가경동 1804,36.6184264209812,127.427948463228
82,전라북도 군산시 대야면 노인복지관 신축공사,,,
83,서울특별시 도봉구 방학3동 구립한옥도서관,,,
84,강원도 양양군 강현면 전진리 제1종 근린생활시설(공중화장실 및 창고),,,
85,부산광역시 북구 북구 종합체육관,,,
86,울산광역시 동구 일산진마을 주민공동이용시설,,,
87,경상북도 칠곡군 칠곡교육지원청 교육지원센터,,,
88,경상남도 진주시 유등전시관,,,
89,강원도 삼척시 삼척복합체육공원 삼척시민체육관,,,
90,부산광역시 부산진구 가야2동사(청소년 문화센터),,,
91,인천광역시 부평구 인천 삼산경찰서 부개파출소,인천 부평구 부개동 501-10,37.4976979294626,126.739707355429
92,대전광역시 서구 도솔마을 주민커뮤니티마당 조성(주차장),,,
93,전라북도 순창군 세대통합형 실내놀이문화체육센터,,,
94,대전광역시 유성구 국립 대전현충원 봉안당(충혼당),,,
95,서울특별시 송파구 거암초등학교 및 거암중학교 교사,,,
96,인천광역시 미추홀구 주안5동 행정복지센터,인천 미추홀구 주안동 266-1,37.4637711198267,126.676645881955
97,경상남도 의령군 의령 전통장류 활성화센터,,,
98,전라남도 신안군 신안 문화예술회관 및 문화원 건립사업,,,
99,전라북도 남원시 반선보건진료소,전북 남원시 산내면 부운리 242-17,35.373291132164,127.579420203742
100,경상북도 경산시 경산시 동부동 행정복지센터,경북 경산시 사동 189,35.8086909689964,128.755037256515
101,"광주광역시 북구 신용 복합 공공도서관 건립공사(1종근린생활시설, 행정복지센터)",,,
102,"광주광역시 북구 신용 복합 공공도서관 건립공사(교육연구시설, 도서관)",,,
103,경상북도 성주군 성주군 성산동 고분군 전시관,경북 성주군 성주읍 성산리 822,35.9067631165283,128.299221823862
104,경기도 양평군 양근교직원공동사택,,,
105,"서울특별시 성동구 서울교통공사 5,7호선 신조전동차 336칸(우진산전)",,,
106,제주특별자치도 서귀포시 신례1리 다목적회관,,,
107,경상남도 창원시 진동면 동촌2구 경로당,,,
108,경상남도 창원시 동읍 곡목경로당,경남 창원시 의창구 동읍 화양리 620-3,35.2984910802176,128.661258312784
109,경상남도 창원시 동읍 용잠1구 여성경로당,,,
110,경기도 의정부시 거북경로당 재건축 신축공사,,,
111,전라북도 전주시 전주시 거점형 공공직장어린이집,전북 전주시 덕진구 만성동 1370-2,35.8452840700241,127.081573193323
112,광주광역시 북구 복합문화복지 커뮤니티센터,광주 북구 양산동 343-5,35.201394279442,126.87377520247
113,경상북도 영주시 영주 전통마을체험단지 마을역사자료관,,,
114,경상북도 군위군 군위군 국공립하나어린이집,,,
115,전라북도 무주군 무주군 당산리 공영주차장,,,
116,경기도 군포시 송정복합체육센터,,,
117,충청남도 논산시 사회적 경제통합 지원센터,,,
118,충청북도 음성군 중동보건진료소,충북 음성군 소이면 중동리 1059-3,36.9085140344741,127.770294818473
119,대전광역시 중구 육교경로당,대전 중구 유천동 127-78,36.3187854467088,127.401366545589
120,경상북도 구미시 반포경로당,,,
121,충청북도 진천군 이월다목적체육관 건립사업,,,
122,경상북도 칠곡군 덕천경로당,,,
123,충청남도 보령시 상생협력상가 및 청년창업지원센터,,,
124,전라남도 순천시 순천시 혁신 농업인센터,,,
125,경상남도 창원시 창원 숲 유치원,경남 창원시 마산합포구 현동 607,35.143917630776,128.556918816254
126,경상남도 창원시 창원 숲 유치원,경남 창원시 마산합포구 덕동동 607,35.1396822296194,128.575725440915
127,충청남도 서천군 서천군 가족누리센터,충남 서천군 서천읍 군사리 55-6,36.0778481114889,126.701215149598
128,충청남도 금산군 보광리 마을만들기 사업(경로당),,,
129,경기도 광주시 광주역세권 공원관리사무소,,,
130,충청남도 천안시 남산도시재생 어르신 일자리 복지센터,충남 천안시 동남구 사직동 343-145,36.7974519255639,127.149293793518
131,전라남도 여수시 화장동 시내버스공영차고지 조성공사,,,
132,서울특별시 구로구 천왕동 청소년 문화의 집,서울 구로구 천왕동 262-7,37.4839483774046,126.840185244864
133,울산광역시 울주군 울주종합체육센터,울산 울주군 서생면 신암리 689,35.3487906368656,129.318688627943
134,경상북도 포항시 흥해 복합커뮤니티센터,,,
135,부산광역시 연제구 연제구 황금로 공영주차장,부산 연제구 연산3동 1811-561,35.1705274120468,129.095229274328
136,경기도 용인시 용인동부경찰서 서천파출소,경기 용인시 기흥구 서천동 805,37.2375621717257,127.073121019671
137,경상북도 봉화군 봉화 실외테니스장 비가림 설치공사,,,
138,전라북도 장수군 장수군 종합실내체육관,,,
139,강원도 홍천군 화촌면 야시대1리 행인교 경로당,,,
140,인천광역시 부평구 인천부평경찰서 역전지구대 통합청사 신축공사,,,
141,서울특별시 양천구 구립 목3동 공원어린이집,,,
142,경상북도 봉화군 봉화 궁도장(청량정) 조성사업,,,
143,서울특별시 서초구 서초구립 서초3동 하나어린이집,,,
144,서울특별시 서초구 AI 지원센터,서울 서초구 우면동 142,37.4653806242827,127.028712869766
145,부산광역시 사하구 장림동 문화복지복합센터,부산 사하구 장림동 1137-3,35.0833867947749,128.967091498388
146,부산광역시 부산진구 부암동 신선마을 마을공유센터,,,
147,부산광역시 남구 환경공단부지 민간참여 행복주택건설사업 (인생후반전지원센터),,,
148,부산광역시 동래구 동래구 청소년수련관,,,
149,서울특별시 양천구 넘은들근린공원 숲속쉼터,,,
150,광주광역시 서구 상무시민공원 국민체육센터,,,
151,서울특별시 강남구 달터근린공원 공원관리소,,,
152,경상남도 함양군 지곡면 다목적체육관,,,
153,서울특별시 강서구 강서구 청소년상담복지센터,서울 강서구 화곡동 1071-26,37.5394557575666,126.835514184028
154,충청남도 천안시 직산파출소,충남 천안시 서북구 직산읍 삼은리 76-135,36.8783988403796,127.147774429774
155,경상북도 영천시 도계권역단위 종합정비사업 효센터,,,
156,경상북도 영천시 도계권역단위 종합정비사업 신리마을회관,,,
157,경기도 과천시 (가칭)지식1초등학교,,,
158,전라북도 순창군 음식 및 스토리마켓 신축공사 (B동),,,
159,전라북도 순창군 음식 및 스토리마켓 신축공사 (A동),,,
160,경기도 남양주시 다산진건지구 공영주차장,경기 남양주시 다산동 6148,37.6143014296102,127.154783909062
161,서울특별시 광진구 서울시 50플러스 동부캠퍼스,,,
162,경상북도 김천시 김천시 모암동 공공산후조리원 신축공사,,,
163,경기도 광명시 광덕어린이공원 내 공중화장실,,,
164,부산광역시 동래구 온천장 도시재생 뉴딜사업 혁신어울림센터 건립공사,,,
165,경상남도 산청군 생초국제조각공원 화장실,,,
166,서울특별시 동작구 신대방동 구립 지역아동센터,서울 영등포구 대림동 705,37.492678652458,126.898170489578
167,경상북도 봉화군 봉화군 농축임산물 전시판매장,,,
168,서울특별시 은평구 은평 어르신일자리 센터,서울 은평구 녹번동 11-3,37.6070539505574,126.933366669883
169,인천광역시 중구 인천중부경찰서 직장어린이집,,,
170,서울특별시 종로구 이음피움 봉제역사관,서울 종로구 창신동 647-50,37.5748030042929,127.010315251354
171,인천광역시 남동구 대구월 경로당,인천 남동구 구월동 1236-7,37.4498566479331,126.717941311139
172,경기도 오산시 오산역 환승센터 광장 공중화장실,,,
173,전라남도 곡성군 곡성군 비빌언덕25,,,
174,부산광역시 연제구 나라키움 부산통합청사,부산 연제구 거제동 501,35.1873119884943,129.073388882245
175,경상북도 문경시 문경시 보훈회관,경북 문경시 점촌동 329-1,36.5924446330986,128.201269924061
176,경상북도 영천시 완산뜨락 실버인재센터,,,
177,서울특별시 도봉구 로봇과학관,서울 도봉구 창동 1-11,37.6551418975134,127.052370535927
178,경기도 파주시 파주운정3지구 내 A-37BL 공동주택 건설공사 사회복지관,,,
179,경기도 양평군 양평헬스투어 센터,,,
180,경기도 여주시 오학동 주민센터,경기 여주시 오학동 254-1,37.3096912986226,127.644409503876
181,경기도 여주시 오학동 주민센터,경기 여주시 천송동 254-1,37.2992111147005,127.665759519539
182,경기도 여주시 오학동 주민센터,경기 여주시 현암동 254-1,37.3076950528784,127.636323722458
183,경기도 화성시 화성시 커피복합 문화센터,,,
184,전라남도 무안군 환경클린센터 공립공사,,,
185,전라북도 순창군 월드푸드 사이언스관,,,
186,광주광역시 서구 사회적가치지원센터,광주 서구 농성동 109-1,35.1529834613821,126.892000652742
187,경기도 고양시 고양향동중학교,,,
188,경기도 고양시 고양향동초등학교,,,
189,경기도 용인시 처인성 역사교육관 건립,,,
190,경기도 시흥시 목감어울림센터,경기 시흥시 조남동 697,37.3816697665075,126.85871364648
191,경상북도 영천시 최무선 역사불꽃 놀이마당 야외화장실,,,
192,대전광역시 유성구 대전복용초등학교,대전 유성구 복용동 64,36.3346993355629,127.327581004188
193,전라북도 고창군 고창군 산불대응센터,,,
194,경상북도 영주시 가흥초등학교,경북 영주시 가흥동 1857,36.8135894142263,128.609266544462
195,전라북도 군산시 군산오룡 고령자복지주택,,,
196,경상북도 영천시 임고면 농촌중심지 활성화사업(임고문화복지센터),,,
197,경상북도 청도군 덕촌 보건진료소,경북 청도군 각북면 덕촌리 649,35.7067246497985,128.582096362206
198,경기도 김포시 청룡어린이집,,,
199,경기도 안양시 박달복합청사,경기 안양시 만안구 박달동 141-2,37.4019613187896,126.904629197499
200,경기도 용인시 처인성유치원,경기 용인시 처인구 남사읍 아곡리 682,37.1566570039013,127.1725448969
201,강원도 강릉시 유천초등학교,강원 강릉시 유천동 766,37.7599201599087,128.871105403691
202,제주특별자치도 서귀포시 신효경로당,제주특별자치도 서귀포시 신효동 700-2,33.2645684723608,126.614235729975
203,경상북도 봉화군 봉화 억지춘양시장 공영주차타워,,,
204,경상북도 포항시 창포종합사회복지관(분관),,,
205,제주특별자치도 서귀포시 제주 국립산림생태관리센터 지원동,,,
206,제주특별자치도 서귀포시 제주 국립산림생태관리센터 사무동,,,
207,인천광역시 남동구 구월 1동 복합청사,인천 남동구 간석동 49-1,37.4661276816333,126.714589199352
208,"충청남도 공주시 옥룡 17, 18통 경로당",,,
209,충청북도 단양군 매포공동복지목욕탕,,,
210,충청남도 계룡시 계룡공공직장어린이집,충남 계룡시 두마면 농소리 1039,36.2584624958588,127.261792057006
211,충청북도 진천군 진천 덕산 하나 어린이집,,,
212,경상남도 양산시 이팝문화센터,,,
213,서울특별시 강북구 서울번동3 고령자복지주택 주민복지관,,,
214,제주특별자치도 서귀포시 미래농업육성관,,,
215,강원도 영월군 영월주천 고령자복지주택,,,
216,충청북도 영동군 추풍령면소재지 종합정비사업 공중화장실,,,
217,강원도 삼척시 도계읍 복합교육연구관,강원 삼척시 도계읍 전두리 24-3,37.2333835122109,129.042285375024
218,경기도 화성시 시립반월하나어린이집,경기 화성시 반월동 862,37.2308327137941,127.062738924849
219,충청남도 보령시 석서골 노인회관,충남 보령시 신흑동 766-94,36.3199935604426,126.516283545142
220,경상북도 칠곡군 천왕사랑방,,,
221,전라남도 고흥군 고흥반다비 국민체육센터 건립공사,,,
222,인천광역시 남동구 인천구월A-3BL 공공임대주택 건설사업,,,
223,전라북도 임실군 임실군 거점형 공공 직장어린이집,전북 임실군 임실읍 이도리 745-1,35.6151213157812,127.279709999765
224,충청남도 서산시 비점오염저감시설 공중화장실(부장리),,,
225,경상북도 상주시 거꾸로 옛이야기 나라숲 조성사업 이야기 공작소,,,
226,경상북도 상주시 화북대형주차장화장실,충북 보은군 속리산면 사내리 292-4,36.5262388123067,127.819214461566
227,충청북도 보은군 연꽃화장실,,,
228,경기도 성남시 위례동 행정복지센터,경기 성남시 수정구 창곡동 508-1,37.4713252969783,127.142295769358
229,경기도 성남시 수내도서관 건립공사,,,
230,전라남도 목포시 한국해양수산연수원 목포분원,전남 목포시 죽교동 695-3,34.7964378342685,126.357763731745
231,충청북도 청주시 화학물질안전원 신청사 및 교육훈련장,,,
232,경상북도 봉화군 봉화군 선거관리위원회,경북 봉화군 봉화읍 내성리 350-1,36.8931802222833,128.740099073383
233,경상북도 김천시 운남중학교,경북 김천시 율곡동 370,36.1218018221774,128.179106216176
234,대구광역시 동구 효목2동 어린이공원 & 공용주차장,대구 동구 신천동,35.8719700892442,128.626843791513
235,대구광역시 동구 효목2동 어린이공원 & 공용주차장,대구 동구 신천1.2동,35.8700151958924,128.614647426814
236,대구광역시 동구 효목2동 어린이공원 & 공용주차장,대구 동구 신천3동,35.8752751668421,128.623669460702
237,대구광역시 동구 효목2동 어린이공원 & 공용주차장,대구 동구 신천4동,35.8717492746518,128.62930603461
238,대구광역시 수성구 고산노인복지관 별관,대구 수성구 신매동 170-1,35.8367137654733,128.712680976703
239,대구광역시 남구 배나무샘골 마을문화센터,,,
240,울산광역시 동구 해양수산복합공간 (방어진 활어센터),,,
241,충청남도 서산시 내포관광 창조지원센터,,,
242,제주특별자치도 서귀포시 하원 마을회관,제주특별자치도 서귀포시 하원동 480-4,33.2567262858365,126.461054249361
243,경상북도 성주군 가야산국립공원 백운분소,경북 성주군 수륜면 백운리 1805,35.800777392793,128.141592987849
244,강원도 삼척시 삼척번개시장 공중화장실,강원 삼척시 사직동 60-12,37.4310174199108,129.177708101888
245,충청남도 계룡시 계룡 병영체험관,,,
246,강원도 삼척시 도계전두시장 공중화장실,,,
247,경기도 화성시 서연고등학교,경기 화성시 장지동 973,37.1608132791366,127.111616830562
248,울산광역시 북구 시니어행복나눔센터,,,
249,인천광역시 미추홀구 용현2동 행정복지센터,인천 미추홀구 용현동 611-6,37.4526285960013,126.640315141579
250,전라남도 강진군 보은산 힐링센터,,,
251,전라남도 영암군 학산 소규모 도서관,,,
252,전라북도 부안군 돌팍거리 공영주차장 건립공사,,,
253,경기도 광명시 광명시 평생학습원,경기 광명시 하안동 718-2,37.4667802726489,126.869519027745
254,인천광역시 계양구 계양여성회관 부근 주차장,인천 계양구 효성동 293-8,37.5290549191866,126.717879471174
255,전라북도 고창군 동호항 체험센터 및 마을전시관,,,
256,경상남도 창원시 내서 어린이체육관,경남 창원시 마산회원구 양덕동 18-16,35.2305305906401,128.584609080503
257,전라남도 여수시 전남해양수산과학원 여수지원 청사 건립,,,
258,경기도 양주시 곰두리어린이집,경기 양주시 삼숭동 640-45,37.8013930670468,127.09060187523
259,경기도 시흥시 계수8통 경로당,경기 시흥시 계수동 179-33,37.4529536134104,126.817465982169
260,경기도 성남시 태평종합사회복지관,,,
261,경기도 평택시 평택경찰서 송탄지구대,경기 평택시 신장동 211-7,37.0817894765044,127.056021821368
262,충청북도 청주시 청주동남지구 수변공원18호 공중화장실,,,
263,충청북도 청주시 청주동남지구 근린공원98호 관리사무실(공중화장실겸용),,,
264,충청남도 서산시 비점오염저감시설 공중화장실(용암리),,,
265,대전광역시 서구 도안동 행정복지센터,대전 서구 가수원동 761-3,36.3035739762614,127.349355243769
266,대전광역시 서구 도안동 행정복지센터,대전 서구 괴곡동 761-3,36.2814283726552,127.353519974922
267,충청남도 서산시 해오름 체육관,,,
268,서울특별시 은평구 가칭)구립 성가정어린이집,,,
269,인천광역시 계양구 계양구 청소년 문화의 집,인천 계양구 효성동 266-9,37.5286815534166,126.715217510939
270,제주특별자치도 제주시 탑동광장관리사무소,제주특별자치도 제주시 건입동 1444,33.5181038904109,126.526602474608
271,인천광역시 서구 한들근린4구역 공중화장실,,,
272,인천광역시 서구 한들근린3구역 공중화장실,,,
273,인천광역시 서구 한들근린1구역 공중화장실,,,
274,강원도 평창군 평창종부 고령자복지주택,,,
275,부산광역시 금정구 회동동 복합커뮤니티 문화센터,부산 금정구 회동동 200-3,35.2266292550951,129.116467467996
276,경기도 화성시 매향리 평화생태공원 안내센터,,,
277,전라북도 고창군 고창율계 고령자복지주택,,,
278,전라북도 장수군 장수 가야역사관 건립공사,,,
279,경상남도 함안군 함안 역사문화체험파크,경남 함안군 가야읍 도항리 718,35.2682938414678,128.40219640795
280,전라남도 구례군 도시재생 통합어울림센터 건립사업,,,
281,인천광역시 남동구 만부마을 도시재생 뉴딜사업 사랑방,,,
282,강원도 홍천군 홍천북방 고령자복지주택,,,
283,인천광역시 강화군 내4리 경로당,,,
284,강원도 동해시 동해 꿈빛마루 도서관,,,
285,경상북도 구미시 구미시 육아종합지원센터,경북 구미시 산동읍 신당리 2017,36.1530462451986,128.431648866517
286,울산광역시 북구 상안유치원 별관동,,,
287,충청북도 청주시 (가칭)청주특수학교 신축공사,,,
288,경상북도 영주시 영주역사,경북 영주시 영주동 336-55,36.8260991027923,128.622583096023
289,경기도 부천시 부천시 중동시장 공영주차장,경기 부천시 중동 734-13,37.4944014808087,126.764238919788
290,서울특별시 양천구 신목동역 LT삼보 지식산업센터 M.OK,,,
291,대전광역시 유성구 솔마루어린이공원 공중화장실,,,
292,서울특별시 영등포구 여의도 우체국 건립공사,,,
293,광주광역시 광산구 하남3지구 주차전용건축물 2,,,
294,경기도 의정부시 범골 경로당 신축공사,,,
295,충청남도 예산군 예산주교 고령자 복지주택(사회복지시설),,,
296,충청남도 청양군 청양교월 고령자 복지주택(사회복지시설),,,
297,경상남도 사천시 관상어 교육 및 창업지원센터,,,
298,경기도 남양주시 다산새봄초등학교,경기 남양주시 다산동 6128,37.6198916472289,127.159021633686
299,전라남도 함평군 함평군 신광면 농촌중심지활성화사업(행정복지센터),,,
300,전라남도 영광군 영광 화물차 공영차고지 관리동,,,
301,전라남도 여수시 화정면 제도 여객선 대기소 화장실,,,
302,전라북도 장수군 장수군 장례식장,전북 장수군 장수읍 장수리 425,35.6542736258423,127.519830253784
303,경상남도 산청군 산청신안 행복주택(신안면사무소 복합개발사업),,,
304,서울특별시 도봉구 창1동 주민센터,서울 도봉구 창동 632-73,37.6414216683544,127.035601140869
305,경기도 안성시 미양면사무소 건립공사,,,
306,경상북도 상주시 속리산 시어동 휴양체험단지 주차장(공용화장실),,,
307,경상북도 상주시 속리산 시어동 휴양체험단지 관리사무소,,,
308,서울특별시 양천구 건강힐링문화관,서울 양천구 신월동 1077-2,37.5176154844161,126.845719732769
309,전라북도 임실군 임실읍 행복누리원,,,
310,울산광역시 울주군 울주군 도시재생지원센터,울산 울주군 온산읍 덕신리 1303-6,35.4343120177518,129.312849567551
311,제주특별자치도 서귀포시 남원서부전지훈련지원 및 주민공동이용시설,,,
312,경기도 남양주시 진건·퇴계원 행정복지센터 복지동,,,
313,경기도 시흥시 시흥경찰서 목감파출소,,,
314,경상북도 경주시 불국체육센터,,,
315,경기도 수원시 수원시 사회복지타운,경기 수원시 장안구 조원동 119-3,37.309580013682,127.010855898545
316,제주특별자치도 제주시 김진사 생가터 공중화장실,,,
317,서울특별시 양천구 구립 청솔 어린이집 재건축공사,,,
318,경기도 안산시 안산교육지원청 청사 신축공사,,,
319,경상북도 포항시 포스코휴먼스 사무동,,,
320,전라북도 장수군 호덕 마을만들기사업,,,
321,서울특별시 양천구 신월7동 복합청사,서울 양천구 신월동 52-2,37.5385555939728,126.827203313236
322,경상남도 창원시 가칭)무릉유치원,,,
323,인천광역시 남동구 만수5동 행정복지센터,인천 남동구 만수동 908-17,37.4558739559611,126.724510995206
324,전라북도 임실군 임실군 선거관리위원회청사,,,
325,인천광역시 계양구 계양2동 생활문화센터,,,
326,경상남도 의령군 유곡 세간마을 다목적시설,,,
327,대구광역시 수성구 파동우체국,대구 수성구 파동 495,35.8096332392093,128.619106010112
328,인천광역시 서구 서인천세무서 청사,,,
329,전라남도 순천시 4차산업혁명 박람회장 5G체험관 건립공사,,,
330,울산광역시 동구 남목지역 공공도서관,,,
331,서울특별시 강남구 농업공화국,,,
332,전라남도 완도군 완도군 공립 약산 어린이집,,,
333,전라남도 여수시 초도중계소,전남 여수시 삼산면 초도리 산 300,34.2393643413805,127.248330973346
334,경기도 화성시 화성동탄(2)지구 택지개발사업5-1공구 체육공원2호 공중화장실,,,
335,경기도 화성시 화성동탄(2)지구 택지개발사업5-1공구 근린공원16호 관리사무소 및 화장실,,,
336,인천광역시 동구 송림초교주변구역 주거환경개선사업 솔마루어린이공원 화장실 및 하부 주차장,,,
337,경기도 평택시 평택경찰서 고덕파출소,경기 평택시 고덕면 좌교리 384-5,37.0432185026683,127.019025021039
338,제주특별자치도 서귀포시 서귀포시 노인복지지원센터 건립사업,,,
339,충청북도 보은군 산대 공중화장실,충북 보은군 산외면 길탕리 423,36.5632848486717,127.701411586848
340,전라남도 해남군 흑석산 치유의 숲,전남 해남군 계곡면 가학리 산 1,34.6731022344237,126.611268994331
341,전라북도 부안군 스마트 융복합 멀티플렉스,,,
342,부산광역시 사상구 주례2동 행정복지센터,부산 사상구 주례동 154-1,35.150041465783,129.010413490371
343,경기도 이천시 율면 노인복지관,경기 이천시 율면 본죽리 164-2,37.071378493609,127.527229300354
344,강원도 강릉시 (가칭)홍제유치원 신축공사,,,
345,충청남도 보령시 보령시 가족센터,충남 보령시 동대동 502-38,36.3462801520812,126.608459585248
346,전라남도 여수시 손양원목사 기념공원 정비사업,,,
347,경기도 고양시 지축유치원,경기 고양시 덕양구 지축동 671,37.6519085460151,126.915490113309
348,경상북도 의성군 봉양면 온누리터,,,
349,경기도 성남시 신흥2동 행정복지센터,경기 성남시 수정구 신흥동 5481,37.4430331520914,127.141176662375
350,전라북도 고창군 상하체육테마공원 공중화장실,,,
351,경상남도 거제시 과학영농종합시설타운,,,
352,서울특별시 양천구 구립 아인어린이집,,,
353,경상북도 청도군 국립농산물품질관리원 경북지원 청도사무소,경북 청도군 화양읍 합천리 384-3,35.6519135248227,128.711406789185
354,경상북도 칠곡군 칠곡군 보훈회관,경북 칠곡군 왜관읍 석전리 795-12,36.0001097918618,128.397458799011
355,경기도 안양시 호계체육관 주차장,경기 안양시 동안구 호계동 177-1,37.3801515748492,126.946702922118
356,세종특별자치시  세종테크노파크,세종특별자치시 조치원읍 신흥리 123,36.5928863934754,127.292551005908
357,광주광역시 광산구 용진산 약수터 공중화장실,광주 광산구 왕동 3-4,35.1975231550364,126.724541698286
358,광주광역시 광산구 꽃밭등어린이공원 공중화장실,,,
359,인천광역시 남동구 남동구 세대통합형 복합시설,인천 남동구 서창동 680,37.427440470835,126.747143216642
360,서울특별시 강서구 마곡엠벨리 9단지아파트,서울 강서구 마곡동 744,37.56230033929,126.819169157728
361,경상북도 영천시 보랏빛향기 커뮤니티센터,,,
362,충청남도 서산시 서산시 가족센터,충남 서산시 동문동 371-16,36.7840929636656,126.461682980214
363,경상남도 창원시 합성2동 제3경로당,,,
364,광주광역시 광산구 하남3지구 생활체육시설,,,
365,경상남도 창원시 구암1동 제1·2 경로당,,,
366,전라남도 장성군 장성군 노인회관,전남 장성군 삼서면 대곡리 815-1,35.2320945698855,126.646217366697
367,전라북도 익산시 상생협력상가 및 상생마당,,,
368,전라남도 구례군 봉동리 4구 경로당,,,
369,제주특별자치도 서귀포시 서귀포소방서 중문119센터,제주특별자치도 서귀포시 회수동 641-8,33.2541784578199,126.438032755413
370,전라북도 익산시 황등면 무동마을 경로당,,,
371,경상북도 포항시 흥해읍 다목적 재난구호소,경북 포항시 북구 양덕동 655-1,36.0901697454433,129.396135449786
372,전라북도 김제시 금구면 행정복지센터,전북 김제시 금구면 금구리 177-16,35.7744148637471,127.011287464943
373,세종특별자치시  부강 꿈뜰 어린이공원 화장실,,,
374,충청북도 제천시 제천시 장애인단기보호센터,,,
375,세종특별자치시  번암어린이공원 화장실,,,
376,경기도 김포시 김포시 양곡마을 주민공동이용시설,,,
377,강원도 춘천시 춘천시 지역먹거리 직매장,,,
378,강원도 강릉시 왕산리 공공화장실,,,
379,강원도 동해시 북평민속시장 고객지원센터,,,
380,대구광역시 수성구 황금2동 행정복지센터,대구 수성구 황금동 541-2,35.8415135975091,128.625247343918
381,세종특별자치시  신용보증재단 중앙회 사옥,,,
382,울산광역시 남구 수암시장 주차장 조성사업,,,
383,전라남도 광양시 도선국사 사상수련관,,,
384,경상북도 영양군 일월면 분회 경로당,,,
385,경상북도 영양군 석보면 분회 경로당,경북 영양군 입암면 신구리 534-2,36.5929279685305,129.089319509903
386,인천광역시 남동구 식품영양복지지원센터,인천 남동구 만수동 984-1,37.4481304769871,126.732188892492
387,서울특별시 서대문구 시립서대문농아인복지관 별관 복합시설,,,
388,전라남도 목포시 목포해양대학교 국제교류센터 및 박물관 신축공사,,,
389,광주광역시 광산구 공동직장 어린이집,,,
390,인천광역시 계양구 서운산업단지 구립어린이집,,,
391,인천광역시 계양구 구립 다인어린이집,인천 계양구 효성동 293-7,37.5293394043999,126.718160328502
392,경상북도 구미시 구미산동고등학교,경북 구미시 산동읍 인덕리 1119,36.1586859309443,128.43617061432
393,인천광역시 서구 인천검단소방서,인천 서구 왕길동 635-4,37.6026608286698,126.655156286675
394,경상북도 경주시 문무대왕 해양역사관,경북 경주시 감포읍 대본리 617,35.7461717947807,129.486347033972
395,광주광역시 북구 중흥 복합공공도서관 건립공사,,,
396,서울특별시 영등포구 영등포구 대림 1동 마을도서관 신축공사,,,
397,전라남도 화순군 동복면 농촌중심지활성화사업(공동생활홈),,,
398,경기도 광주시 퇴촌 청소년문화센터,,,
399,전라남도 고흥군 점암면 강산지구 공중화장실 신축공사,,,
400,전라남도 영광군 불갑산 야생화 생태체험 학습장,,,
401,경상남도 양산시 양산시 시나브로복지관,,,
402,경상남도 합천군 가야산국립공원 육각정공중화장실,,,
403,대구광역시 동구 안심뉴타운 근린공원 공중화장실,,,
404,경상북도 경산시 경산경찰서 압량파출소,경북 경산시 압량읍 부적리 462-1,35.8438972144375,128.760869843198
405,경기도 남양주시 늘을중앙공원 주차장,,,
406,경기도 군포시 군포첨단산업단지조성 훼손지복구사업-관리동,,,
407,대구광역시 달서구 선사문화체험관·청소년문화의집 건립공사,,,
408,인천광역시 강화군 오상2리 경로당,인천 강화군 내가면 오상리 666-4,37.7286245469621,126.376512980201
409,"인천광역시 동구 송현 1,2동 복합청사",,,
410,경기도 안양시 삼덕공원 공영주차장,경기 안양시 만안구 안양동 782-24,37.3981394478149,126.917042922326
411,경상남도 거제시 거제시 가정행복지원센터,경남 거제시 아주동 989,34.8746508090642,128.687539302725
412,인천광역시 계양구 작전시장 고객지원센터,,,
413,강원도 강릉시 포남1동 주민센터,강원 강릉시 포남동 1295-2,37.7727061402257,128.91333804127
414,강원도 춘천시 춘천시 지역먹거리 직매장,,,
415,경기도 오산시 오산시 가장 1산단 공영주차장,,,
416,제주특별자치도 서귀포시 신양리 다목적회관,,,
417,경상남도 거창군 거창 당산리 당송 주변정비사업,,,
418,경기도 파주시 동패초등학교,경기 파주시 동패동 1782,37.712343686882,126.734554365419
419,서울특별시 양천구 양천중앙도서관,서울 양천구 신정동 1319-4,37.5136519608227,126.833629748577
420,제주특별자치도 제주시 서귀중앙초 병설유치원 증축공사,,,
421,부산광역시 사상구 사상구 구립 목욕탕,,,
422,전라남도 여수시 화장동 공영주차장,전남 여수시 여천동 903-19,34.7790042836431,127.663569203623
423,광주광역시 광산구 하남3지구 주차전용건축물 1,,,
424,경기도 고양시 일산동구보건소 청사 건립공사,,,
425,경기도 파주시 광탄도서관 복합문화공간,,,
426,부산광역시 강서구 부전-마산 복선전철 민간투자시설사업 BM02 정거장,,,
427,경기도 군포시 군포시 가족센터,경기 군포시 산본동 1151-10,37.3588791119523,126.918602324447
428,전라남도 여수시 진남배드민턴 전용구장,,,
429,강원도 동해시 동해소방서,강원 동해시 구호동 241,37.4719426642537,129.141866568388
430,경기도 파주시 산내초등학교,경기 파주시 목동동 1148,37.7227392865067,126.736653784615
431,인천광역시 중구 중구 제2청,인천 중구 운남동 1511,37.493852904931,126.531452927637
432,경기도 파주시 국립민속박물관 파주관,,,
433,강원도 동해시 동해시 U-care 센터,강원 동해시 단봉동 2,37.480605084255,129.124646656724
434,부산광역시 기장군 대변 수산물 직매장,,,
435,부산광역시 동구 부산역광장 유라시아 플랫폼,,,
436,서울특별시 마포구 구립 성미어린이집,서울 마포구 성산동 65-4,37.5628882668568,126.911314318162
437,경상남도 김해시 칠산 서부동 행정복지센터,경남 김해시 전하동 515-3,35.2227446016807,128.870952073405
438,경기도 안산시 정곡경로당,경기 안산시 상록구 본오동 852,37.2907980302724,126.867736637091
439,부산광역시 부산진구 부산진경찰서 범천1파출소,부산 부산진구 범천동 844-48,35.1447226168871,129.060259317826
440,전라북도 고창군 고창읍 공용주차타워,,,
441,경상북도 구미시 스마트커넥트센터,경북 구미시 신평동 188-3,36.1180425172289,128.363436545461
442,경상북도 안동시 풍산읍 오미리 공중화장실,,,
443,경상북도 영덕군 영덕군 병곡면 고래불 스포츠센터,,,
444,"경상남도 김해시 부원동 2,3,4통 경로당",,,
445,경상북도 울진군 울진군립 추모공원 봉안시설,,,
446,경상북도 울진군 울진군립 추모공원 화장시설,,,
447,경상북도 울진군 구산보건진료소,경북 울진군 기성면 구산리 290-1,36.7603925207948,129.467803999069
448,경상북도 의성군 경상북도교육청 의성안전체험관,경북 의성군 다인면 달제리 1513,36.4725475140724,128.386327886819
449,경기도 의정부시 경원선 망월사역,,,
450,충청남도 홍성군 옥암어린이공원 공중화장실,,,
451,전라남도 고흥군 고흥군 치매안심요양병원,,,
452,경기도 화성시 동탄2 실내배드민턴장 건립,,,
453,강원도 인제군 인제군 농업기술센터 청사 이전사업,,,
454,경상남도 진주시 상봉동 행정복지센터,경남 진주시 상봉동 1020-13,35.1996153427031,128.074845952115
455,경상북도 경산시 내성 공영주차장 조성사업,,,
456,전라북도 장수군 계북면 기초생활거점사업,,,
457,전라북도 장수군 장계면 기초생활거점사업,,,
458,경상북도 구미시 구미시 강동 청소년 문화의 집,,,
459,전라남도 순천시 왕조1동 신월경로당,,,
460,전라남도 신안군 목포경찰서 마진도치안센터,전남 신안군 장산면 마진도리 230-1,34.6233789891476,126.207372403523
461,부산광역시 부산진구 당감동 복합 국민체육센터,,,
462,경기도 김포시 향산초중학교,경기 김포시 고촌읍 향산리 29-4,37.6193402174253,126.74935151574
463,경기도 구리시 구리경찰서 갈매지구대,경기 구리시 갈매동 654,37.6295905194979,127.12033509768
464,충청북도 증평군 보강천체육공원 공중화장실,,,
465,강원도 속초시 속초해변 행정지원센터,강원 속초시 조양동 1464-7,38.1901234146092,128.603512215511
466,강원도 속초시 속초해변 화장실 및 샤워장,,,
467,경상남도 하동군 하동선거관리위원회 청사,,,
468,경상남도 창원시 시립북면 무동어린이집,경남 창원시 의창구 북면 무동리 124-1,35.3190475069242,128.58181165993
469,강원도 인제군 인제군 사회적경제지원센터,강원 인제군 북면 원통리 473-7,38.1263166929086,128.213443435075
470,울산광역시 울주군 창업·일자리종합지원센터 건립공사,,,
471,울산광역시 북구 호계문화체육센터 건립공사,,,
472,경기도 의정부시 의정부시 중소기업지원센터,경기 의정부시 용현동 524-3,37.7432532896215,127.082661352632
473,전라북도 진안군 성수면 스포츠 공감센터,,,
474,경기도 남양주시 화도노인복지관,경기 남양주시 화도읍 마석우리 551,37.6573570118521,127.29863127475
475,세종특별자치시  행정중심복합도시 상수도 통합관제센터,,,
476,경기도 포천시 포천시립선단도서관,경기 포천시 선단동 437-1,37.8537225619962,127.159953565025
477,경기도 포천시 포천시립선단도서관,경기 포천시 동교동 437-1,37.8437333698686,127.137615791748
478,경기도 포천시 포천시립선단도서관,경기 포천시 설운동 437-1,37.8567184132219,127.147309241921
479,경기도 포천시 포천시립선단도서관,경기 포천시 자작동 437-1,37.8718439301465,127.169466035422
480,충청남도 서산시 서산시 육아종합지원센터,충남 서산시 석림동 762-1,36.7703817424986,126.461302707842
481,전라남도 해남군 해남군 땅끝 가족 어울림센터 신축공사,,,
482,경상북도 울진군 후포 해양수산복합공간 조성사업 신축공사,,,
483,제주특별자치도 서귀포시 서귀포 사려니 숲 내 야외화장실,,,
484,경기도 파주시 산들초등학교,경기 파주시 목동동 910,37.7292284705037,126.731441631334
485,경상북도 경주시 금관총 고분정보센터 신축공사,,,
486,충청남도 논산시 강경산 문화공간,,,
487,충청남도 보령시 오천면 청사,충남 보령시 오천면 소성리 496,36.4366407238939,126.523319776181
488,경기도 화성시 동탄3지구대,경기 화성시 석우동 59-1,37.2073612037164,127.077362937539
489,경상남도 양산시 (가칭)사송유치원,,,
490,대구광역시 동구 대구혁신도시 복합혁신센터,대구 동구 각산동 1174,35.8782100089308,128.716774715703
491,강원도 동해시 동해시 U-care 센터,강원 동해시 단봉동 2,37.480605084255,129.124646656724
492,대구광역시 남구 앞산 고산골 공룡공원 공룡체험학습관,,,
493,경상북도 영주시 영주시 농어촌 놀이터,,,
494,경상남도 진주시 하촌천 친수공간 공중화장실,,,
495,경상북도 상주시 화북면 중벌리 체육공원 공중화장실,,,
496,부산광역시 서구 부산서부경찰서 충무지구대,부산 서구 토성동4가 2-3,35.0975817925606,129.023883078445
497,경상남도 양산시 사송 1 초등학교 교사 신축 공사,,,
498,대구광역시 동구 효목2동 소목골경로당,대구 동구 효목동 420-1,35.8773614160237,128.635521759674
499,서울특별시 성북구 동북선 도시철도 민간투자사업 106정거장,,,
500,서울특별시 성북구 동북선 도시철도 민간투자사업 105정거장,,,
501,서울특별시 동대문구 동북선 도시철도 민간투자사업 104정거장,,,
502,서울특별시 동대문구 동북선 도시철도 민간투자사업 103정거장,,,
503,강원도 평창군 용산보건진료소,강원 평창군 대관령면 용산리 392-1,37.6605950987312,128.664584417882
504,경상남도 통영시 통영시 수산식품산업 거점센터,경남 통영시 도산면 법송리 산 229-1,34.8929697034143,128.365000302285
505,충청남도 태안군 태안UV랜드,,,
506,충청남도 홍성군 속동전망대 주차장 공중화장실,,,
507,충청북도 청주시 오송보건의료행정타운 제2직장어린이집(증축),,,
508,전라남도 여수시 여수 미평 하나어린이집,전남 여수시 미평동 591-17,34.7627701641896,127.706377928289
509,전라남도 화순군 화순군 광덕택지 공영주차장 주차환경개선사업,,,
510,전라남도 해남군 대한노인회 해남군지회,전남 해남군 해남읍 구교리 333-1,34.5740982507722,126.59264158187
511,전라남도 보성군 보성군 노동면사무소,전남 보성군 노동면 광곡리 254,34.7989223870492,127.067937239161
512,충청남도 홍성군 정부충남지방합동청사,충남 홍성군 홍북읍 신경리 541,36.6570336132466,126.675790270829
513,강원도 화천군 사내 복합실내체육관 건립 신축공사,,,
514,경상남도 김해시 김해진영우체국,경남 김해시 진영읍 진영리 275-33,35.3043664168628,128.732307890698
515,강원도 고성군 대진항 해상공원 화장실,,,
516,광주광역시 광산구 비아5일시장 주차타워,,,
517,전라북도 정읍시 정읍수성 행복주택,,,
518,강원도 양양군 KR 인재개발원,,,
519,대전광역시 서구 (가칭)대전어울림유치원 신축공사,,,
520,"경기도 의정부시 북부소방재난본부, 의정부소방서 합동청사",,,
521,경기도 김포시 김포시 북부권 제2종합사회복지관 건립공사,,,
522,경기도 시흥시 배곧 새봄유치원,경기 시흥시 정왕동 2492,37.3731410250799,126.733365567772
523,울산광역시 남구 3D프린팅 벤처집적 지식산업센터,울산 남구 두왕동 772-1,35.5074049384714,129.303143467629
524,제주특별자치도 서귀포시 남당물공원 화장실,,,
525,충청남도 청양군 정산기숙형중학교,충남 청양군 정산면 역촌리 564-4,36.412244879055,126.95620182546
526,충청남도 서산시 구도항 도서민 편의시설 확충사업,,,
527,부산광역시 북구 만덕동심공원 지하공영주차장,,,
528,충청남도 공주시 의당면 요룡1리 경로당,,,
529,경상북도 문경시 하리2리 어린이공원 공중화장실,,,
530,경상북도 문경시 당포1리 휴식공원 공중화장실,,,
531,전라남도 순천시 순천시 반려동물 문화센터,,,
532,경상북도 경주시 경주시 여성행복드림센터,,,
533,경상북도 경주시 경주시 나정해수욕장 화장실,,,
534,충청남도 공주시 우금티전적 알림터,,,
535,강원도 동해시 명동경로당,,,
536,전라남도 담양군 창평면 복합커뮤니티센터,,,
537,광주광역시 광산구 빛그린산단 개방형체육관,,,
538,강원도 인제군 신남2리 경로당,,,
539,강원도 원주시 원주시보건소 치매안심센터,,,
540,강원도 원주시 장애인 주.단기 보호센터 꿈꾸는 나무,,,
541,강원도 원주시 장애인보호작업장 행복공감,강원 원주시 단구동 1486-2,37.3189113019804,127.968895130819
542,경기도 동두천시 동두천시보건소 별관(치매안심센터),,,
543,경상북도 칠곡군 지천면사무소,경북 칠곡군 지천면 신리 357-1,35.9560659279742,128.491032133943
544,충청남도 금산군 그라운드 골프장 클럽하우스,,,
545,경상북도 의성군 의성군 보건소,경북 의성군 의성읍 도서리 104-1,36.3458173587929,128.697332263079
546,인천광역시 연수구 인천유나이티드 FC축구센터,,,
547,경상남도 고성군 고성군 농촌생활문화관,,,
548,경상남도 고성군 고성군 공공실버주택,경남 고성군 고성읍 교사리 13,34.9776495840086,128.314092103876
549,충청북도 영동군 구촌문화공원 공중화장실,,,
550,부산광역시 사상구 부산도서관,부산 사상구 덕포동 415-2,35.1727271830876,128.985212275
551,경상남도 양산시 서창도서관,경남 양산시 삼호동 886-1,35.4095920734711,129.174772137829
552,강원도 횡성군 이모빌리티 지식산업센터,,,
553,경상북도 포항시 포항남부경찰서 청림파출소,,,
554,경상남도 의령군 의령군 작은영화관,,,
555,충청남도 청양군 국립농산물품질관리원충남지원 청양사무소,충남 청양군 청양읍 읍내리 331-3,36.4488273977673,126.80158208527
556,강원도 인제군 인제 전지훈련 복합단지 조성사업,,,
557,광주광역시 광산구 신창동 유적 선사체험학습관,,,
558,충청북도 청주시 청주 인공암벽장 조성사업,,,
559,경기도 안양시 럭키어린이공원 화장실 신축공사,,,
560,강원도 홍천군 수타사 문화관광해설사 대기소 및 화장실,,,
561,경상북도 포항시 국민건강보험공단 포항남부지사,경북 포항시 남구 대도동 165-5,36.010740404511,129.363944318465
562,경기도 하남시 하남시 차량등록사무소,경기 하남시 신장동 521-3,37.5415384765064,127.214379862024
563,전라남도 여수시 양지바름공원 공중화장실,전남 여수시 화장동 산 12-1,34.7851551986308,127.647047291998
564,전라남도 여수시 차동공원 공중화장실,전남 여수시 소라면 죽림리 1140,34.7647972619915,127.637216473903
565,경상북도 울진군 울진군 제2민원실,,,
566,경상남도 양산시 명동2마을경로당,경남 양산시 삼호동 183-7,35.4099857711821,129.175747142983
567,광주광역시 광산구 광주소프트웨어 마이스터고 기숙사,,,
568,전라남도 광양시 골약건강생활지원센터,,,
569,전라남도 광양시 광양경찰서 골약파출소,,,
570,전라북도 부안군 격포항 화장실,전북 부안군 변산면 격포리 788-19,35.6223119632106,126.471084235508
571,전라남도 구례군 산동면소재지 5일시장정비-상가동 정비,,,
572,광주광역시 동구 무등산 증심사 제2주차장 부대시설(공중화장실),,,
573,서울특별시 관악구 남현유치원,서울 관악구 남현동 1080-1,37.4741398718076,126.974340556032
574,서울특별시 구로구 항동중학교,서울 구로구 항동 22-5,37.4828800329609,126.821243247972
575,부산광역시 부산진구 개금2동 주민센터,부산 부산진구 개금동 503-18,35.1526666234988,129.021914658297
576,경상남도 거제시 거제시 국공립 옥포 조라 어린이집,경남 거제시 옥포동 660-4,34.8939975729734,128.696094579355
577,경기도 화성시 화성시 봉담 동화리(중심상가) 공영주차장,,,
578,충청북도 진천군 진천스토리창작클러스트 조성사업,,,
579,전라남도 나주시 공산면 농촌중심지 활성화사업-5일장시장 증축공사,,,
580,제주특별자치도 제주시 새별오름 들불축제장 공중화장실2,,,
581,제주특별자치도 제주시 새별오름 들불축제장 공중화장실1,,,
582,인천광역시 연수구 송도체육센터,인천 연수구 송도동 160-1,37.3864881686972,126.669821526176
583,경기도 평택시 평택모산초등학교,,,
584,광주광역시 북구 국립광주과학관 인공지능5G체험관 건립공사,,,
585,울산광역시 중구 중구보훈복지회관,,,
586,경상남도 진주시 가호동행정복지센터,경남 진주시 가좌동 1432-8,35.1599731629965,128.106656875338
587,제주특별자치도 서귀포시 유토피아 갤러리,제주특별자치도 서귀포시 서귀동 532-1,33.2458709606384,126.564914122392
588,경상북도 안동시 안동시 북후면 농촌중심지활성화사업 공중화장실,,,
589,경기도 시흥시 시흥시 대야3지구 어린이공원 내 공원관리사무소 및 공중화장실,,,
590,세종특별자치시  (가칭)집현유·초등학교 신축공사 설계용역,,,
591,대구광역시 달성군 달성군 교육문화복지센터,대구 달성군 현풍읍 중리 506,35.6912349088456,128.457007987836
592,경상북도 칠곡군 금남 인문학당,,,
593,전라북도 순창군 복흥면 청소년문화의 집 및 노인교실,,,
594,경상남도 진주시 저작권 교육체험관,,,
595,경기도 하남시 감일초등학교,경기 하남시 감이동 291-6,37.5000559921925,127.162222037317
596,경기도 광주시 태전국민체육센터,경기 광주시 태전동 124-17,37.3814021980752,127.233268444249
597,부산광역시 사상구 엄궁동 통통 주민커뮤니티센터,,,
598,경기도 광명시 연서도서관,경기 광명시 철산동 153,37.4838209198821,126.865140347906
599,강원도 태백시 장성동 메밀뜰 경로당,강원 태백시 장성동 20-1,37.0942556427611,129.023966548378
600,강원도 태백시 장성동 메밀뜰 경로당,강원 태백시 금천동 20-1,37.0922093435201,128.993296521224
601,서울특별시 양천구 구립 해맞이 어린이집,서울 양천구 신월동 953-6,37.5209350834927,126.833920815547
602,경상북도 봉화군 삼동보건진료소,경북 봉화군 명호면 삼동리 765-3,36.8782154384723,128.932762330289
603,경상북도 문경시 흥덕 회전교차로공원 공중화장실,,,
604,경상북도 청송군 청송군 파천면 관2리 경로당,,,
605,경상북도 포항시 포항북부경찰서 양학파출소,,,
606,경상북도 봉화군 시끌벅적 봉화구시장 조성사업,,,
607,경상북도 봉화군 행복나눔 파인토피아 봉화조성사업,,,
608,전라북도 부안군 공립치매전담형 주야간보호시설 공용청사,,,
609,전라북도 부안군 계화면 농촌중심지활성화사업 계화공원 화장실,,,
610,경기도 광주시 (가칭)능평초등학교,,,
611,강원도 철원군 궁예 태봉국 테마파크,,,
612,경기도 수원시 수원시 복합미디어센터,,,
613,경상남도 거창군 덕유산국립공원 남덕유분소,경남 거창군 북상면 월성리 1786-1,35.7707120945226,127.716455555243
614,세종특별자치시  국민연금공단 세종사옥,세종특별자치시 아름동 1304,36.5144834633163,127.242044579985
615,충청북도 영동군 영동 부용 고령자복지주택 사회복지시설,,,
616,전라북도 전주시 전통문화 체험전수관,전북 전주시 덕진구 송천동1가 243-2,35.8534265579999,127.125933989104
617,강원도 평창군 효석문화예술촌 꿈꾸는 달,,,
618,강원도 평창군 효석문화예술촌 마중전시관,,,
619,강원도 홍천군 서면 굴업리 경로당,강원 홍천군 서면 굴업리 404-2,37.6205120841786,127.683343997904
620,전라북도 정읍시 천하대장군 공중화장실,,,
621,전라북도 정읍시 내장주차장 공중화장실,,,
622,전라북도 장수군 계남면 농촌중심지 활성화사업 백화마당 야외화장실,,,
623,충청남도 천안시 복자여자중학교,충남 천안시 동남구 성황동 9-1,36.8153441235895,127.151353826949
624,서울특별시 관악구 관악구 신사동 복합청사,,,
625,충청남도 홍성군 결성면 오거리 휴게광장 공중화장실,,,
626,충청남도 아산시 아산월천유치원,충남 아산시 배방읍 북수리 1570,36.7727628420953,127.077272288077
627,인천광역시 중구 영종하늘도시 근린공원 21호 화장실,,,
628,인천광역시 중구 영종하늘도시 근린공원 14호 화장실,,,
629,인천광역시 중구 영종하늘도시 근린공원 15호-2 화장실,,,
630,인천광역시 중구 영종하늘도시 근린공원 15호-1 화장실,,,
631,인천광역시 중구 영종하늘도시 근린공원 11호 화장실,,,
632,인천광역시 중구 영종하늘도시 광장 5호 화장실,,,
633,인천광역시 중구 영종하늘도시 근린공원 8호 화장실,,,
634,전라북도 고창군 신림면 다목적체육관,전북 고창군 신림면 무림리 64-1,35.4882418868323,126.718399594684
635,인천광역시 남동구 간석2동 행정복지센터,인천 남동구 간석동 49-1,37.4661276816333,126.714589199352
636,인천광역시 미추홀구 관교노인복지관,인천 미추홀구 관교동 21-2,37.4392854271034,126.696055915502
637,경기도 양주시 양주국민체육센터,경기 양주시 광사동 700,37.7885581529069,127.083795984818
638,강원도 화천군 화천문화원,강원 화천군 화천읍 하리 산 1,38.107741592387,127.703138921239
639,대구광역시 서구 원대동 행정복지센터,대구 서구 원대동3가 1430-9,35.8852846678406,128.573473044336
640,경상남도 함안군 함안군 제2승마장,,,
641,경상남도 사천시 삼천포구항 도시재생[청년문화에비뉴(도시재생 어울림 플랫폼)],,,
642,경상남도 사천시 청널공원 내 공원휴게시설 신축공사,,,
643,경기도 수원시 수원중부경찰서 율천파출소 신축공사,,,
644,서울특별시 강북구 강북구 보건지소,서울 강북구 번동 232,37.632210872336,127.038822442979
645,경상남도 사천시 삼천포구항 도시재생(복합문화공간 및 시장지원거점시설),,,
646,서울특별시 용산구 서울특별시 교육청 신청사 건립공사,,,
647,충청남도 서천군 서천경제진흥통합센터,,,
648,전라남도 광양시 광양시 육아종합지원센터,전남 광양시 중동 1747-1,34.9409906037034,127.700257979565
649,충청남도 아산시 공수리 제3공영주차장,,,
650,경상남도 남해군 미조북항 화장실,경남 남해군 미조면 미조리 102,34.7119943678864,128.045916651387
651,경상북도 상주시 한국한복진흥원,경북 상주시 함창읍 교촌리 216,36.5772097433568,128.159118202853
652,경상북도 문경시 농암면농업인상담소,경북 문경시 농암면 농암리 217-3,36.6007259991291,128.003639764906
653,전라북도 장수군 계남면 농촌중심지 활성화사업 행복나눔터,,,
654,부산광역시 기장군 이천수산물 직매장,,,
655,인천광역시 연수구 인천 송도소방서 국제119안전센터,인천 연수구 송도동 313-9,37.4103120473802,126.628720076916
656,경기도 안양시 안양8동 행정복지센터,경기 안양시 만안구 안양동 1383,37.3991342250939,126.925938505213
657,제주특별자치도 제주시 한림1리 공동체공간 조성공사,,,
658,경기도 부천시 고강다목적체육센터,,,
659,세종특별자치시  행정중심복합도시 도시상징광장 주차장 건설공사(B~C),,,
660,경기도 시흥시 은계어울림센터-1,,,
661,"서울특별시 성동구 서울교통공사 2,3호선(174칸) 신조전동차(다원시스)",,,
662,서울특별시 강남구 강남구 논현동 공공시설,서울 강남구 논현동 125-13,37.5120295531918,127.026126537129
663,서울특별시 성동구 서울교통공사 2호선(214칸) 전동차(현대로템),,,
664,서울특별시 성동구 서울교통공사 2호선(200칸) 전동차(다원시스),,,
665,경상북도 울진군 북면하나어린이집,경북 울진군 북면 부구리 159-44,37.1031820269507,129.372412055713
666,충청남도 아산시 아산시 육아종합지원센터,충남 아산시 실옥동 181-15,36.7875397179994,126.993010542537
667,충청남도 금산군 칠백의 총 기념관 및 관리소,,,
668,제주특별자치도 제주시 제주 고산리 유적 정비사업,,,
669,경기도 용인시 용인시 국민체육센터,,,
670,전라남도 영암군 영암군 수도사업소 신축공사,,,
671,경기도 안양시 석수1동 경로당,경기 안양시 만안구 안양동 707-139,37.3937289132072,126.921481404823
672,전라북도 완주군 삼례중학교,전북 완주군 삼례읍 삼례리 1691-7,35.9110684212098,127.078741308867
673,강원도 강릉시 환동해특수재난대응단 청사,,,
674,충청북도 청주시 청주 보듬이나눔이 어린이집,,,
675,충청북도 청주시 덕벌 모임터,,,
676,경기도 오산시 오산 시니어클럽 건립공사,,,
677,울산광역시 중구 울산 출입국ㆍ외국인 사무소,,,
678,전라북도 무주군 무주향교 화장실,,,
679,전라남도 강진군 강진다산청렴연수원,전남 강진군 강진읍 동성리 548,34.6456841454149,126.769410258467
680,전라남도 강진군 강진청소년수련관,전남 강진군 강진읍 동성리 545,34.6461775997333,126.769558434799
681,경상남도 창원시 중리체육공원 게이트볼장 및 화장실,,,
682,전라남도 장성군 국립농산물품질관리원 전남지원 장성사무소,전남 장성군 장성읍 영천리 1048-13,35.3023686424136,126.782498428134
683,전라남도 순천시 순천공립 치매전담형 주야간보호시설,,,
684,충청북도 충주시 충주시 보훈회관,충북 충주시 지현동 1800-34,36.9588482381924,127.931021387986
685,전라남도 구례군 구례 도시창생을 위한 문화관광레저 군민광장 및 지하주차장,,,
686,전라남도 목포시 대성동행정복지센터,전남 목포시 대성동 27-7,34.7992897028968,126.38362333686
687,전라남도 목포시 유달산 노적봉 화장실,,,
688,인천광역시 서구 119화학대응센터 및 원창119안전센터 신축공사,,,
689,전라남도 무안군 오룡지구 내 근린공원 공중화장실,,,
690,경상남도 창원시 대산면보건지소,경남 창원시 의창구 대산면 제동리 822-2,35.3307355550627,128.708331438426
691,경상북도 칠곡군 금남 인문학당,,,
692,경상남도 남해군 남해 다이어트보물섬 조성사업(다이어트센터),,,
693,전라북도 김제시 김제시 치매안심센터,전북 김제시 요촌동 141-8,35.797259695185,126.888661648759
694,광주광역시 동구 동명동 전천후 게이트볼장 조성공사,,,
695,경기도 성남시 복정제2국공립어린이집,,,
696,경상남도 함안군 함안군 칠서면 보건지소,,,
697,전라남도 신안군 암태면 기능확대형 보건지소,,,
698,대구광역시 수성구 고산건강생활지원센터 ·고산노인복지관,,,
699,경상남도 양산시 하북체육공원 제3구장,,,
700,서울특별시 관악구 관악청년청,서울 관악구 봉천동 912-26,37.4823052038119,126.945666246278
701,경기도 시흥시 배곧어울림센터-2,,,
702,서울특별시 서대문구 서대문구 구립 가재울청소년센터,,,
703,충청남도 보령시 보령시 농산물가공 지원센터,,,
704,경기도 하남시 하남경찰서 덕풍지구대,경기 하남시 덕풍동 산 36-3,37.5459106108767,127.197783506422
705,경상북도 영덕군 영덕군 보건소,경북 영덕군 영덕읍 덕곡리 228-2,36.4135451232888,129.373557954388
706,경상북도 의성군 의성읍 도시재생뉴딜사업 어울림센터,,,
707,광주광역시 북구 북구행복어울림센터 건립 기본 및 실시설계 용역,,,
708,서울특별시 강남구 일원동 741-3 도서관,서울 강남구 개포2동 139,37.482613279696,127.066133951051
709,전라남도 영암군 영암남풍 고령자 복지주택,,,
710,경상남도 산청군 생초국제조각공원 화장실,,,
711,경상남도 창원시 오동민원센터,경남 창원시 마산합포구 오동동 113-23,35.2087660102815,128.578583561068
712,경상남도 창원시 오동민원센터,경남 창원시 마산합포구 부림동 113-23,35.2054281498865,128.57358873194
713,경기도 파주시 해마루촌 공중화장실,,,
714,제주특별자치도 제주시 서부지구 생활밀착형 국민체육센터,,,
715,강원도 춘천시 건강생활지원센터,강원 춘천시 우두동 1066-7,37.8999659838655,127.72898087789
716,서울특별시 강동구 천호3동 제2공영주차장,서울 강동구 천호동 174-1,37.5405415323211,127.134066270916
717,서울특별시 영등포구 신길6동 공동문화복합시설,,,
718,부산광역시 강서구 명지녹산산단 명지어린이집,부산 강서구 명지동 3245-13,35.0845705485196,128.904813622467
719,충청남도 부여군 부여군 가족행복센터,,,
720,경상북도 울진군 한마음광장 공중(어업인)화장실,,,
721,전라북도 임실군 임실N농특산물 유통센터,,,
722,인천광역시 서구 회화마을 커뮤니티센터,,,
723,전라남도 광양시 광영동 농촌중심지활성화사업(공영주차장),,,
724,전라북도 고창군 세이브더칠드런 고창 농어촌 놀이터,,,
725,광주광역시 동구 지원1동 복합커뮤니티센터,광주 동구 소태동 486-1,35.1253019751399,126.935220428488
726,광주광역시 동구 지원1동 마을사랑채,광주 동구 학동 721,35.1330439107607,126.932954811032
727,경기도 평택시 큰나루근린공원 화장실,,,
728,경상남도 함양군 문정공중화장실,,,
729,경상남도 함양군 점촌마을 공중화장실,,,
730,충청북도 옥천군 군서면 금천리 공중화장실,,,
731,충청북도 옥천군 군서면 증산리 공중화장실,,,
732,충청북도 보은군 속리산면 구병리 공중화장실,충북 보은군 속리산면 구병리 437,36.4826593559456,127.870129892047
733,전라남도 고흥군 전남(고흥) 스마트팜 혁신밸리 지원센터,,,
734,강원도 인제군 들꽃마을 방문자센터,,,
735,강원도 양구군 국립농산물품질관리원 양구사무소,강원 양구군 국토정중앙면 청리 897-1,38.1069505982521,128.033567139797
736,경상남도 거제시 저도 관광편의시설(화장실),,,
737,전라북도 진안군 진안경찰서 성수파출소,전북 진안군 성수면 외궁리 719-3,35.7074907807974,127.323435073506
738,전라북도 장수군 장수경찰서 번암파출소,전북 장수군 번암면 노단리 1151-3,35.530897789931,127.543592776478
739,울산광역시 남구 옥동 어울림센터 신축공사,,,
740,인천광역시 미추홀구 미추홀구 용현3동 제2노외공영주차장,,,
741,경기도 구리시 구리전통시장 제2공영주차빌딩,,,
742,경상북도 경산시 진량읍 희망나눔센터,,,
743,경상남도 고성군 동고성 체육시설,,,
744,인천광역시 미추홀구 수산기술지원센터,인천 미추홀구 용현5동 627-608,37.4466041555767,126.636742966163
745,인천광역시 중구 동화마을 경로당,인천 중구 송월동3가 11-45,37.4786926287504,126.62018359308
746,경상북도 칠곡군 한티억새마을 관광자원화사업,,,
747,제주특별자치도 서귀포시 서귀포 혁신도시 국민체육센터,,,
748,경상남도 하동군 소다사 복지회관,,,
749,전라북도 남원시 남원 화장품 지식산업센터,,,
750,경상남도 산청군 내대보건진료소,경남 산청군 시천면 내대리 587-15,35.2778437963113,127.747034163433
751,인천광역시 남동구 서창2동 행정복지센터,인천 남동구 서창동 683,37.4278910374395,126.750777422736
752,경상북도 봉화군 봉화정자문화생활관,경북 봉화군 봉성면 외삼리 14-10,36.9015546815707,128.811013149507
753,충청남도 보령시 대천4동 행정복지센터,충남 보령시 대천동 170-1,36.3518789964007,126.597081435816
754,전라남도 광양시 광양 골약중학교,,,
755,경기도 시흥시 죽율체육공원 화장실 신축공사,,,
756,전라남도 여수시 '가칭' 웅동초등학교 신축공사,,,
757,강원도 원주시 새마음 근린공원 공중화장실,,,
758,강원도 평창군 평창송어종합공연체험장,강원 평창군 진부면 하진부리 1289-46,37.6321200498256,128.556772013539
759,전라남도 신안군 홍도 기능확대형 보건지소,,,
760,전라남도 신안군 하의면 기능확대형 보건지소,,,
761,충청북도 음성군 갑산 체리마을 산림욕장 관리실 및 화장실,,,
762,전라북도 부안군 실버커뮤니티센터 건립공사,,,
763,제주특별자치도 제주시 올레20코스 안내소,,,
764,제주특별자치도 제주시 올레14코스 안내소,제주특별자치도 제주시 한경면 저지리 1843-2,33.3336678972089,126.256108039246
765,충청북도 옥천군 은행보건진료소,충북 옥천군 군서면 은행리 143-2,36.2699969972994,127.509335607306
766,서울특별시 서대문구 서대문구청 별관,서울 서대문구 홍은동 273-10,37.5801910113892,126.93423539623
767,경상남도 김해시 이윤재 허웅선생 기념관,,,
768,전라북도 부안군 운호마을 공중화장실,,,
769,전라북도 고창군 문수산 편백숲 주차장 조성사업,,,
770,경기도 군포시 광정동 주민커뮤니티센터,,,
771,대구광역시 달서구 청년창업공작소,,,
772,경상북도 청송군 현동면 도평재래시장 공중화장실,,,
773,경상북도 울진군 중흥부 경로당,,,
774,전라남도 완도군 완도 해양치유센터,전남 완도군 신지면 신리 153-7,34.3283824475731,126.818271269306
775,강원도 고성군 죽왕초 개방형 다목적체육관 신축공사,,,
776,충청남도 예산군 내포자연놀이뜰 건립공사,,,
777,경기도 포천시 (가칭)영평초등학교 신축공사,,,
778,제주특별자치도 서귀포시 공립 별빛하나 어린이집,제주특별자치도 서귀포시 서호동 1601,33.2524788563855,126.517554132516
779,경상북도 울진군 북울진도서관 신축공사,,,
780,충청북도 제천시 제천세무서 청사,,,
781,충청북도 청주시 청주 실내빙상장,충북 청주시 청원구 사천동 91-15,36.6792746001899,127.477392425227
782,울산광역시 동구 동울산종합시장 공영주차장 및 고객지원센터,,,
783,경기도 가평군 청평면 생활형 국민체육센터 건립공사,,,
784,경기도 가평군 상면 생활형 국민체육센터 건립공사,,,
785,강원도 원주시 원주 남권역 복합체육센터,,,
786,서울특별시 성북구 장위석관 보건지소,서울 성북구 석관동 183-15,37.6104925608042,127.06339046086
787,전라북도 군산시 전북 사회적경제 혁신타운,,,
788,경기도 안산시 수원~인천 복선전철 사리역사,,,
789,인천광역시 옹진군 자월면 이작리 공중화장실,인천 옹진군 자월면 이작리 541-1,37.1770158065296,126.253745381591
790,인천광역시 옹진군 덕적면 소야리 공중화장실,인천 옹진군 덕적면 소야리 347-1,37.2126967526439,126.176303009985
791,인천광역시 옹진군 덕적면 백아리 공중화장실,,,
792,강원도 원주시 치악산국립공원 체험학습장,,,
793,대전광역시 유성구 유성구 하기동 여가녹지 화장실 및 관리사무소,,,
794,강원도 평창군 용산 보건진료소 신축공사,,,
795,대전광역시 서구 서구 보훈회관,대전 서구 갈마동 293-26,36.3526957322579,127.367821380799
796,충청남도 부여군 남면행정복지센터,충남 부여군 남면 회동리 339-2,36.2120697121557,126.806386824721
797,대전광역시 유성구 아가랑 도서관,대전 유성구 반석동 713,36.3907885751753,127.30627057094
798,경상남도 합천군 합천 다함께 우리아이 행복센터,,,
799,제주특별자치도 서귀포시 신흥2리 동백마을 노인회관,,,
800,전라남도 여수시 여문공원 종합정비사업(3구역 화장실 신축),,,
801,전라남도 여수시 여문공원 종합정비사업(2구역 화장실 신축),,,
802,전라북도 익산시 만경강문화관,,,
803,전라남도 순천시 순천시 연향동 주차전용 건축물 건립사업,,,
804,전라남도 곡성군 곡성경찰서 오곡파출소,전남 곡성군 오곡면 오지리 909-1,35.2729118556404,127.313512275158
805,인천광역시 서구 드론인증센터 및 이착륙장,,,
806,충청북도 제천시 충북지원 종자정선시설,,,
807,제주특별자치도 서귀포시 아랑조을거리 공영주차장 복층화사업,,,
808,충청북도 진천군 충북혁신도시 복합혁신센터,충북 진천군 덕산읍 두촌리 2447,36.9065484235086,127.535718283549
809,전라남도 해남군 해남청년 오프라인 플랫폼 청년카페,,,
810,경기도 여주시 여주시 차량등록사무소,경기 여주시 천송동 300-4,37.3014046744706,127.657876029175
811,울산광역시 울주군 명촌경로당,울산 울주군 상북면 명촌리 152,35.5713465945523,129.084088796466
812,울산광역시 중구 울산광역시 상수도사업본부 중부사업소,울산 중구 우정동 213-2,35.5535389051044,129.310753938276
813,경상북도 군위군 군위군 의흥면사무소,경북 군위군 의흥면 읍내리 420-16,36.175786832591,128.715188445458
814,서울특별시 광진구 서울특별시 광진구 구의동 업무시설,,,
815,경기도 성남시 성남 금곡체육공원 국민체육센터,,,
816,충청남도 아산시 염작초등학교,충남 아산시 둔포면 석곡리 1785,36.9243399761763,127.051765889677
817,경기도 광주시 경안동 도시재생뉴딜사업 거점시설 조성사업 플랫폼 YF,,,
818,전라남도 광양시 광양시 진상5일시장 현대화사업,,,
819,전라북도 고창군 삼계면 농촌중심지활성화사업 세부설계 윤슬관(커뮤니티센터),,,
820,전라북도 남원시 남원세무서 청사,,,
821,인천광역시 부평구 청천2구역 복합문화센터,,,
822,인천광역시 남동구 인천서창동우체국,인천 남동구 서창동 671,37.4228332431945,126.751960296064
823,경상남도 김해시 부전 - 마산 복선전철 민간투자시설사업 장유역,,,
824,충청남도 보령시 보령머드 테마파크 조성사업,,,
825,경기도 하남시 하남 미사도서관,경기 하남시 망월동 955,37.5695458969859,127.186717154968
826,전라북도 완주군 청완초등학교,전북 완주군 봉동읍 둔산리 864-14,35.9634124481949,127.120337667897
827,세종특별자치시  해밀중고등학교,,,
828,제주특별자치도 제주시 옹포리 경로당,제주특별자치도 제주시 한림읍 옹포리 460,33.4050182254025,126.253339080475
829,전라남도 고흥군 고흥터미널주변 공영주차장(타워),,,
830,경상북도 의성군 생송 보건진료소,경북 의성군 단밀면 생송리 230-5,36.3751154009566,128.350389023922
831,경상남도 남해군 한려해상국립공원 금산주차장 공중화장실,,,
832,경상북도 경산시 경산치유의 숲,,,
833,경상북도 상주시 경북대 상주캠퍼스 앞 매표소,,,
834,대구광역시 달서구 문화어울마당 쉼터조성 및 마을주차장 확충개선공사,,,
835,"서울특별시 성동구 삼선동 1가 278-5,6번지 공영주차장",,,
836,경상남도 의령군 궁류면 농촌중심지활성화사업 중 궁류목욕장,,,
837,충청남도 천안시 천안생활체육야구장 공중화장실 4동,,,
838,충청남도 천안시 천안생활체육야구장 공중화장실 3동,,,
839,인천광역시 서구 허암 정희량 유허지 화장실,,,
840,경기도 동두천시 송내동 주차장 조성사업,,,
841,경기도 남양주시 이석영청년창업센터,,,
842,전라남도 무안군 무안군 청계면 도림리 공중화장실,전남 무안군 청계면 도림리 469-3,34.9096085953186,126.430273909197
843,강원도 삼척시 속초 다목적 실내 생활체육관,,,
844,충청남도 당진시 합덕제 농어촌테마공원 샤워실,,,
845,부산광역시 동구 부산오페라하우스,부산 동구 초량동 1205-10,35.1140039442565,129.039564690739
846,경기도 김포시 마산동 행정복지센터,경기 김포시 마산동 621-15,37.6411420399636,126.64400523723
847,경기도 성남시 (가칭)고등유치원,,,
848,광주광역시 광산구 노사동반성장 지원센터 건립사업,,,
849,경기도 동두천시 승지골 경로당 신축,,,
850,충청북도 영동군 양산면 기초생활거점육성사업 건강관리센터,,,
851,경기도 시흥시 시흥시 차량등록사업소,경기 시흥시 능곡동 808-1,37.3642606308837,126.807508709524
852,충청북도 청주시 북부시장 제1주차장 카페,,,
853,경기도 여주시 점동면 공공청사 복합건립사업,,,
854,경기도 용인시 풍덕천 경로당,경기 용인시 수지구 풍덕천동 1186,37.3144369612371,127.082920287528
855,전라북도 군산시 청암산 생태체험센터,,,
856,충청남도 천안시 입장면 산정1리 경로당,충남 천안시 서북구 입장면 산정리 264-1,36.9402277781479,127.179189830936
857,강원도 평창군 평창돌문화체험관,강원 평창군 평창읍 중리 15-3,37.3763377911964,128.409604790501
858,서울특별시 송파구 풍납2동 복합청사,,,
859,충청남도 아산시 2020년 은행나무길 화장실(느티광장) 신축공사,,,
860,대전광역시 대덕구 새여울 커뮤니티센터,,,
861,경기도 시흥시 시화MTV 86호 수변공원 화장실,,,
862,경기도 시흥시 시화MTV 85호 수변공원 화장실,,,
863,부산광역시 사하구 신평장림 산업단지 혁신지원센터,,,
864,인천광역시 강화군 석모도 만남의 광장(공중화장실),,,
865,경상남도 고성군 이당일반산업단지 내 지원시설(식당),,,
866,대구광역시 서구 대구 서구 복합커뮤니티시설,,,
867,강원도 철원군 철원군장병쉼터,,,
868,경기도 안성시 안성시 정신건강복지센터,경기 안성시 도기동 67-21,37.0001829555766,127.269965301816
869,인천광역시 서구 마전 다목적체육관 신축공사,,,
870,경기도 수원시 매탄2동 공영주차장,경기 수원시 영통구 매탄동 1268,37.259205962215,127.046596602761
871,서울특별시 강남구 강북장애인복지관,,,
872,경상북도 고령군 고아리벽화고분 모형관,,,
873,전라북도 익산시 익산경찰서 성당파출소,전북 익산시 성당면 장선리 275-2,36.0870548327603,126.937796797071
874,전라남도 완도군 완도군 청년센터,,,
875,서울특별시 동대문구 힐스테이트 청량리역,서울 동대문구 청량리동 235-6,37.5830648923496,127.048267354529
876,경기도 수원시 수인분당선 오목천역,경기 수원시 권선구 오목천동,37.2418690484095,126.969394427065
877,경상남도 하동군 갑정보건진료소,경남 하동군 진교면 월운리 681,35.0684431990521,127.883790660136
878,경기도 수원시 수인분당선 고색역,경기 수원시 권선구 고색동,37.246196958883,126.984144062997
879,충청남도 홍성군 홍성 어사노을공원 화장실,,,
880,강원도 홍천군 화상대2리 어은동 마을회관 및 경로당,,,
881,인천광역시 강화군 어유정항 화장실 신축공사,,,
882,전라남도 강진군 강진만 생태탐방 학습홍보관,,,
883,경기도 안성시 아양도서관,경기 안성시 옥산동 564,37.0055831570191,127.254450286714
884,충청북도 괴산군 괴산 서울농장,,,
885,전라북도 익산시 익산 공공승마장 및 재활승마 인프라 조성공사,,,
886,전라북도 전주시 전주 덕진구 혁신동 주민센터 건립공사,,,
887,경기도 구리시 구리시 갈매동 복합청사,,,
888,충청남도 서천군 송석항 해의커뮤니티센터,,,
889,경기도 화성시 (가칭)봉담1유치원,,,
890,경상북도 영천시 (가칭)웰컴센터,,,
891,충청북도 제천시 제천시 생활밀착형 국민체육센터 건립사업,,,
892,경상북도 영천시 (가칭)어울림플랫폼,,,
893,경상북도 경주시 경주국립공원 건천분소,경북 경주시 건천읍 천포리 402-1,35.8535567410523,129.100743372143
894,인천광역시 남동구 간석4동 행정복지센터,인천 남동구 간석동 49-1,37.4661276816333,126.714589199352
895,경기도 광주시 광남동 행정복합문화시설,,,
896,경기도 수원시 팔달구 문화센터,경기 수원시 팔달구 인계동 1117,37.2630951136906,127.03779996473
897,인천광역시 강화군 삼산면 주민자치타운 청사,,,
898,인천광역시 서구 (가칭)검단5초등학교,,,
899,경기도 광주시 오포 어린이 체육시설,경기 광주시 오포읍 신현리 46,37.3740162169215,127.177387608988
900,제주특별자치도 제주시 추자파출소,제주특별자치도 제주시 추자면 대서리 19,33.9639376686348,126.295962794609
901,강원도 동해시 동호지구 도시재생사업 파란발전소,,,
902,충청남도 예산군 충남 스포츠센터 건립공사 통합운영센터 및 수영장,,,
903,충청남도 예산군 충남 스포츠센터 건립공사 다목적체육관,,,
904,경기도 화성시 화성 독립운동 기념관 건립공사,,,
905,충청북도 충주시 유네스코 국제무예센터,충북 충주시 금릉동 577,36.9919078081493,127.908764232052
906,충청북도 충주시 유네스코 국제무예센터,충북 충주시 칠금.금릉동 577,36.9870218541899,127.921584801869
907,충청북도 청주시 생명초중학교,충북 청주시 청원구 오창읍 양청리 810-9,36.7118451061543,127.438682860439
908,경기도 화성시 다원유치원,경기 화성시 영천동 539-8,37.2103653785589,127.103782459624
909,강원도 원주시 서부권 건강생활지원센터,,,
910,경상남도 김해시 전하3통 경로당,경남 김해시 전하동 17-1,35.2246873380147,128.873325838631
911,전라남도 해남군 보성~임성리 철도건설 해남역사,,,
912,전라남도 장흥군 보성~임성리 철도건설 장흥역사,,,
913,전라남도 장흥군 보성~임성리 철도건설 장동역사,,,
914,전라남도 영암군 보성~임성리 철도건설 영암역사,,,
915,전라남도 강진군 보성~임성리 철도건설 강진역사,,,
916,전라남도 보성군 보성~임성리 철도건설 보성역사,,,
917,충청남도 금산군 금산교육지원청 교육지원센터,,,
918,대전광역시 유성구 솔마루 어린이공원 공중화장실,,,
919,충청북도 청주시 용아초등학교,충북 청주시 상당구 용암동 236-6,36.6183582070741,127.52254790605
920,충청북도 청주시 동남유치원,충북 청주시 상당구 용암동 122-6,36.617173919022,127.522717652924
921,서울특별시 동작구 청석 거주자우선주차장 복합화사업,,,
922,서울특별시 용산구 응봉근린공원 관리사무소,,,
923,경기도 이천시 국공립장호원 어린이집 신축공사,,,
924,강원도 양양군 양양전통시장 공영주차장,강원 양양군 양양읍 남문리 3-23,38.0752611673497,128.625039504441
925,울산광역시 울주군 천전경로당,울산 울주군 두동면 천전리 1210-34,35.6172630022772,129.1528494999
926,충청남도 부여군 부여읍 북부보건진료소,충남 부여군 부여읍 자왕리 377-3,36.309644587398,126.955840170152
927,서울특별시 구로구 구로구 항동복합행정센터 신축공사,,,
928,경기도 수원시 THE 큰 통합놀이터,,,
929,경상북도 문경시 고요아리랑 민속마을,,,
930,울산광역시 울주군 두동곽성경로당,,,
931,울산광역시 울주군 범서곡연경로당,,,
932,울산광역시 울주군 서부2리 경로당,,,
933,대전광역시 동구 성남동 다목적체육관,대전 동구 성남동 537,36.3426229588461,127.430789808942
934,경기도 수원시 화서시장 공영주차장,경기 수원시 팔달구 고등동 57-1,37.2732511568223,127.005628458374
935,서울특별시 영등포구 국회 의원회관,서울 영등포구 여의도동 1,37.5310586079353,126.915381487445
936,경기도 남양주시 다산꽃다비유치원,경기 남양주시 다산동 6120,37.6191950201671,127.162841646523
937,경상남도 하동군 옥종 행복나눔센터,,,
938,충청남도 공주시 공산성 방문자 센터,충남 공주시 금성동 65-2,36.4649026976725,127.123697867001
939,서울특별시 동작구 구립 한울 어린이집,서울 동작구 신대방동 344-281,37.4943278013813,126.926367946286
940,강원도 강릉시 소금강분소,강원 강릉시 연곡면 삼산리 46-3,37.8136577332823,128.704600273072
941,경상남도 하동군 하동 나누리플랫폼,,,
942,경상남도 통영시 정량천 생태하천 공중화장실,,,
943,울산광역시 울주군 상평2리 경로당,,,
944,경상북도 영천시 언하2동 경로당,,,
945,경상북도 영천시 영천시 자양보건지소,경북 영천시 자양면 성곡리 552-1,36.078479010875,129.0183788832
946,세종특별자치시  정부세종청사 직장어린이집(1-38),,,
947,전라북도 군산시 대야시장 인근 편의시설,,,
948,경상북도 경주시 경주시 건천읍 행정복합타운,,,
949,경상남도 밀양시 밀양시농업기술센터 교육관,,,
950,대전광역시 대덕구 신탄진 도시재생 육아종합지원센터,,,
951,경상북도 문경시 영순면 분회경로당,,,
952,강원도 고성군 행복고성문화복합센터,,,
953,경기도 군포시 산본로데오거리 주차전용건축물,,,
954,전라북도 정읍시 신태인읍 행정문화복합센터,,,
955,충청남도 공주시 치유센터 조성사업,,,
956,충청남도 금산군 남부체육센터 클럽하우스,,,
957,전라북도 고창군 아산면 농촌중심지활성화사업(아산희망센터),,,
958,경기도 화성시 무봉산 자연휴양림,,,
959,충청남도 계룡시 계룡시 종합사회복지관,충남 계룡시 엄사면 유동리 288,36.2730978036001,127.233011069549
960,경상북도 경주시 양동마을 경로당,,,
961,서울특별시 서초구 방배숲도서관,서울 동작구 사당동 256-1,37.484510568898,126.973480871927
962,전라남도 여수시 꽃가람공원 공중화장실,,,
963,경기도 부천시 (가칭)계수중학교 신축공사,,,
964,서울특별시 송파구 송파 구립 거여하나어린이집,,,
965,경상북도 포항시 경상북도 동부청사 건립공사,,,
966,경상북도 김천시 경상북도김천교육지원청 학생문화예술센터,,,
967,경기도 광명시 개운어린이공원 지하주차장,,,
968,제주특별자치도 제주시 신산머루 돌봄센터 신축공사,,,
969,광주광역시 동구 남광주시장 공중화장실,광주 동구 학동 55,35.1391467321841,126.921765322838
970,부산광역시 사상구 부전~마산 복선전철 사상역,,,
971,경상남도 거창군 거창 하천환경교육센터,경남 거창군 거창읍 가지리 188-1,35.6953903515634,127.910506897784
972,울산광역시 북구 강동고등학교,울산 북구 산하동 산 61-11,35.6323716770437,129.435479713144
973,제주특별자치도 서귀포시 서귀포 추모공원 공설봉안당(별관),,,
974,경상남도 양산시 가촌2초등학교 교사 신축공사,,,
975,경기도 화성시 봉담2 주2 공영주차장,,,
976,경기도 화성시 봉담2 주1 공영주차장,,,
977,경기도 고양시 고양도서관,경기 고양시 일산동구 마두동 804,37.65110369472,126.779315913698
978,경상북도 영천시 동부4통 경로당,경북 영천시 야사동 183-5,35.9746263142344,128.945588448661
979,경기도 용인시 수지구 동천동 노인정 신축공사,,,
980,충청남도 서산시 해미시장 시설현대화사업 관광형 테마시장,,,
981,부산광역시 강서구 강서구 육아종합지원센터,부산 강서구 명지동 3390-1,35.1008688892318,128.925472338642
982,경기도 성남시 위례 어울림 종합사회복지관,,,
983,전라북도 전주시 전주덕진지구대,전북 전주시 덕진구 덕진동2가 179-6,35.8481957547168,127.120490468797
984,제주특별자치도 제주시 삼양동 선사유적지 주차장 관리사무소,,,
985,충청북도 음성군 금왕 산업단지 개방형체육관 건립사업,,,
986,전라남도 순천시 호남 호국기념관,전남 순천시 연향동 144,34.9358861587437,127.521262343903
987,광주광역시 북구 스테이션G 건립사업,,,
988,강원도 홍천군 북방면 중화계리 경로당,강원 홍천군 북방면 중화계리 147-2,37.70299673601,127.867168626707
989,대구광역시 중구 중구 재활용센터,대구 중구 봉산동 206-24,35.8608316167383,128.599381693634
990,경기도 남양주시 남양주경찰서 퇴계원파출소,,,
991,경기도 수원시 수원시 제16호 문화공원 내 화장실,,,
992,인천광역시 중구 인천중산중학교,인천 중구 중산동 1914-2,37.4981455807373,126.571275210066
993,경기도 화성시 화남초등학교,경기 화성시 장지동 915,37.1637077415797,127.096095394636
994,제주특별자치도 제주시 제주산학융합지구,,,
995,충청남도 서산시 지곡면 청사 건립사업,,,
996,충청북도 충주시 (가칭) 용전고등학교 신축공사,,,
997,충청북도 제천시 제천예술의전당 건립사업 건축공사,,,
998,서울특별시 성동구 성동 맘앤키즈 복합문화센터,,,
999,경기도 시흥시 (가칭)은계1유치원 신축공사,,,
1000,경기도 성남시 고등동행정복지센터,경기 성남시 수정구 고등동 378-1,37.428844315269,127.10481588128
1001,부산광역시 수영구 광안노인복지관 및 수영구 장애인복지관,,,
1002,경기도 화성시 동탄2 제28초 이음터,,,
1003,경기도 화성시 동탄2 제1초 이음터,,,
1004,경상북도 안동시 안동역사,경북 안동시 풍천면 가곡리 595,36.5723467833457,128.522297113657
1005,세종특별자치시  보람종합복지센터,세종특별자치시 보람동 767,36.4792573523367,127.292315003798
1006,서울특별시 금천구 남부도로사업소 청사,,,
1007,제주특별자치도 제주시 김녕항 수산문화복합센터,,,
1008,인천광역시 부평구 백운경로당,인천 부평구 십정동 186-408,37.4832362941661,126.703870340998
1009,서울특별시 노원구 상계5동청사,서울 노원구 상계동 1120-63,37.6747732547015,127.057636377008
1010,경기도 오산시 오산천 공영주차장,,,
1011,충청남도 아산시 온양5동 행정복지센터,충남 아산시 용화동 677,36.7752381880863,126.996062974593
1012,경상남도 양산시 대운산 생태숲 체험관,,,
1013,충청남도 서천군 장항의 집,충남 서천군 장항읍 신창리 150-29,36.0117570210773,126.69414557315
1014,경상남도 거제시 남해 국공립 하나 어린이집,,,
1015,제주특별자치도 제주시 제주시 이도2동 429-7 공영주차장 복층화사업,,,
1016,울산광역시 남구 철새홍보관,울산 남구 무거동 1225,35.5495396064649,129.279450801237
1017,전라남도 완도군 구계등 탐방안내소,,,
1018,충청남도 홍성군 홍성군 가족센터 건립공사,,,
1019,경기도 수원시 경기도 신청사,경기 수원시 영통구 이의동 184,37.2886911874676,127.054161407756
1020,경기도 광주시 감일2초등학교 신축공사,,,
1021,광주광역시 광산구 광산동 오룡마을 경로당,,,
1022,광주광역시 서구 광주 서구 유덕 하나어린이집,,,
1023,경상남도 김해시 김해서중학교 교사 신축 설계용역,,,
1024,부산광역시 북구 북구소방서,부산 북구 금곡동 54-2,35.2672857681149,129.017656630191
1025,강원도 영월군 동.서강 정원(화장실),,,
1026,전라남도 구례군 효곡보건진료소,전남 구례군 간전면 효곡리 366-6,35.1391102442611,127.541131443831
1027,전라남도 무안군 무안군해상안전체험관,전남 무안군 해제면 유월리 2-1,35.1024260351467,126.333455563176
1028,강원도 영월군 영흥14리 경로당,,,
1029,경기도 안양시 해당화 경로당,,,
1030,전라남도 여수시 오동도입구 관리동 및 공중화장실,,,
1031,경기도 하남시 하남우체국,경기 하남시 덕풍동 378-2,37.5400747423181,127.200728319028
1032,경기도 용인시 용인창의과학도서관,,,
1033,서울특별시 중구 서울애니메이션센터,서울 중구 회현동2가 10-1,37.5598162415723,126.983026626816
1034,경기도 가평군 탄벌쌈지공원 공중화장실,,,
1035,서울특별시 영등포구 e편한세상 영등포 아델포레,서울 영등포구 대림동 1127,37.4943934373007,126.90677940214
1036,충청북도 음성군 혁신도시 국민체육센터,충북 음성군 맹동면 동성리 486,36.9104022779944,127.541679221525
1037,충청남도 보령시 보령시 대천동 소매점 신축공사,,,
1038,경상북도 문경시 농암면 농촌중심지 활성화사업(농암면 행정복지센터),,,
1039,경상북도 문경시 문경 로컬푸드 문화센터,,,
1040,경기도 의정부시 도봉산~옥정 광역철도 1공구(102정거장),,,
1041,경상남도 창원시 양덕2동 탑골경로당,,,
1042,충청북도 단양군 북벽지구 테마공원 조성사업(북벽센터),,,
1043,경기도 고양시 일산도서관,경기 고양시 일산서구 일산동 954-6,37.6850066325223,126.76441701869
1044,경기도 파주시 파주 무대공연종합아트센터,경기 파주시 탄현면 법흥리 1631-9,37.7849855243113,126.696053702733
1045,서울특별시 강남구 달터근린공원 공원관리소,,,
1046,경기도 광주시 만선 문화복지센터,,,
1047,울산광역시 남구 3D프린팅품질평가센터,,,
1048,충청북도 괴산군 부흥보건지소,충북 괴산군 청안면 부흥리 204-3,36.7046967755041,127.730353664481
1049,인천광역시 서구 인천해원초등학교 별동 신축공사,,,
1050,경기도 시흥시 배곧도서관,경기 시흥시 정왕동 2491,37.3734941456666,126.733769851481
1051,경상남도 밀양시 밀양 스포츠파크,경남 밀양시 단장면 미촌리 940-51,35.5061463216469,128.83817220628
1052,전라북도 익산시 반다비(장애인)체육센터·펜싱아카데미,,,
1053,서울특별시 송파구 위례파출소,경기 성남시 수정구 창곡동 513-4,37.4723104184979,127.149695484494
1054,경기도 양주시 도봉산~옥정 광역철도 3공구 104정거장,,,
1055,경상남도 김해시 활천동 체육관,경남 김해시 어방동 685,35.2421442657328,128.900222858627
1056,울산광역시 울주군 온산읍 종합 행정복지타운,,,
1057,강원도 춘천시 춘천 중도 레고랜드 주차장 조성사업,,,
1058,경기도 화성시 반월 체육센터,경기 화성시 반월동 209,37.2303523078301,127.053491768189
1059,경상남도 함안군 함안 역사문화체험파크,경남 함안군 가야읍 도항리 718,35.2682938414678,128.40219640795
1060,전라남도 광양시 중마장애인복지관,전남 광양시 마동 1212,34.9381794893941,127.702602210206
1061,강원도 강릉시 화부산 경로당,강원 강릉시 교동 896-3,37.7603767221519,128.89181758601
1062,강원도 횡성군 안흥찐빵 모락모락마을,,,
1063,경기도 고양시 흙내음공원 화장실,,,
1064,경상남도 김해시 5호 어린이공원 화장실,,,
1065,경상남도 김해시 4호 어린이공원 화장실,,,
1066,충청남도 보령시 원도심 도시재생 어울림센터,,,
1067,경상남도 창원시 진동면 서촌1구 경로당,,,
1068,인천광역시 남동구 신월경로당,인천 남동구 구월동 1283-18,37.4496779569682,126.720130939879
1069,경기도 이천시 행복모아주식회사 제빵공장,,,
1070,경상남도 사천시 용현면 행정복지센터,경남 사천시 용현면 송지리 228-1,35.0134758514173,128.06136489179
1071,강원도 원주시 섬강중학교,강원 원주시 지정면 가곡리 461-2,37.376878673972,127.880739617107
1072,경기도 화성시 서해선 복선전철 106역사,,,
1073,경상남도 김해시 김해치매안심센터(동부건강생활지원센터),,,
1074,경상북도 칠곡군 북삼 제8어린이공원 공중화장실,,,
1075,충청남도 아산시 아산 배방공영(북수지구)주차타워 조성사업,,,
1076,충청남도 아산시 아산 배방공영(공수지구)주차타워 조성사업,,,
1077,충청남도 당진시 송악사회복지관,충남 당진시 송악읍 기지시리 411-15,36.9083345556737,126.691462147303
1078,경기도 안산시 월피체육문화센터,,,
1079,인천광역시 중구 중산7통경로당,,,
1080,경상북도 문경시 하늘재 옛길 복원 사업 (판매시설),,,
1081,경기도 안양시 비산2동 행정복지센터,경기 안양시 동안구 비산동 488-15,37.3998591534192,126.933620011911
1082,강원도 양양군 오색자연휴양체험지구 오색주차장1,,,
1083,충청남도 예산군 예산군 광시면 서초정보건진료소,충남 예산군 광시면 서초정리 1115-1,36.5749534744725,126.8153142099
1084,충청남도 홍성군 서부죽도 공중화장실,,,
1085,경상남도 하동군 지리산 국립공원 화개탐방 안내소,경남 하동군 화개면 용강리 423-4,35.2318055990397,127.641473281723
1086,경기도 성남시 성남수정경찰서 고등파출소,경기 성남시 수정구 고등동 587,37.4297656862203,127.100361422408
1087,충청북도 옥천군 국립해양측위정보원 청사,,,
1088,제주특별자치도 제주시 삼양 다목적체육관,제주특별자치도 제주시 도련이동 747,33.5134420901573,126.596462998301
1089,충청남도 계룡시 양정어린이공원 공중화장실,,,
1090,경상남도 창원시 교방남성경로당,경남 창원시 마산합포구 산호동 57-13,35.2170796940525,128.578033678935
1091,전라남도 해남군 우수영 5일시장 공중화장실,,,
1092,전라남도 목포시 송림근린공원 공중화장실,전남 목포시 용당동 1024-25,34.8097884111736,126.400911921216
1093,제주특별자치도 제주시 유수암 상동 경로당(증축공사),,,
1094,인천광역시 서구 불로문화체육센터 건립공사,,,
1095,강원도 고성군 해양심층수 산업지원센터,강원 고성군 죽왕면 오호리 253-6,38.3291836924128,128.51971771941
1096,전라북도 임실군 임실군립도서관,전북 임실군 임실읍 이도리 273-3,35.6148394511975,127.286437132106
1097,서울특별시 중랑구 망우리공원 웰컴센터,,,
1098,충청남도 당진시 정미면 주민다목적회관,,,
1099,서울특별시 서대문구 국립대한민국임시정부기념관 건립공사,,,
1100,경상남도 진주시 대봉새뜰센터,,,
1101,경기도 과천시 과천지식정보타운 지식기반산업용지 3BL (과천시 사회적경제 마을공동체 지원센터),,,
1102,부산광역시 연제구 연제구아이사랑뜰,,,
1103,전라남도 여수시 전라남도 여수시 장성지구 공영주차장,,,
1104,서울특별시 도봉구 생태문화도서관,,,
1105,경상남도 고성군 고성 송학동 고분군 화장실,,,
1106,인천광역시 서구 가재울마을 커뮤니티센터,인천 서구 가좌동 328-4,37.4882181394347,126.682233114525
1107,강원도 양구군 양구군 동면 청소년 문화의집 건립공사 설계용역,,,
1108,전라남도 여수시 여수시 장애인종합복지관 다동 재건축,,,
1109,서울특별시 동작구 사당지구대,서울 동작구 사당동 1028-1,37.4804886291055,126.979772397992
1110,경상북도 성주군 성주군 어린이놀이터(공중화장실),,,
1111,대구광역시 수성구 선수훈련시설 및 합숙소,,,
1112,서울특별시 구로구 구로창의문화예술센터 신축공사,,,
1113,경상남도 창원시 웅남동 경로당,경남 창원시 성산구 중앙동 51-16,35.2229793765012,128.674297128664
1114,강원도 삼척시 삼척항 어업인 편의시설,,,
1115,충청남도 아산시 (가칭)탕정2중학교 교사 신축공사,,,
1116,서울특별시 구로구 항동생활체육관,서울 구로구 항동 166-2,37.4772816119315,126.823274619726
1117,경기도 평택시 소사2유치원,,,
1118,전라남도 여수시 화정면 적금공원 공중화장실 신축공사,,,
1119,전라북도 남원시 오감만족 숲 화장실,,,
1120,전라남도 순천시 성동로타리지구 우수저류시설 공중화장실,,,
1121,충청남도 천안시 목천읍 소사리 경로당,충남 천안시 동남구 목천읍 소사리 126-7,36.734997452232,127.172140041609
1122,충청남도 천안시 광덕면 회개마을 경로당,,,
1123,경상북도 봉화군 봉화소방서,경북 봉화군 봉화읍 삼계리 164-2,36.9000601062016,128.735548653362
1124,전라남도 순천시 4차산업혁명 박람회장 공중화장실,,,
1125,충청남도 공주시 공주 원도심 청년센터 건립사업,,,
1126,경기도 하남시 풍산지구 내 멀티스포츠센터 건립공사,,,
1127,전라남도 영광군 법성뉴타운 공용주차장 화장실,,,
1128,전라남도 신안군 비금면 공립형 지역아동센터,,,
1129,충청남도 계룡시 계룡시 어린이감성체험장,충남 계룡시 엄사면 도곡리 151-6,36.2682087921709,127.214492489225
1130,충청남도 계룡시 공립 계룡상록어린이집,충남 계룡시 엄사면 도곡리 147-21,36.2684196000802,127.214028996828
1131,대전광역시 서구 노루벌 적십자 생태원,대전 서구 흑석동 697,36.2760673134078,127.33269064515
1132,경상북도 예천군 경북여성가족플라자,경북 예천군 호명면 금능리 775,36.5757969136149,128.471743954769
1133,경기도 화성시 어천역사,,,
1134,경기도 화성시 야목역사,,,
1135,제주특별자치도 서귀포시 오조리 종합복지회관,,,
1136,전라남도 나주시 청소차량 차고지 및 근무인력 대기실,,,
1137,경상남도 고성군 CGV 고성,경남 고성군 고성읍 서외리 77-1,34.9769281980733,128.315804695915
1138,전라북도 순창군 세계발효마을농장,,,
1139,경상북도 고령군 꿈꾸는 시간 여행자센터,,,
1140,경상북도 안동시 풍산읍 농업인상담소,경북 안동시 풍산읍 안교리 123-207,36.5786939068971,128.572547026874
1141,경상북도 울진군 포항~삼척 기성역사,,,
1142,경상북도 울진군 포항~삼척 울진역사,,,
1143,강원도 속초시 속초법무합동청사,,,
1144,경상남도 진주시 미천면 경로당,경남 진주시 미천면 효자리 581-2,35.3306380400435,128.068562538799
1145,경상북도 울진군 포항~삼척 죽변역사,,,
1146,강원도 삼척시 포항~삼척 임원역사,,,
1147,강원도 삼척시 포항~삼척 원덕역사,,,
1148,경상북도 울진군 포항~삼척 북면역사,,,
1149,강원도 삼척시 포항~삼척 매원역사,,,
1150,경상북도 울진군 포항~삼척 평해역사,,,
1151,경상북도 영덕군 포항~삼척 영해역사,,,
1152,경상북도 영덕군 포항~삼척 병곡역사,,,
1153,경상북도 울진군 포항~삼척 원남역사,,,
1154,경상북도 울진군 포항~삼척 후포역사,,,
1155,강원도 삼척시 포항~삼척 삼척역사,,,
1156,강원도 인제군 국립농산물품질관리원 인제사무소,강원 인제군 인제읍 상동리 268-1,38.0664698702519,128.172219604222
1157,경상북도 영천시 영천경찰서 역전파출소,경북 영천시 완산동 891,35.959164986157,128.940644620119
1158,충청북도 음성군 음성 맹동면 두성리 어린이집,,,
1159,경상북도 성주군 성주군 공영주차장,경북 성주군 성주읍 경산리 763-73,35.915189520884,128.280891472988
1160,인천광역시 남동구 구월농산물도매시장 이전건립 사업,,,
1161,인천광역시 남동구 인천모래내전통시장 공중화장실,인천 남동구 구월동 1261-19,37.4537460212847,126.721733997251
1162,전라남도 해남군 해남 로컬푸드 직매장,전남 해남군 해남읍 성내리 41-2,34.5724796026392,126.598291728105
1163,전라남도 무안군 청계면사무소,전남 무안군 청계면 도림리 400,34.9085412154516,126.429455382556
1164,전라북도 고창군 관촌면 체육문화센터,,,
1165,인천광역시 연수구 (가칭)송도6유치원 신축공사,,,
1166,경상북도 고령군 고령군 지산리 공영주차타워,,,
1167,전라남도 여수시 신기동 공영주차장,전남 여수시 시전동 1079-2,34.7557274718975,127.664750767778
1168,경상남도 고성군 고성 야구장 조성(신축) 공사,,,
1169,제주특별자치도 제주시 올레19코스 안내소,제주특별자치도 제주시 조천읍 조천리 2859-1,33.5403855741246,126.639931416323
1170,전라북도 순창군 추억의 식품거리,,,
1171,경기도 평택시 신촌유치원,,,
1172,전라남도 광양시 가칭)광양햇살학교 신축공사,,,
1173,전라남도 함평군 용천사권 관광개발사업 치유센터 신축사업,,,
1174,울산광역시 울주군 삼남초등학교,울산 울주군 삼남읍 교동리 1701-1,35.555519310365,129.126977408018
1175,부산광역시 남구 문현 노인복지관,부산 남구 문현동 125-9,35.1437592237486,129.072153838013
1176,경상남도 김해시 김해시 동상시장 주차환경개선사업,,,
1177,경기도 성남시 판교(구 자연장지)체육공원 내 화장실,,,
1178,전라남도 보성군 조성면 농어촌 공중목욕장,,,
1179,부산광역시 기장군 정관보건지소,부산 기장군 정관읍 용수리 1314-1,35.3251541769759,129.179225930596
1180,대구광역시 동구 중대2동 복합노인복지센터,,,
1181,전라북도 정읍시 대장금 테마파크 조성사업 내 전시 및 체험관,,,
1182,부산광역시 남구 우암동 소막마을 주민공동체센터,부산 남구 우암동,35.1250127857502,129.075854463096
1183,충청북도 청주시 TBN 충북교통방송 청사,,,
1184,전라남도 여수시 여수경찰서 동문파출소 신축공사,,,
1185,서울특별시 송파구 e편한세상 송파 파크센트럴,서울 송파구 거여동 234,37.4931867361116,127.150504495715
1186,경상북도 포항시 포항시 남구보건소 치매안심센터,,,
1187,경상북도 포항시 첨단해양산업 R&D센터,,,
1188,충청남도 계룡시 계룡소방서,충남 계룡시 엄사면 유동리 283,36.274158229219,127.232504264125
1189,경기도 동두천시 35호 어린이공원 화장실,,,
1190,강원도 원주시 원주경찰서 직장어린이집,강원 원주시 행구동 1832-25,37.3454685344143,127.978116472626
1191,서울특별시 영등포구 영등포 든든어린이집,서울 영등포구 대림동 740-7,37.4980747549402,126.89793246593
1192,경기도 평택시 종덕초등학교,경기 평택시 고덕면 여염리 4246,37.052944055348,127.046275814026
1193,부산광역시 남구 (주)아델라7,부산 남구 대연동 245-68,35.1510121673149,129.090442666486
1194,세종특별자치시  관세평가분류원,세종특별자치시 반곡동 771-62,36.4909950066026,127.303966678243
1195,제주특별자치도 서귀포시 서귀포시 대정오일시장 시설현대화사업(화장실 신축),,,
1196,경기도 양평군 세미원관광지 가족화장실,,,
1197,인천광역시 강화군 내4리 경로당 신축,,,
1198,부산광역시 서구 비석문화마을 일원 근린생활시설 조성사업,,,
1199,경상남도 고성군 고성군청소년센터 온,경남 고성군 고성읍 서외리 77-4,34.9768145504729,128.316278008595
1200,경상남도 창원시 구암1동 제3경로당,,,
1201,세종특별자치시  정부세종청사 문화관,세종특별자치시 어진동 593,36.4985210668983,127.263835645378
1202,강원도 인제군 인제 실내 훈련장,,,
1203,서울특별시 강서구 공항동 통합복지센터,서울 강서구 공항동 51-42,37.5603667515418,126.80895305283
1204,강원도 영월군 남면 어울림센터,,,
1205,경기도 남양주시 남양주 정약용도서관,경기 남양주시 다산동 3205-3,37.6121385677499,127.167355829756
1206,경기도 양주시 양주시 장흥 문턱없는 아트화장실(1동),,,
1207,전라북도 군산시 군산시 미성동 주민센터 신축공사,,,
1208,울산광역시 북구 수동경로당,울산 북구 호계동 590-6,35.625389306575,129.359891512596
1209,경기도 평택시 평택대동초등학교,경기 평택시 소사동 산 5-1,36.98948173447,127.131441029396
1210,경기도 수원시 우만2동 공영주차장,경기 수원시 팔달구 우만동 500,37.2868103663919,127.032477249208
1211,경기도 이천시 남천상가 공영주차장조성사업,,,
1212,경상남도 남해군 삼동면복지회관목욕탕,경남 남해군 삼동면 지족리 179-4,34.8303051899156,128.002422355776
1213,경기도 의왕시 민락 국민체육센터,,,
1214,제주특별자치도 제주시 제주특별자치도 소방안전체험관,,,
1215,전라남도 장흥군 장흥경찰서 대덕파출소,전남 장흥군 대덕읍 신월리 118-14,34.4993165755366,126.888494706356
1216,경상북도 구미시 구미하이테크밸리 조성사업 근린공원 5호 공중화장실,,,
1217,경기도 과천시 과천 별양동 공영주차장 지하화 변경사업,,,
1218,전라북도 부안군 보안면 수랑마을 공중화장실,,,
1219,울산광역시 울주군 상북 분회경로당,울산 울주군 삼남읍 가천리 4-3,35.5375655661993,129.108232626443
1220,전라남도 나주시 전남지방경찰청 나주경찰서 다시파출소,,,
1221,전라남도 담양군 전남지방경찰청 담양경찰서 월산치안센터,,,
1222,충청남도 당진시 당진3동 행정복지센터,충남 당진시 원당동 791-1,36.9078777266072,126.64482361716
1223,인천광역시 부평구 부평남부체육센터 건립공사,,,
1224,경기도 수원시 경기도시공사 융복합센터 신사옥,,,
1225,경기도 남양주시 (가칭)다산2중 교사신축 및 부대시설공사 설계용역,,,
1226,부산광역시 기장군 내리새라도서관,부산 기장군 기장읍 내리 781,35.2019359744587,129.206179089862
1227,서울특별시 서대문구 서대문발달장애인평생교육센터,서울 서대문구 홍은동 294-9,37.5783520699614,126.928331405316
1228,서울특별시 성북구 길음종합사회복지관,서울 성북구 길음동 1061,37.6067289145165,127.026621235284
1229,대구광역시 달성군 달성군보건소,대구 달성군 현풍읍 하리 253-2,35.6920788171487,128.446125354685
1230,부산광역시 강서구 (가칭)명지5유치원 교사신축공사,,,
1231,경기도 평택시 평택 BIX 공원관리사무소,,,
1232,대구광역시 수성구 대구광역시 장애인국민체육센터,대구 수성구 대흥동 504,35.8277916223016,128.685163676326
1233,서울특별시 영등포구 신길문화(체육)도서관,,,
1234,충청북도 제천시 배론 관광편의시설,,,
1235,부산광역시 강서구 녹산주민문화회관,부산 강서구 미음동 115,35.1447369118407,128.873689011234
1236,부산광역시 중구 중부소방서,부산 중구 중앙동4가 83-2,35.107026644825,129.036760854119
1237,인천광역시 강화군 인산1리(호곡) 경로당 신축,,,
1238,충청남도 서산시 내포관광 창조지원센터,,,
1239,인천광역시 강화군 고천5리 경로당 신축,,,
1240,서울특별시 강동구 동명근린공원 지하주차장,,,
1241,충청북도 제천시 제천 시민문화타워 건립사업,,,
1242,전라북도 순창군 고추식물원,,,
1243,전라북도 순창군 다년생식물원,,,
1244,전라북도 순창군 순창 실내야구연습장,,,
1245,서울특별시 노원구 마들보건지소,,,
1246,서울특별시 성북구 성북구 재정비촉진지구 길음1재정비촉진구역 주택재개발사업,,,
1247,제주특별자치도 서귀포시 농업기술원 야외화장실,,,
1248,제주특별자치도 제주시 남해어업관리단 청사시설 신축공사,,,
1249,부산광역시 영도구 동삼2동 행정복지센터 건립공사,,,
1250,대전광역시 유성구 반려동물지원센터,,,
1251,경기도 이천시 이천공설운동장 주차전용 건축물 조성사업,,,
1252,인천광역시 서구 인천드론전용비행시험장,,,
1253,서울특별시 종로구 평창동 미술문화복합공간 건립사업(A),,,
1254,경기도 수원시 경기도시공사 융복합센터 복합시설관,,,
1255,경상북도 영양군 농산물판매장,경북 영양군 석보면 원리리 269-2,36.5574699907101,129.12503454593
1256,전라남도 나주시 나주호 수변공원 화장실,,,
1257,광주광역시 동구 대인시장 공영주차장,광주 동구 대인동 309-3,35.1540160270198,126.917136246543
1258,광주광역시 남구 양림동 버들숲 청년창작소,,,
1259,경기도 성남시 (가칭)대장유치원 신축공사 설계용역,,,
1260,제주특별자치도 서귀포시 제주 성읍마을 마을공동시설,,,
1261,서울특별시 동작구 동작구 상도동 23-42번지 공동주택사업(공공청사 및 어린이집),,,
1262,경기도 수원시 남수연화경로당 신축공사,,,
1263,경기도 고양시 원당 어울림 플랫폼,,,
1264,서울특별시 영등포구 신길8 재정비촉진구역 주택재개발 아파트,,,
1265,충청남도 천안시 수신면 신풍1리 경로당,,,
1266,울산광역시 울주군 천상공원 지하주차장,,,
1267,강원도 홍천군 내면 공공도서관,,,
1268,인천광역시 남동구 남촌도림동 행정복지센터,인천 남동구 남촌동 309-2,37.4301574604137,126.715987626379
1269,전라북도 남원시 남원 제2노인복지관 건립 기본 및 실시설계용역,,,
1270,충청남도 금산군 보광리 마을만들기 사업(경로당),,,
1271,부산광역시 기장군 고촌어울림도서관,부산 기장군 철마면 고촌리 683-1,35.2387615388377,129.168706184881
1272,인천광역시 서구 (가칭)검단2중학교,,,
1273,전라북도 정읍시 백제가요 정읍사 가요 박물관,,,
1274,경기도 부천시 고리울어린이공원 내 화장실,,,
1275,경기도 부천시 고리울어린이공원 내 경로당,,,
1276,경기도 부천시 고리울동굴시장 공영주차장,경기 부천시 고강동 389,37.5269719715249,126.820672218537
1277,울산광역시 북구 청년 제조업 창업공간,,,
1278,대구광역시 동구 옻골마을 한옥디지털센터,,,
1279,경상북도 김천시 김천경찰서,경북 김천시 율곡동 921,36.1269369386956,128.182409464187
1280,경상남도 진주시 진주시 지식산업센터(아트형공장),,,
1281,경상남도 거창군 거창연극고등학교,경남 거창군 위천면 장기리 381,35.7558571920434,127.834343649565
1282,충청북도 증평군 증평군 교동주차장 주차타워,,,
1283,대전광역시 서구 충남권 공공어린이 재활병원,,,
1284,충청남도 아산시 (가칭)탕정4초등학교,,,
1285,인천광역시 남동구 만부마을 도시재생 뉴딜사업 공영주차장(제2주차장),,,
1286,경상남도 진주시 진양호 우드랜드 조성공사,,,
1287,충청남도 보령시 보령머드 멀티랜드마크,,,
1288,부산광역시 강서구 부산명지 문화복합시설,,,
1289,전라남도 장흥군 장흥 보림사 명상힐링센터 건립공사,,,
1290,충청북도 옥천군 구일소류지 공중화장실,,,
1291,경상남도 밀양시 산외면 건강증진형 보건지소,,,
1292,인천광역시 강화군 남·북 1.8 평화센터,,,
1293,경기도 수원시 광교대학로경로당,,,
1294,경기도 시흥시 시흥시 거점형 공공직장어린이집,,,
1295,경기도 남양주시 다산 하늘빛 유치원,경기 남양주시 다산동 6048,37.6268819143037,127.159648471469
1296,전라남도 여수시 웅천장도공원 입구 관리동 신축공사,,,
1297,전라남도 영광군 모악지구 마을회관,,,
1298,전라북도 전주시 팔복새뜰 어울마당,,,
1299,경기도 부천시 부천 웹툰융합센터,,,
1300,경상남도 진주시 이현동 경로당,경남 진주시 이현동 1180,35.193911990898,128.057331408466
1301,"대구광역시 수성구 고산어린이집, 수성구육아종합지원센터",,,
1302,부산광역시 강서구 (가칭)명지허브유치원,,,
1303,경상남도 통영시 내지마을 생활개선 패키지사업(대합실 및 특산물판매장) 건립공사,,,
1304,서울특별시 동작구 구립흑석어린이집,서울 동작구 흑석동 257-9,37.4995383558527,126.960228887628
1305,경기도 안산시 안산시 마을공동체 종합지원센터,,,
1306,경기도 김포시 김포향산 근린공원 관리사무소,,,
1307,경기도 양평군 양평경찰서 청운파출소,경기 양평군 청운면 용두리 659-3,37.554172404035,127.708758101387
1308,경상남도 양산시 경남동부 아동보호전문기관,,,
1309,경상남도 양산시 숲애서,경남 양산시 용당동 산 66-1,35.4171722641913,129.206088444016
1310,광주광역시 남구 양림동 공영주차장 주차타워,,,
1311,충청남도 천안시 봉명동 행정복지센터,충남 천안시 동남구 봉명동 45-9,36.8057691689831,127.139434846179
1312,인천광역시 중구 미단경로당,,,
1313,제주특별자치도 제주시 동부지구 생활밀착형 국민체육센터,,,
1314,서울특별시 종로구 평창동 미술문화복합공간 건립사업(C),,,
1315,서울특별시 종로구 평창동 미술문화복합공간 건립사업(B),,,
1316,서울특별시 도봉구 안골경로당,서울 도봉구 도봉동 348,37.6898658221976,127.041020026307
1317,인천광역시 부평구 부평남부권역 노인문화센터,,,
1318,경기도 용인시 (상미마을) 생활체육시설 1호 내 화장실,,,
1319,전라남도 화순군 화순읍 앵남리 보건진료소,전남 화순군 화순읍 앵남리 826-4,35.0463159943038,126.904214329314
1320,광주광역시 남구 월산2 어린이공원 화장실,광주 서구 화정동 892,35.1409848940965,126.876867714261
1321,경상남도 진주시 수곡면 금동마을 경로당,,,
1322,충청남도 논산시 탑정호 출렁다리 다목적관리사무소,,,
1323,경상북도 안동시 안동 반다비체육센터,,,
1324,강원도 양양군 양양생활체육센터,강원 양양군 양양읍 구교리 185,38.0787762933584,128.617826455665
1325,강원도 양양군 송이연어푸드 디자인센터,,,
1326,경기도 의왕시 포일 어울림센터,경기 의왕시 포일동 487-32,37.3960136841283,126.982254919473
1327,대구광역시 북구 Eco주차장 조성사업,,,
1328,강원도 원주시 하나금융그룹 원주시 국공립어린이집,,,
1329,경상남도 합천군 합천경찰서 대병파출소,경남 합천군 대병면 회양리 886-5,35.5217377935878,128.01424105805
1330,경상남도 하동군 하동 편백 치유의 숲,,,
1331,경기도 화성시 화성 드론 전용 비행시험장,,,
1332,경기도 수원시 수원수목원 조성사업(건축물),,,
1333,경상북도 포항시 경북과학고등학교 이전 신축공사,,,
1334,경상북도 청도군 경상북도교육청 청도도서관,경북 청도군 청도읍 고수리 508,35.6452312803489,128.740140327116
1335,경상남도 합천군 청덕권역 창조적 마을만들기사업(다목적 복지회관),,,
1336,제주특별자치도 제주시 하귀우체국,제주특별자치도 제주시 애월읍 하귀2리 1384-16,33.4811907404691,126.40495664311
1337,경기도 안산시 반월동 공공도서관,경기 안산시 상록구 건건동 992,37.3078543446866,126.901645250129
1338,전라남도 목포시 유달산 달성공원 화장실,,,
1339,광주광역시 동구 무등산국립공원 사무소,광주 동구 운림동 438,35.1316651788637,126.947990549256
1340,경기도 평택시 평택경찰서 고덕파출소 신축공사,,,
1341,강원도 홍천군 희망1리 경로당 신축공사,,,
1342,경기도 수원시 나라키움 수원통합청사,,,
1343,서울특별시 동대문구 서울바이오허브 글로벌협력동,,,
1344,경기도 평택시 세아초등학교,경기 평택시 세교동 294-2,37.0084556587622,127.088413918284
1345,경기도 평택시 세아초등학교,경기 평택시 신대동 294-2,37.0031194804853,127.058896589784
1346,서울특별시 용산구 용산2가동 47-2 공영주차장,서울 용산구 용산동2가 1-1497,37.5443671823539,126.984297484001
1347,전라북도 완주군 전라북도완주교육지원청,전북 완주군 용진읍 운곡리 975-94,35.9041425029041,127.16380409062
1348,"경기도 성남시 (가칭) 대장초, 중 통합학교 신축공사",,,
1349,경기도 광명시 (가칭)철산주공 4단지 어린이공원 내 공중화장실,,,
1350,서울특별시 성북구 래미안 장위 퍼스트하이,서울 성북구 장위동 320,37.6200557016344,127.051434874575
1351,충청남도 아산시 아산시 배방체육관,충남 아산시 배방읍 공수리 1661,36.774869797537,127.056117827183
1352,서울특별시 성북구 승가원행복마을,서울 성북구 안암동5가 149-10,37.5884470064766,127.028492078287
1353,광주광역시 북구 광주예술고 및 광주예술중(영재교육원),,,
1354,서울특별시 강동구 시립강동 실버케어센터,,,
1355,인천광역시 서구 (가칭)검단1 유치원,,,
1356,강원도 고성군 설악산국립공원 미시령 탐방지원센터,,,
1357,광주광역시 광산구 수완지구 공영주차장,,,
1358,제주특별자치도 서귀포시 표선파출소,제주특별자치도 서귀포시 표선면 표선리 777-8,33.3234969339167,126.831315697974
1359,경상북도 울진군 후정지구 죽변면청사 신축공사,,,
1360,제주특별자치도 제주시 하귀파출소,제주특별자치도 제주시 애월읍 하귀2리 1720-1,33.4805131118525,126.402315742944
1361,경상남도 사천시 가산마을경로당,경남 사천시 축동면 가산리 390-2,35.0949059677096,128.04049976744
1362,전라북도 고창군 구시포 해수욕장 공중화장실,,,
1363,경상남도 사천시 남양만남의광장,경남 사천시 신벽동 219-1,34.9819631473757,128.058673724789
1364,경상남도 사천시 정동면행정복지센터,경남 사천시 정동면 대곡리 298-2,35.0559932960259,128.123886627804
1365,제주특별자치도 제주시 협재해수욕장 공중화장실,,,
1366,광주광역시 북구 국공립 중흥하나어린이집,,,
1367,인천광역시 중구 왕산해수욕장 공중화장실,,,
1368,경상북도 영양군 영양군 로컬푸드직매장,경북 영양군 영양읍 서부리 521-2,36.6586199171446,129.111098792456
1369,광주광역시 광산구 하남산단 노동자 작업복세탁소,,,
1370,경기도 오산시 오산역 환승센터 광장 공중화장실,,,
1371,서울특별시 금천구 금천 어르신복지센터,서울 금천구 독산동 293-14,37.4674869558966,126.89443860909
1372,경상북도 구미시 항곡1리 경로당,,,
1373,충청북도 청주시 남일면 기초생활거점육성사업 효촌 작은도서관,,,
1374,충청북도 제천시 제천시 장애인 단기보호센터,,,
1375,충청남도 서산시 서산테크노밸리 국민체육센터 건립사업,,,
1376,대전광역시 유성구 대전수학문화관 신축공사,,,
1377,경기도 안산시 안산해솔초등학교,경기 안산시 상록구 사동 1639-11,37.2825384753505,126.833525508944
1378,충청북도 괴산군 부흥 다목적체육실,,,
1379,경기도 안성시 안성시선거관리위원회,경기 안성시 구포동 8,37.0109030925811,127.273036496619
1380,경상남도 남해군 남해각 재생사업 공중화장실,,,
1381,제주특별자치도 제주시 제주시 신흥해수욕장 화장실 및 샤워실,,,
1382,경기도 수원시 정자1동 시립어린이집,경기 수원시 장안구 이목동 731-1,37.3160674701506,126.983703189503
1383,서울특별시 마포구 관광경찰대,서울 마포구 서교동 348-1,37.556414230768,126.925935459822
1384,경기도 수원시 수원수목원 조성사업(공원),,,
1385,경상남도 김해시 김해 회현연가 신축공사,,,
1386,경상북도 상주시 도시재생어울림센터 신축공사,,,
1387,경상남도 의령군 신반천 수변공간조성,,,
1388,전라북도 진안군 안천면 농촌중심지활성화사업,,,
1389,경기도 고양시 선유동 게이트볼장,,,
1390,경기도 평택시 원앙 어린이공원 화장실,,,
1391,경기도 평택시 상가 어린이공원 화장실,,,
1392,서울특별시 성북구 북한산국립공원사무소 청사,서울 성북구 정릉동 675-1,37.6080439631945,127.003920026239
1393,서울특별시 양천구 용왕산 근린공원 화장실,,,
1394,강원도 원주시 강원원주 혁신도시 복합혁신센터,,,
1395,제주특별자치도 서귀포시 해양관광테마 강정항 조성사업,,,
1396,경상남도 창원시 진해구 중앙동 서부지역 경로당,,,
1397,전라남도 목포시 국민건강보험공단 목포지사,전남 목포시 석현동 1175-6,34.8145963419176,126.426845017619
1398,서울특별시 노원구 동북선 도시철도 민간투자사업 차량기지 및 종합관리동,,,
1399,전라북도 고창군 구시포 해수욕장 공중화장실,,,
1400,경상북도 문경시 하리2리 어린이공원 공중화장실,,,
1401,경상북도 문경시 당포1리 휴식공원 공중화장실,,,
1402,강원도 원주시 반곡동 대도시형 직매장,,,
1403,경기도 남양주시 나라키움 남양주 복합청사,,,
1404,충청북도 청주시 충청북도 소방본부 통합청사,충북 청주시 청원구 사천동 91-18,36.6796605320307,127.476069077972
1405,경기도 오산시 오산미니어처전시관,,,
1406,경기도 양주시 송추계곡 공중화장실,,,
1407,경상북도 청송군 청송소방서,경북 청송군 청송읍 덕리 493-2,36.4339456263339,129.041905360224
1408,대구광역시 달성군 선비문화체험관,,,
1409,전라북도 고창군 부안해양경찰서 고창파출소,전북 고창군 상하면 자룡리 969,35.4490602813965,126.426767473061
1410,인천광역시 서구 (가칭)검단1고등학교,,,
1411,경기도 성남시 분당경찰서 직장어린이집,,,
1412,세종특별자치시  4생활권 광역복지지원센터,,,
1413,인천광역시 계양구 계양구 보건소,인천 계양구 계산동 1079-1,37.537124155254,126.737771590312
1414,경상남도 밀양시 밀양시 공공급식지원센터 건립공사,,,
1415,경상북도 경주시 신라금속공예지국 전시체험관,,,
1416,경상북도 문경시 문경시 농암면 대정숲 공중화장실,,,
1417,경상북도 문경시 문경 흥덕회전교차로공원 공중화장실,,,
1418,경상북도 문경시 중앙시장 장터활성화사업,,,
1419,대구광역시 동구 대구 신암4동 우체국,,,
1420,경상북도 경주시 경주 식물원(라원),,,
1421,경기도 오산시 오산시 내삼미동 드라마세트장 웰컴센터,,,
1422,경기도 화성시 화성동탄경찰서 반월파출소,경기 화성시 반월동 862-1,37.2308177750519,127.062362427427
1423,서울특별시 성동구 성동구 왕십리 제2동 공공복합청사,서울 성동구 하왕십리동 987-212,37.5617647928533,127.030915799463
1424,서울특별시 종로구 덕산파출소,서울 종로구 창신동 640-137,37.5744231345985,127.009357849059
1425,인천광역시 계양구 어린이과학관 부근 공영주차장,,,
1426,전라남도 화순군 동복면 농촌중심지활성화사업 수변쉼터 조성 공중화장실,,,
1427,광주광역시 동구 무등산 증심사 제2주차장 부대시설(공중화장실),,,
1428,세종특별자치시  반곡고등학교,세종특별자치시 반곡동 63-3,36.497569596716,127.31738262261
1429,전라남도 여수시 여수 미평 하나어린이집,전남 여수시 미평동 591-17,34.7627701641896,127.706377928289
1430,울산광역시 동구 울산동부경찰서 직장어린이집,,,
1431,전라남도 목포시 용해지구 문화시설,,,
1432,울산광역시 남구 선암동 커뮤니티센터,울산 남구 선암동 180-189,35.5150525775669,129.338262471906
1433,경상북도 영주시 새마을 선비회관 건립공사,,,
1434,경기도 부천시 부천상공회의소 앞 공영주차장 조성사업,,,
1435,충청남도 태안군 태안군 육아지원거점센터,,,
1436,제주특별자치도 제주시 추자항 여객선 대합실,제주특별자치도 제주시 추자면 대서리 4-39,33.9625715665275,126.297533102441
1437,경기도 남양주시 남양주경찰서 다산2파출소,,,
1438,강원도 횡성군 횡성경찰서 청일파출소,,,
1439,경상남도 거창군 가조면 마상리 화장실,,,
1440,충청북도 괴산군 담수자원 종 보존시설,,,
1441,충청남도 아산시 아산시 음봉 복합문화센터(도서관),,,
1442,경상남도 사천시 복합커뮤니티센터 조성공사,,,
1443,경상남도 함양군 개평한옥마을 공중화장실,,,
1444,충청북도 청주시 청주잠두봉공원 공중화장실(세거리광장동/누에광장동),,,
1445,경상북도 포항시 포항시 연일공공도서관,경북 포항시 남구 연일읍 동문리 15-3,35.9958840882192,129.351192287015
1446,인천광역시 남동구 소래샛길 체육시설,,,
1447,서울특별시 종로구 부암동 무계원 남측 공영주차장 및 문화시설,,,
1448,전라남도 완도군 완도 스마트 치유마을,,,
1449,경기도 평택시 국립농산물품질관리원 경기지원 평택사무소,경기 평택시 고덕면 여염리 4234-2,37.058382506988,127.048259810463
1450,전라북도 익산시 익산경찰서 직장어린이집,,,
1451,울산광역시 남구 대나리경로당(커뮤니티센터),,,
1452,광주광역시 광산구 평동산단 개방형체육관 건립사업,,,
1453,경기도 군포시 송안초등학교,경기 군포시 도마교동 458-2,37.3175251765989,126.921319203344
1454,경상북도 포항시 포항북부경찰서 장성파출소,경북 포항시 북구 장성동 1531-1,36.081005521028,129.381326853472
1455,전라북도 부안군 채석강 갤러리 공중화장실,,,
1456,서울특별시 강서구 국립항공박물관,서울 강서구 공항동 1373-5,37.5567561342473,126.808473241266
1457,전라남도 영암군 월출산국립공원 탐방안내소,전남 영암군 영암읍 개신리 484-46,34.7778346015285,126.722710529974
1458,경상남도 밀양시 밀양아리솔학교 교사신축공사,,,
1459,인천광역시 서구 인천광역시 서구 상생마을 복합커뮤니티센터,,,
1460,충청북도 제천시 백운 덕동계곡 관광편의시설 확충사업 신축공사,,,
1461,경상북도 안동시 안동시 육아종합지원센터,경북 안동시 옥동 732-3,36.5679867706159,128.698843749119
1462,경상북도 울진군 백암치유센터,,,
1463,경상남도 진주시 상대공원 경로당,,,
1464,부산광역시 중구 중구 복합건강센터,부산 중구 보수동1가 95-3,35.1037719693133,129.025366733902
1465,경상남도 진주시 돗골 경로당,경남 진주시 상평동 198-99,35.1772207566426,128.114292407517
1466,경기도 하남시 감일 1초등학교,,,
1467,제주특별자치도 제주시 돈내코 마을회관 및 노인복지시설,,,
1468,경기도 부천시 상동시장 공영주차장 화장실,,,
1469,강원도 홍천군 화촌면 주음치리 마을회관 및 경로당,,,
1470,경기도 김포시 달빛유치원,,,
1471,경기도 평택시 고덕 국제화계획지구 택지개발사업(2단계) 근린공원 13호 에코스쿨 주1동,,,
1472,제주특별자치도 서귀포시 대정읍사무소,제주특별자치도 서귀포시 대정읍 하모리 1413,33.226653551952,126.252162465038
1473,전라북도 군산시 군산동산중학교,전북 군산시 월명동 21-4,35.9837312013438,126.708075279525
1474,전라북도 군산시 군산동산중학교,전북 군산시 명산동 21-4,35.9823657495782,126.709749338747
1475,전라북도 군산시 군산동산중학교,전북 군산시 신창동 21-4,35.9855674924681,126.712566939463
1476,전라북도 군산시 군산동산중학교,전북 군산시 장미동 21-4,35.9889084886055,126.714016063762
1477,전라북도 군산시 군산동산중학교,전북 군산시 중앙로1가 21-4,35.9857740711637,126.714574501784
1478,강원도 홍천군 양덕원1리 경로당 신축공사,,,
1479,강원도 강릉시 상시동1리 경로당,,,
1480,충청남도 공주시 우성면 귀산보건진료소,충남 공주시 우성면 귀산리 259-4,36.5002317461216,127.110712980167
1481,전라북도 부안군 부안상설시장 주차장,전북 부안군 부안읍 서외리 55-3,35.7271762980987,126.731224203352
1482,경기도 안산시 안산서부 건강생활지원센터,경기 안산시 단원구 신길동 1384-19,37.3379347919404,126.762140853022
1483,전라남도 고흥군 녹동청춘마루,전남 고흥군 도양읍 봉암리 2699-79,34.5271042700986,127.138398554137
1484,전라북도 정읍시 정읍시기 행복주택 내 업무시설(도시재생네트워크센터),,,
1485,경기도 성남시 여수공원 유소년축구장,,,
1486,경상북도 영양군 영양군 복합커뮤니티센터,,,
1487,울산광역시 울주군 동부1리 경로당,경남 양산시 삼호동 806-12,35.4104592467479,129.172237428138
1488,울산광역시 울주군 청량수문 경로당,울산 울주군 청량읍 문죽리 683,35.5094123694847,129.26477150563
1489,서울특별시 서대문구 힐스테이트 신촌,서울 서대문구 북아현동 1-954,37.5620484440976,126.951026813883
1490,충청남도 아산시 (가칭)탕정유치원,,,
1491,경상북도 청송군 청송군 파천면 관2리경로당,,,
1492,서울특별시 성북구 장위어르신 행복지원센터,서울 성북구 장위동 320-1,37.620028374151,127.053522783204
1493,경상북도 울릉군 내수전 경로당,,,
1494,강원도 춘천시 춘천 공공사격장 건립,,,
1495,강원도 강릉시 도란도란 경로당,,,
1496,강원도 강릉시 동해안산불방지센터,강원 강릉시 주문진읍 주문리 791-1,37.9056771141477,128.829421956636
1497,경상북도 의성군 의성경찰서,경북 의성군 의성읍 후죽리 608-3,36.3501616310948,128.697644460599
1498,전라북도 익산시 나라키움 익산통합청사,,,
1499,제주특별자치도 제주시 비자림 공중화장실,,,
1500,제주특별자치도 서귀포시 서귀포보건소 중문보건지소,제주특별자치도 서귀포시 중문동 1864-1,33.2513749635981,126.434792488008
1501,제주특별자치도 서귀포시 서귀포보건소 중문보건지소,제주특별자치도 서귀포시 대포동 1864-1,33.2424719513605,126.431030742173
1502,경상북도 포항시 포항시 테마공원(반려동물 놀이시설) 공중화장실,,,
1503,울산광역시 북구 명촌지구대,,,
1504,경상남도 하동군 화개면사무소,경남 하동군 화개면 탑리 791-1,35.1883294098481,127.625383009809
1505,강원도 속초시 설악로데오거리상점가 주차환경개선사업,,,
1506,인천광역시 강화군 오상2리 경로당,인천 강화군 내가면 오상리 666-4,37.7286245469621,126.376512980201
1507,경기도 평택시 (가칭)고덕10 초등학교,,,
1508,경상남도 산청군 국민건강보험공단 진주산청지사 산청출장소,경남 산청군 산청읍 지리 737,35.4190318858073,127.880363806483
1509,충청북도 청주시 운천동 시니어힐링센터,,,
1510,경상북도 김천시 추풍령 관광자원화사업(솔바람터미널),,,
1511,경상북도 의성군 안계하나어린이집,,,
1512,전라북도 순창군 발효테라피센터,전북 순창군 순창읍 백산리 588,35.3663483028698,127.111194330496
1513,울산광역시 울주군 두서 노서경로당,,,
1514,울산광역시 울주군 하대 양달경로당,,,
1515,전라남도 순천시 와온항 공중화장실,,,
1516,경기도 안산시 안식경로당,,,
1517,경기도 평택시 평택경찰서 용이파출소 신축공사,,,
1518,전라남도 순천시 정원자재판매장 및 정원수공판장,,,
1519,울산광역시 울주군 울주 지역자활센터,울산 울주군 온산읍 덕신리 31-6,35.4334740007923,129.313546179282
1520,경상북도 영천시 보목경로당,,,
1521,경상남도 창원시 대산면 행정복지센터,경남 창원시 의창구 대산면 제동리 822-1,35.3308683964766,128.708720014209
1522,전라북도 임실군 성수산 자연휴양림 산림휴양관,,,
1523,경기도 부천시 강남시장 공영주차장,경기 부천시 도당동 248-1,37.5076021649074,126.779244913708
1524,강원도 화천군 하남면 주민자치센터,강원 화천군 하남면 원천리 444-2,38.0587259878048,127.667753918578
1525,전라북도 군산시 (가칭)군산연안초등학교,,,
1526,서울특별시 마포구 한국지역정보개발원 청사,,,
1527,부산광역시 사하구 수산식품특화단지 기업지원센터,,,
1528,광주광역시 북구 북구 도활사업 공동체센터 건립계획,,,
1529,전라북도 순창군 발효미생물 전시관 건립사업,,,
1530,인천광역시 동구 우리집 신축형 만석동 3차 임대주택,,,
1531,전라북도 익산시 익산시 서부권 로컬푸드 직매장,,,
1532,경상북도 예천군 신도시 복합커뮤니티센터,,,
1533,서울특별시 중랑구 시립중랑노인전문요양원 증축,,,
1534,강원도 평창군 대관령면 농촌중심지활성화사업 해피700센터,,,
1535,제주특별자치도 제주시 김녕초등학교 동복분교,제주특별자치도 제주시 구좌읍 동복리 1367,33.5523033198012,126.713700078138
1536,부산광역시 북구 구포동 경로당,부산 북구 구포동 1206-58,35.20486184626,129.007665133857
1537,경상남도 거제시 거제유치원,경남 거제시 옥포동 1118,34.8997119866839,128.6928783209
1538,경상남도 김해시 김해모산초등학교,경남 김해시 장유동 848,35.1684055438898,128.826858522865
1539,경상남도 창원시 합성2동 제3경로당,,,
1540,부산광역시 강서구 부산상공회의소 공동직장어린이집,,,
1541,광주광역시 광산구 용진산 등산로 화장실,,,
1542,광주광역시 광산구 꽃밭등 어린이공원 화장실,,,
1543,경상북도 고령군 대가야읍 농촌중심지 활성화사업(아이조아놀이마당),,,
1544,전라남도 장흥군 용산면 남포 소공원 공중화장실,,,
1545,경상북도 울진군 북면농촌중심지활성화사업(흥부열린시장),,,
1546,부산광역시 사상구 덕포파출소,부산 사상구 괘법동 516-28,35.1676240744352,128.981896475571
1547,경상북도 봉화군 봉화국민체육센터,경북 봉화군 봉화읍 해저리 7,36.8962294336484,128.729127638692
1548,경기도 의왕시 의왕시 시니어클럽 신축공사,,,
1549,경기도 시흥시 대야2지구 기반시설 조성공사(수변공원1)-화장실,,,
1550,충청남도 당진시 당진시 북부사회복지관,충남 당진시 정미면 천의리 268-2,36.8832495284798,126.567383466559
1551,대전광역시 동구 대전 홍도동 치안센터 신축공사,,,
1552,대구광역시 달서구 분동 복합청사,,,
1553,경상북도 울진군 울진군 기성면 행복나눔센터,,,
1554,경상북도 울진군 울진군 기성면 작은사랑채,,,
1555,경상남도 고성군 고성 충효교육관,,,
1556,인천광역시 계양구 계양2동 작은도서관,인천 계양구 임학동 67-7,37.5451081205499,126.738239595797
1557,전라남도 순천시 순천시 목재문화체험장,,,
1558,경상남도 거제시 장승포동 주민센터,경남 거제시 장승포동 702-3,34.8673046177415,128.727200769168
1559,강원도 강릉시 남양2리 경로당,강원 강릉시 옥계면 남양리 1167-4,37.5666446163719,129.012863759938
1560,대전광역시 서구 (가칭)친수2유치원·초등 연계학교 신축공사,,,
1561,강원도 강릉시 송암리 경로당,강원 강릉시 성산면 송암리 142-4,37.7812160590542,128.837061379029
1562,서울특별시 동작구 노량진6 재정비촉진구역 주택재개발 정비사업,서울 동작구 노량진동 307-135,37.508320072309,126.939568042187
1563,전라남도 고흥군 도양읍 구도심 공영주차장(타워),,,
1564,경상남도 창원시 원계근린공원 내 화장실,,,
1565,경상남도 김해시 외동 함박공원 내 경로당,,,
1566,제주특별자치도 제주시 상도리 다목적회관,,,
1567,서울특별시 서초구 반포우체국,서울 서초구 반포동 4-13,37.5046084039595,126.994696223147
1568,경기도 화성시 화성 동탄 제16초등학교,,,
1569,광주광역시 남구 고싸움놀이 전수교육관,,,
1570,인천광역시 계양구 계양2동 실내체육시설,,,
1571,전라남도 목포시 목포 종합경기장 건립공사,,,
1572,전라북도 고창군 고창일반산업단지 복합문화체육센터 건립공사,,,
1573,인천광역시 강화군 강화군 복합커뮤니티센터,인천 강화군 강화읍 남산리 213-2,37.7398571173472,126.487970673324
1574,전라북도 순창군 쌍치 다목적구장 건립사업 신축공사,,,
1575,부산광역시 중구 부산광역시 중구 대청동 행복복지목욕탕(가칭),,,
1576,강원도 원주시 원주시육아종합지원센터,강원 원주시 반곡동 1910-6,37.3260062305968,127.99015854275
1577,경상남도 밀양시 한국나노마이스터고등학교 기숙사,,,
1578,전라북도 순창군 전통누룩체험관,,,
1579,경상북도 영천시 영천포장 공공청사,,,
1580,전라북도 전주시 전주 전통한지 생산시설,,,
1581,강원도 홍천군 내촌면 답풍리 마을회관 및 경로당,,,
1582,경기도 부천시 (가칭)옥길2유치원,,,
1583,경기도 용인시 용인서부경찰서 죽전파출소,,,
1584,세종특별자치시  농촌 테마공원 조성사업(도도리 체험관 및 전기차 정비소),,,
1585,대구광역시 수성구 재난안전통신망 대구운영센터,대구 수성구 대흥동 890,35.8344131804391,128.684288607828
1586,전라남도 장흥군 천연물원재료 GAP/GMP 연계처리시스템,,,
1587,대구광역시 남구 대구광역시 상수도사업본부 중남부사업소,대구 남구 이천동 403,35.8546202522568,128.598227568312
1588,강원도 태백시 고용노동부 태백지청,강원 태백시 황지동 55-5,37.1693767119233,128.991448241638
1589,전라북도 군산시 군산금강유치원,,,
1590,경기도 시흥시 시흥 북부장애인보호업장,,,
1591,충청남도 청양군 청양혁신플랫폼,,,
1592,경기도 하남시 가나안농군학교 건축물 복원설계,,,
1593,강원도 양구군 양구군 공공산후조리원,강원 양구군 양구읍 상리 254-3,38.1048008547387,127.992790929804
1594,인천광역시 중구 연안동 행정복지센터,인천 중구 항동7가 58-70,37.4531702892733,126.604502431623
1595,경상북도 봉화군 봉화 실외테니스장 비가림 설치공사,,,
1596,경기도 포천시 경기 포천공공산후조리원 신축공사,,,
1597,경기도 화성시 시립목동어린이집,경기 화성시 목동 산 36-2,37.1895035044631,127.126843015344
1598,전라남도 광양시 광양경찰서 진상파출소,전남 광양시 진상면 섬거리,35.0230048152572,127.713271502583
1599,서울특별시 구로구 구로2동 주택가 공동주차장,서울 구로구 구로동 486-18,37.4976387703987,126.883620328885
1600,제주특별자치도 서귀포시 상효동 제설차고지 및 창고,,,
1601,강원도 강릉시 위촌1리 경로당,,,
1602,경상북도 안동시 안동시립도서관 옥동분관,,,
1603,충청북도 청주시 청주시 가족센터 건립공사,,,
1604,경상남도 창녕군 창녕 치매전담요양시설,,,
1605,경기도 고양시 창릉초등학교,경기 고양시 덕양구 동산동 368-3,37.6481675414647,126.893222399544
1606,경상북도 봉화군 봉화군 석포면 보건지소,경북 봉화군 석포면 석포리 375-1,37.0484377653619,129.064744280684
1607,광주광역시 북구 말바우시장 제3공영주차장 조성사업,,,
1608,강원도 홍천군 홍천읍 갈마곡3리 경로당,,,
1609,전라남도 순천시 순천 신대스포츠 센터,전남 순천시 해룡면 신대리 1989-4,34.9333740262108,127.550980428801
1610,경상북도 구미시 구미원당초등학교,경북 구미시 산동읍 신당리 1473,36.1442593235284,128.42488405679
1611,경상북도 구미시 신당초등학교,경북 구미시 산동읍 신당리 1722,36.1605463292487,128.431239401743
1612,부산광역시 북구 북구 육아종합지원센터,부산 북구 만덕동 659-2,35.2159642961719,129.026340575872
1613,전라남도 함평군 함평학다리고등학교,전남 함평군 함평읍 내교리 518,35.059645544646,126.515771317279
1614,경상북도 청송군 청송읍 분회경로당,경북 청송군 청송읍 월막리 198-2,36.4336270886303,129.057722926052
1615,강원도 인제군 원통9리 경로당,,,
1616,경상남도 합천군 합천군 국공립하나어린이집,경남 합천군 야로면 구정리 310-1,35.7062059292889,128.167892009222
1617,강원도 원주시 법천사지 유적전시관,,,
1618,경기도 평택시 용이중학교,경기 평택시 용이동 438,36.9977056734272,127.1350292108
1619,광주광역시 광산구 고실중학교,광주 광산구 장덕동 1310,35.1926878933086,126.812684029103
1620,인천광역시 서구 (가칭)검단1중학교,,,
1621,인천광역시 서구 학교시설지원센터,인천 서구 가좌동 278-8,37.4879664615769,126.678691778681
1622,충청남도 태안군 태안해양경찰서 영목출장소 청사신축,,,
1623,전라남도 구례군 봉동리5구 노인여가복지시설(경로당),,,
1624,경기도 성남시 신흥3동 2525번지 일원 공영주차장,,,
1625,부산광역시 연제구 거제4동 복합센터,,,
1626,전라북도 순창군 순창 고추장 상설문화마당,,,
1627,대전광역시 유성구 유성구 지역공동체 지원센터,대전 유성구 송강동 25-3,36.4347701061624,127.385091895151
1628,제주특별자치도 서귀포시 서귀포시 사랑원 노숙인 상담·치료시설,,,
1629,경상북도 영양군 삼지리 공중화장실 390번지,,,
1630,경상북도 영양군 삼지리 공중화장실 281-4번지,,,
1631,경상북도 영양군 쌈지공원 공중화장실,,,
1632,부산광역시 강서구 강서 제2노인종합복지관,,,
1633,서울특별시 성동구 동북선 도시철도 민간투자사업 102정거장,,,
1634,서울특별시 성동구 동북선 도시철도 민간투자사업 101정거장,,,
1635,경기도 김포시 (가칭)향산유치원 교사 신축공사 설계용역,,,
1636,인천광역시 서구 인천서희학교,인천 서구 당하동 779-4,37.5841108965447,126.682839126286
1637,충청남도 청양군 화성면 게이트볼장,충남 청양군 화성면 화강리 5-2,36.4279887733062,126.714295095108
1638,강원도 강릉시 강릉 옥천동 어울림플랫폼,,,
1639,인천광역시 계양구 목상동 경로당,인천 계양구 목상동 209-6,37.5692087092428,126.707081985207
1640,충청남도 아산시 아산경찰서 탕정파출소,충남 아산시 탕정면 용두리 487,36.799193212472,127.04722730163
1641,경기도 의정부시 신곡2동 신촌경로당,경기 의정부시 신곡동 537-41,37.7453030990768,127.06493590546
1642,충청북도 음성군 중동보건진료소,충북 음성군 소이면 중동리 1059-3,36.9085140344741,127.770294818473
1643,부산광역시 강서구 (가칭)서명중학교,,,
1644,경기도 의정부시 의정부 희망하나 어린이집,,,
1645,충청남도 서천군 서천 마량리 동백나무숲 매표소,충남 서천군 서면 마량리 313-4,36.137851029003,126.493530216358
1646,전라남도 여수시 학동3동 공영주차장,,,
1647,경기도 하남시 하남풍산역,경기 하남시 덕풍동 226-6,37.5513705175874,127.205306451586
1648,서울특별시 송파구 거여2재정비촉진구역 1지구 주택재개발 정비사업,,,
1649,전라남도 여수시 학동1동 공영주차장,,,
1650,경기도 하남시 미사역,경기 하남시 망월동,37.5680994614327,127.189475097868
1651,전라남도 곡성군 곡성 보훈회관,전남 곡성군 곡성읍 읍내리 824-1,35.2761438366661,127.289701253272
1652,광주광역시 동구 광주동구 보듬이나눔이 어린이집,,,
1653,경기도 파주시 (가칭)운정 6초등학교,,,
1654,경기도 파주시 (가칭)운정 4중학교,,,
1655,경상북도 김천시 김천복합혁신센터,,,
1656,충청남도 예산군 (가칭)내포꿈두레학교 교사 신축공사,,,
1657,경상북도 청송군 청송군 부남면 경암경로당,,,
1658,강원도 원주시 원주-제천 복선전철 서원주역사,,,
1659,서울특별시 노원구 노원지역자활센터,서울 노원구 상계동 1257,37.6796014292577,127.052402802365
1660,전라북도 군산시 우포보건진료소 및 우포경로당,,,
1661,경상북도 김천시 김천 감문국 역사문화전시관,,,
1662,충청남도 천안시 충남 지식산업센터,,,
1663,강원도 홍천군 수타사지구 상가 앞 주차장 화장실,,,
1664,인천광역시 미추홀구 인천미추홀경찰서 숭의지구대,인천 미추홀구 숭의동 340-7,37.4617439680657,126.642947613973
1665,경기도 수원시 행궁동 도시재생거점센터,,,
1666,부산광역시 사상구 새밭마을 에코하우스,,,
1667,충청북도 충주시 성서동 제2공영주차장 주차타워,,,
1668,경기도 파주시 운정중학교,경기 파주시 야당동 1032,37.7078562434708,126.755567656163
1669,경상북도 군위군 군위전통시장 주차타워,,,
1670,경기도 화성시 (가칭)동탄2중학교,,,
1671,충청북도 옥천군 향수애 커뮤니티센터,,,
1672,충청북도 보은군 보은군 숲속화장실,충북 보은군 속리산면 사내리 279-7,36.5303094327821,127.821735201769
1673,강원도 원주시 학성초등학교,강원 원주시 태장동 713-1,37.3605025382985,127.959035567183
1674,전라북도 부안군 부안군 노인일자리 지원센터,전북 부안군 부안읍 봉덕리 532,35.7190216671265,126.736641458863
1675,경기도 화성시 (가칭)동탄2 주차전용건축물,,,
1676,경상남도 거제시 국공립 아주하나어린이집,경남 거제시 아주동 337-26,34.8647733583496,128.690939668462
1677,강원도 인제군 신남3리경로당,,,
1678,강원도 정선군 강원도교직원수련원 아라리분원,,,
1679,광주광역시 광산구 하남3지구 마을회관(12통) 신축공사,,,
1680,전라남도 담양군 루프탑 가든형 담양시장 재건축공사,,,
1681,경기도 성남시 성남 중1구역 도시환경정비사업 어린이공원내 주차장1,,,
1682,전라북도 고창군 흥덕 문화복지관,전북 고창군 흥덕면 흥덕리 63,35.5210381509027,126.70330274426
1683,전라남도 나주시 나주시 장애인 연합회관 신축공사,,,
1684,경기도 성남시 성남 중1구역 도시환경정비사업 어린이공원 내 주차장2,,,
1685,경상남도 거제시 상문동 용산쉼터 화장실,,,
1686,경상남도 함안군 함안경찰서 함안파출소,경남 함안군 함안면 북촌리 1002-8,35.2420134978787,128.422039447107
1687,대구광역시 달서구 두류1·2동 복합청사,,,
1688,경상남도 창원시 창북중학교,경남 창원시 의창구 북면 무동리 125-1,35.3169465930637,128.580646229629
1689,충청남도 공주시 학생안전체험관,충남 공주시 금흥동 96,36.4913442522049,127.151760186812
1690,경기도 수원시 광교웰빙국민체육센터,경기 수원시 영통구 이의동 1183,37.3060507022028,127.04157132961
1691,전라남도 순천시 왕조1동 신월경로당,,,
1692,충청남도 부여군 부여 드론 전문교육(체험)장,,,
1693,경상북도 구미시 구미치매안심센터,경북 구미시 지산동 853-12,36.1400155845015,128.346012358656
1694,충청북도 청주시 청주시장애인직업적응훈련센터&청주시장애인주간보호센터,충북 청주시 흥덕구 신봉동 500,36.663006624484,127.466107298189
1695,경기도 화성시 시립영천어린이집,경기 화성시 영천동 산 17-73,37.2109806139061,127.103784203486
1696,경기도 평택시 서정리역 광장 지하주차장,,,
1697,경기도 연천군 전곡읍 재래시장 주차타워,,,
1698,인천광역시 강화군 월곳리 대묘동 경로당,,,
1699,울산광역시 남구 문수청소년 문화의 집,울산 남구 무거동 209-10,35.5524244452074,129.269688601538
1700,부산광역시 연제구 연제종합사회복지관,부산 연제구 연산동 2022-374,35.1727378666898,129.088844473863
1701,전라북도 무주군 반디누리 작업장,전북 무주군 무주읍 당산리 623,36.0057453907747,127.672681728468
1702,경기도 오산시 오산시청사 별관 건립사업,,,
1703,경상북도 성주군 성주읍 도시재생뉴딜사업 창의문화교류센터 신축공사,,,
1704,강원도 춘천시 전통시장 고객편의시설 신축공사,,,
1705,경기도 김포시 김포경찰서 운양파출소,,,
1706,경상북도 영덕군 영덕군 새마을회관,경북 영덕군 영덕읍 남석리 34-13,36.4078747681443,129.367475307179
1707,제주특별자치도 제주시 제주시 삼양1동 어민회사무실,,,
1708,울산광역시 북구 강동하나어린이집,,,
1709,"강원도 동해시 묵호덕장마을 문화관광자원화 사업 ""문화팩토리, 덕장""",,,
1710,제주특별자치도 서귀포시 제주혁신도시 복합혁신센터,제주특별자치도 서귀포시 서호동 1604,33.2509769244173,126.515443574969
1711,전라남도 순천시 순천시 제2봉안당 건립공사,,,
1712,울산광역시 울주군 간월재대피소,울산 울주군 상북면 이천리 산 2,35.5413217373246,129.035035015425
1713,충청북도 제천시 도심권 관광숙박시설,,,
1714,충청남도 천안시 천안늘해랑학교,충남 천안시 동남구 병천면 탑원리 산 31,36.7593475977162,127.312357168678
1715,경기도 고양시 성사3호 어린이공원 화장실,,,
1716,충청북도 음성군 음성군 외국인지원센터,충북 음성군 금왕읍 무극리 80-7,36.9916437916701,127.59765140026
1717,인천광역시 남동구 돌산마루 1호 공영주차장,인천 남동구 간석동 942,37.463614712235,126.717942988646
1718,전라남도 목포시 연동 인근 경로당,전남 목포시 산정동 1080-439,34.7908916461586,126.394301901685
1719,충청북도 제천시 제천경찰수련원,충북 제천시 청풍면 학현리 산 18-90,37.0150635419147,128.229878307788
1720,서울특별시 강북구 (가칭)서울우이유치원,,,
1721,전라북도 부안군 전북교육수련원,전북 부안군 변산면 격포리 347-1,35.6247770645782,126.472218237022
1722,전라남도 곡성군 섬진강 침실습지 주차장내 공중화장실,,,
1723,전라북도 정읍시 정읍시 태인면농업인상담소,전북 정읍시 태인면 태성리 635,35.6554668279411,126.934662254283
1724,전라남도 나주시 나주시 진산요양원 증축동(남자생활관),,,
1725,강원도 동해시 북평2통 경로당,,,
1726,전라북도 부안군 보안면 수랑마을 공중화장실 설치공사,,,
1727,경상남도 합천군 대병면 노인회관,경남 합천군 대병면 성리 1249-7,35.5237017051301,128.04928402234
1728,부산광역시 수영구 수영구 스포츠문화타운,부산 수영구 광안동 1333,35.1527828475919,129.107513298584
1729,경상북도 영덕군 영덕군 청소년수련관 건립공사,,,
1730,전라북도 남원시 반선보건진료소,전북 남원시 산내면 부운리 242-17,35.373291132164,127.579420203742
1731,인천광역시 계양구 갈현체육공원,인천 계양구 다남동 42-8,37.565366825238,126.720553497438
1732,인천광역시 연수구 (가칭)해양3중학교,,,
1733,충청남도 서산시 서산시 도로시설관리소,,,
1734,강원도 홍천군 동면 신봉리 경로당,강원 홍천군 동면 신봉리 211-8,37.6889471467873,127.970818557778
1735,서울특별시 강남구 세곡 커뮤니티센터,서울 강남구 세곡동 521-1,37.4610628315724,127.102703641522
1736,인천광역시 연수구 인천아암초등학교,인천 연수구 송도동,37.3910698289609,126.652089783488
1737,인천광역시 연수구 인천아암초등학교,인천 연수구 송도3동,37.3698984232225,126.656667188191
1738,인천광역시 연수구 인천아암초등학교,인천 연수구 송도1동,37.3910447602502,126.652144103433
1739,인천광역시 연수구 인천아암초등학교,인천 연수구 송도2동,37.403278225614,126.641701271832
1740,인천광역시 연수구 인천아암초등학교,인천 연수구 송도4동,37.3880627741626,126.634935217348
1741,인천광역시 연수구 인천아암초등학교,인천 연수구 송도5동,37.4138925571559,126.623269960972
1742,경기도 의왕시 부곡도깨비시장 공영주차장 조성공사,,,
1743,강원도 홍천군 서면 생활체육공원 다목적실,,,
1744,인천광역시 부평구 청천2구역 공공시설(보육시설),,,
1745,경기도 화성시 화성동탄경찰서 동탄3지구대,경기 화성시 목동 252-1,37.181288246293,127.122467788874
1746,제주특별자치도 제주시 한경면 종합복지회관,제주특별자치도 제주시 한경면 고산리 2904-3,33.300397846886,126.183832037065
1747,경기도 파주시 조리읍 행정복지센터,경기 파주시 조리읍 봉일천리 125-17,37.7433383378906,126.809771263655
1748,경기도 화성시 새솔초등학교,경기 화성시 새솔동 12,37.2888426877944,126.819102767367
1749,제주특별자치도 서귀포시 말문화시설(헌마공신 김만일기념.전시관),,,
1750,경기도 의정부시 (가칭)고산유치원,,,
1751,충청북도 충주시 충주 이야기가 있는 사과나무마을 어울림센터 신축공사,,,
1752,충청남도 홍성군 결성면 오거리 휴게광장 공중화장실,,,
1753,전라남도 영암군 영암 파크골프장 관리동,,,
1754,경기도 시흥시 계수8동 경로당 건립공사,,,
1755,경기도 하남시 (가칭)감일1유치원,,,
1756,충청남도 공주시 꿈든솔,,,
1757,인천광역시 강화군 신문리 대안경로당,인천 강화군 강화읍 신문리 122-1,37.7465210830322,126.484934798996
1758,경기도 의정부시 도봉산~옥정 광역철도 2공구 건설공사 103정거장,,,
1759,서울특별시 강동구 암사1동 구립 어린이집,서울 강동구 암사동 468-4,37.5522704053174,127.131064547751
1760,서울특별시 용산구 용문동 주민커뮤니티센터,서울 용산구 용문동 38-191,37.5369365173523,126.958251053676
1761,경기도 안양시 안양8동 명학마을 스마트케어하우스 신축공사,,,
1762,제주특별자치도 제주시 한수리 마을복지관,,,
1763,충청북도 괴산군 감물면 농촌중심지 활성화사업 공중화장실,,,
1764,강원도 삼척시 삼척 치유의 숲(힐링센터),,,
1765,서울특별시 서초구 서초4동 복합주민센터,,,
1766,강원도 삼척시 삼척 치유의 숲 방문자센터,,,
1767,경기도 화성시 화성시 농업기술교육장,,,
1768,경상남도 양산시 양산 독립공원 기념관,경남 양산시 북부동 691-8,35.3484997264477,129.039206866372
1769,강원도 원주시 봉대가온학교,강원 원주시 반곡동 300-1,37.332347191568,127.994013445891
1770,강원도 원주시 원주경찰서 부론파출소,강원 원주시 부론면 법천리 1449-2,37.2093164413477,127.750052071616
1771,경상남도 양산시 금오초중학교,경남 양산시 동면 석산리 1448-1,35.3220023847161,129.027870944808
1772,경상남도 창원시 내서 스포츠센터,경남 창원시 마산회원구 내서읍 중리 391-3,35.249941309421,128.52158315936
1773,경기도 안산시 월피 예술도서관 건립공사,,,
1774,경기도 남양주시 남양주다산고등학교,경기 남양주시 다산동 6050,37.6255675474621,127.158518756113
1775,강원도 태백시 국립공원공단 태백산국립공원사무소,,,
1776,서울특별시 동대문구 서울바이오허브 지역열린동,,,
1777,경기도 고양시 향동공원 화장실(체육공원),,,
1778,경기도 고양시 꿀내음공원 화장실(어린이공원2호),,,
1779,강원도 강릉시 강릉시 장애인 직업재활시설(사랑의 일터),,,
1780,인천광역시 서구 가칭)검단2초등학교 신축공사,,,
1781,충청남도 홍성군 홍성일반산업단지 근로자복지센터,,,
1782,경기도 성남시 성남 컬쳐플랫폼,경기 성남시 수정구 태평동 3678,37.4416352638415,127.133229003707
1783,경기도 남양주시 (가칭)백봉초중 통합학교 신축공사,,,
1784,서울특별시 송파구 잠실본동 복합청사 신축공사,,,
1785,제주특별자치도 제주시 상가리 경로당,제주특별자치도 제주시 애월읍 상가리 1196-1,33.4497969782966,126.345662852197
1786,경기도 화성시 매화리 오토캠핑장,,,
1787,서울특별시 중랑구 (가칭)양원초 교사신축,,,
1788,대구광역시 수성구 대구시체육회관,대구 수성구 대흥동 504,35.8277916223016,128.685163676326
1789,경상남도 산청군 산청유치원,경남 산청군 산청읍 지리 300,35.412232223089,127.879584360965
1790,강원도 홍천군 홍천군 궁도장,강원 홍천군 홍천읍 태학리 302-2,37.7116226169994,127.906147107933
1791,경기도 의왕시 의왕역 환승주차장,경기 의왕시 삼동 193-13,37.3204530972083,126.94895728203
1792,서울특별시 서초구 서초구립 방배본동 신나는 어린이집,서울 서초구 방배동 789-18,37.4922345174157,126.985865147935
1793,충청남도 보령시 성주면 대형주차장 내 공중화장실 신축공사,,,
1794,경상남도 거창군 2020년도 국가지정문화재 보수정비사업 거창 당산리 당송 주변정비사업,,,
1795,경상남도 창녕군 창녕오리정운동장,경남 창녕군 창녕읍 술정리 374-4,35.540436423833,128.488054440774
1796,경기도 평택시 평택로컬푸드 종합센터,경기 평택시 오성면 숙성리 84-2,37.012974618535,126.982685844847
1797,경상북도 경주시 경주시 장애인기초재활교육센터,,,
1798,전라남도 영암군 월출산국립공원사무소 신축공사,,,
1799,강원도 춘천시 석사동 행정복지센터,강원 춘천시 석사동 665,37.8586207817831,127.74236181414
1800,경기도 안양시 매곡어린이집,경기 안양시 동안구 비산동 318-79,37.4044578203315,126.944917656324
1801,경상북도 의성군 단촌구계 보건진료소,경북 의성군 단촌면 구계리 663,36.461869435788,128.724367607638
1802,대전광역시 유성구 유성구 하기동 여가녹지 화장실 및 관리사무소,,,
1803,충청북도 증평군 보강천 화장실,,,
1804,경상북도 의성군 생송 보건진료소,경북 의성군 단밀면 생송리 230-5,36.3751154009566,128.350389023922
1805,경기도 의왕시 의왕시 백운밸리 마을회관,,,
1806,경상남도 진주시 문산읍 관정마을 경로당,경남 진주시 문산읍 소문리 112-6,35.1704688979879,128.169142737286
1807,경상북도 영천시 영천시 말문화복합센터,,,
1808,대구광역시 서구 비산4동 어린이집,대구 서구 비산동 223-4,35.87008046095,128.573596916316
1809,충청북도 보은군 속리산 휴양관광지 모노레일시설 설치사업,,,
1810,경기도 평택시 근15호 동말 근린공원 화장실,,,
1811,경기도 평택시 근3호 아홉거리 근린공원 화장실,,,
1812,경기도 평택시 송탄졸음쉼터(제천방향) 공중화장실,,,
1813,경기도 평택시 송탄졸음쉼터(평택방향) 공중화장실,,,
1814,강원도 태백시 태백 매봉산 산악관광 조성사업 치유의 숲(치유센터 및 숲속의 집),,,
1815,충청북도 음성군 한국과학기술평가원,충북 음성군 맹동면 두성리 1521,36.9041498423172,127.549524888418
1816,제주특별자치도 제주시 저지오름 보전관리 정보센터,,,
1817,광주광역시 동구 전일빌딩 245,광주 동구 금남로1가 1-1,35.1483354592155,126.918848706573
1818,전라남도 구례군 산동면소재지 종합정비사업 공용화장실,,,
1819,전라북도 군산시 수산기술연구소 수산질병센터 청사 신축공사,,,
1820,인천광역시 강화군 지혜의 숲 도서관,인천 강화군 선원면 창리 606-26,37.7220090243887,126.483602489814
1821,부산광역시 영도구 영도구 Sea-Side Complex Town,,,
1822,제주특별자치도 제주시 올레20코스 안내소,,,
1823,전라남도 장흥군 장흥군 선거관리위원회,전남 장흥군 장흥읍 건산리 752-1,34.6769995395259,126.907061729395
1824,경상남도 창원시 자은동 민원센터,경남 창원시 진해구 자은동 147,35.1537885214702,128.71316945803
1825,경기도 화성시 화성우체국,경기 화성시 병점동 383-1,37.2072775756667,127.034102376977
1826,전라남도 무안군 행복유치원 신축공사,,,
1827,강원도 동해시 동해 북평레포츠 복합시설 건립공사,,,
1828,경기도 의정부시 의정부시 통합보훈회관,,,
1829,서울특별시 송파구 거암유치원,서울 송파구 거여동 443,37.4843997278492,127.147597918029
1830,제주특별자치도 제주시 신양항 공중화장실,제주특별자치도 제주시 추자면 신양리 434-9,33.9452246743488,126.327513739927
1831,충청북도 보은군 보은산업단지 기업지원시설,,,
1832,경상남도 창원시 가곡경로당,경남 창원시 의창구 동읍 본포리 456,35.3590069498599,128.644403999673
1833,강원도 춘천시 강원디자인진흥원,강원 춘천시 후평동 244-40,37.8899925022185,127.746580410642
1834,경기도 화성시 송산1유치원,경기 화성시 송산동 148-6,37.2093603465616,127.015016723895
1835,충청남도 예산군 함께하는 실버키즈 100세 공동체 활성화 사업,,,
1836,강원도 원주시 원주시 노인종합복지관 문막분관,강원 원주시 태장동 1052-1,37.3825071321365,127.952041832206
1837,경상남도 함양군 지곡면 다목적체육관 건립사업,,,
1838,서울특별시 양천구 갈산문화복합시설,,,
1839,경기도 평택시 평택경찰서 송탄파출소,,,
1840,서울특별시 도봉구 서울북부광역등기소,,,
1841,경기도 화성시 (가칭)병점1초등학교,,,
1842,경기도 화성시 (가칭)동탄20유치원,,,
1843,서울특별시 종로구 정부 서울청사 창성동별관,서울 종로구 창성동 117-6,37.5797077748414,126.973228535753
1844,광주광역시 광산구 광산경찰서 월곡지구대,광주 광산구 월곡동 680-2,35.1794753864659,126.809157038381
1845,경상북도 울진군 울진군 농어촌놀이터,,,
1846,대구광역시 수성구 파동우체국,대구 수성구 파동 495,35.8096332392093,128.619106010112
1847,울산광역시 울주군 발효아케데미관,,,
1848,경기도 오산시 경기 아이드림 오산센터,,,
1849,부산광역시 중구 자갈치글로벌수산명소화,,,
1850,전라남도 보성군 동화나라어린이집,전남 보성군 보성읍 주봉리 418-1,34.7641587086507,127.071779445033
1851,경기도 남양주시 (가칭)진건3유치원,,,
1852,경상남도 창원시 원계근린공원 내 화장실,,,
1853,전라남도 화순군 화순 동복 연둔리 숲정이 화장실,,,
1854,경상북도 상주시 상주시 육아종합지원센터,경북 상주시 무양동 164-23,36.4207405587322,128.154584076586
1855,경상남도 김해시 김해서부경찰서 율하파출소,경남 김해시 장유동 844,35.1697070809729,128.823460873506
1856,인천광역시 연수구 인천대학교 송도신캠퍼스 도서관(IT도서관) 증축,,,
1857,경기도 고양시 고양경찰서 도래울파출소,,,
1858,인천광역시 옹진군 연평면 주민체육시설,,,
1859,강원도 강릉시 강릉소방서 공동 직장어린이집,,,
1860,경상남도 통영시 경상남도 수산물안전관리센터,,,
1861,강원도 평창군 현충탑 화장실,,,
1862,부산광역시 동구 동구 만화체험관,부산 동구 범일동 1405-1,35.1377998198616,129.049835109475
1863,대구광역시 수성구 수성구 중동 치안센터,,,
1864,충청남도 홍성군 옥암어린이공원 공중화장실,,,
1865,제주특별자치도 제주시 올레14코스 안내소,제주특별자치도 제주시 한경면 저지리 1843-2,33.3336678972089,126.256108039246
1866,전라북도 군산시 전주출입국관리사무소 군산출장소 신축공사,,,
1867,제주특별자치도 서귀포시 대포항 공중화장실,,,
1868,울산광역시 북구 고헌중학교,울산 북구 화봉동 1485-1,35.5976426148641,129.363950383961
1869,울산광역시 중구 동백시니어센터,울산 중구 학성동 139-2,35.553469824834,129.337603027769
1870,인천광역시 부평구 부평구 십정동 어린이집,인천 부평구 십정동 324-1,37.4750630300372,126.695342097004
1871,서울특별시 구로구 신안산선 복선전철 민간투자사업(구로디지털단지 정거장),,,
1872,서울특별시 영등포구 신안산선 복선전철 민간투자사업(영등포 정거장),,,
1873,서울특별시 영등포구 신안산선 복선전철 민간투자사업(신풍 정거장),,,
1874,서울특별시 영등포구 신안산선 복선전철 민간투자사업(여의도 정거장),,,
1875,경기도 파주시 야당역 환승주차장,경기 파주시 야당동 1087,37.714280985252,126.761686118948
1876,강원도 인제군 상남3리 경로당,강원 인제군 상남면 상남리 1509-4,37.8453168765111,128.241681428392
1877,제주특별자치도 제주시 금능리 복합문화복지센터,,,
1878,광주광역시 북구 헬스케어로봇실증센터,광주 북구 월출동 987,35.2384871290531,126.866426603149
1879,서울특별시 동대문구 서울시립대 미래융합관,,,
1880,대구광역시 남구 대구대표도서관,,,
1881,서울특별시 은평구 제2남도학숙,,,
1882,강원도 고성군 봉포리 아름다운 해풍거리 조성사업(관리사무소),,,
1883,경기도 연천군 연천경찰서 전곡파출소,경기 연천군 전곡읍 전곡리 328-40,38.0255401044106,127.07353409086
1884,전라북도 장수군 호덕 마을만들기사업,,,
1885,강원도 삼척시 성내지구 대학로 주차타워,,,
1886,충청북도 충주시 충청강원 119특수구조대,충북 충주시 주덕읍 화곡리 1107,37.0135952743212,127.809584005585
1887,전라남도 여수시 여수신북항 관리사무실 및 운영사무실,,,
1888,전라남도 완도군 해양기후 치유센터,,,
1889,경기도 안산시 신안산선 복선전철 민간투자사업(성포정거장),,,
1890,경상남도 산청군 지리산국립공원 삼장분소,경남 산청군 삼장면 평촌리 658,35.3506906155802,127.816954103341
1891,제주특별자치도 서귀포시 서귀포 치유의숲 내 임산물판매장 및 야외화장실,,,
1892,제주특별자치도 제주시 강구리새마을회 경로당,,,
1893,충청남도 금산군 금산 상리지구 공영주차타워,,,
1894,경기도 광명시 빛가온중학교,경기 광명시 일직동 527,37.4119459406514,126.884028760505
1895,전라남도 나주시 영강동 어울림센터 건립공사,,,
1896,경상북도 영덕군 영덕목재문화체험장 조성사업 창포말 색동나무누리 신축공사,,,
1897,전라남도 화순군 국제규격 천연물의약품원료 대량생산시설,,,
1898,경기도 화성시 화성시 동탄호수공원 어울림센터,경기 화성시 산척동 726,37.1705690460453,127.11062816575
1899,부산광역시 금정구 금정문화원,부산 금정구 구서동 83-3,35.2472990916027,129.093176747178
1900,경기도 화성시 서해선 복선전철 105역사,,,
1901,경기도 화성시 서해선 복선전철 104역사,,,
1902,경기도 평택시 서해선 복선전철 103역사,,,
1903,충청남도 당진시 서해선 복선전철 101역사,,,
1904,전라북도 부안군 부안군 보안면 청사 신축공사,,,
1905,경상남도 창원시 월영 경로당,경남 창원시 마산합포구 월영동 602-48,35.1772917143215,128.555780993044
1906,충청남도 아산시 제12호 근린공원 관리사무소,,,
1907,경상남도 창원시 내서문화의집 별관,,,
1908,충청남도 아산시 제10호 근린공원 관리사무소,,,
1909,서울특별시 광진구 군자동 복합청사 건립,,,
1910,"전라남도 담양군 전라남도 1000년! 새로운 시작, 순담 Meta-Circle 프로젝트",,,
1911,대구광역시 중구 대구행복기숙사,대구 중구 수창동 29-1,35.875105290592,128.589496957276
1912,경상북도 상주시 모서면 연화사 공중화장실,,,
1913,경상북도 포항시 이동 제4공원 공영주차장,,,
1914,제주특별자치도 서귀포시 서귀포 사려니 숲 내 야외(포세식)화장실,,,
1915,제주특별자치도 제주시 삼양동 선사유적지 주차장 관리사무소,,,
1916,충청남도 청양군 청양군 장애인회관,충남 청양군 청양읍 교월리 106-1,36.4504853619053,126.811081449282
1917,경기도 남양주시 다산한강초등학교,경기 남양주시 다산동 6236,37.5993182588118,127.172396282479
1918,경상북도 성주군 성주군 청년창업 LAB 조성사업,,,
1919,경기도 안산시 안산산업역사박물관,경기 안산시 단원구 초지동 667,37.3268455747838,126.813908652466
1920,경기도 안산시 안산산업역사박물관,경기 안산시 단원구 성곡동 667,37.3202912774805,126.743053138427
1921,울산광역시 북구 육아종합지원센터,울산 북구 연암동 1120-3,35.584589992693,129.361169922493
1922,경기도 수원시 정자동 장애인주간보호시설,경기 수원시 장안구 정자동 43-17,37.2925132337821,126.997602445997
1923,경기도 시흥시 목감고등학교,경기 시흥시 조남동 683,37.3721252356669,126.857303172303
1924,경기도 안양시 안양만안경찰서 안양지구대,경기 안양시 만안구 안양동 88-1,37.406224096723,126.919210526904
1925,충청북도 청주시 세종대왕 행궁,,,
1926,강원도 철원군 철원국민체육센터,강원 철원군 갈말읍 군탄리 1382-6,38.1587140071637,127.302692549668
1927,경상남도 밀양시 영남알프스 생태관광센터,,,
1928,부산광역시 동래구 (가칭)온천2초등학교,,,
1929,경기도 수원시 씽씽어린이공원 화장실,,,
1930,서울특별시 서초구 방배1파출소,서울 서초구 방배동 906-5,37.4845317949784,126.996904583848
1931,전라남도 여수시 양지바름공원 화장실 신축사업,,,
1932,전라남도 여수시 차동공원 화장실 신축사업,,,
1933,경기도 광명시 신안산선 복선전철 민간투자사업(광명정거장),,,
1934,경기도 안산시 신안산선 복선전철 민간투자사업(호수정거장),,,
1935,경기도 안산시 신안산선 복선전철 민간투자사업(한양대정거장),,,
1936,광주광역시 남구 119소방안전교육센터,광주 광산구 우산동 1602-2,35.1590141808014,126.806285116368
1937,경상남도 산청군 남부문화체육센터,경남 산청군 신안면 하정리 930-1,35.3013228094894,127.971179349235
1938,경상남도 사천시 사천파출소,경남 사천시 사천읍 평화리 51,35.0831906380465,128.087771906542
1939,전라북도 완주군 용진읍 행정복지센터,전북 완주군 용진읍 용흥리 860,35.8801974318845,127.156134729112
1940,경상남도 김해시 경남콘텐츠 기업육성센터,경남 김해시 관동동 1052-1,35.1768208639601,128.80529392212
1941,서울특별시 동작구 상도제4동주민센터,서울 동작구 상도동 437,37.4981089873804,126.953074872495
1942,경상북도 칠곡군 칠곡군 중증장애인자립지원센터 · 가족지원센터,,,
1943,경기도 김포시 고촌 노을주차장,경기 김포시 고촌읍 신곡리 1103,37.605466082995,126.772935715982
1944,경상북도 포항시 포항북부경찰서 양학파출소,,,
1945,경상북도 영덕군 영덕군 보훈회관,경북 영덕군 영덕읍 남석리 6,36.410566129828,129.370086752423
1946,충청남도 천안시 천안 성정동 어린이공원 지하주차장 및 공중화장실,,,
1947,대구광역시 동구 국가정보자원관리원 대구센터,대구 동구 도학동 448,35.9684565349174,128.706353856756
1948,부산광역시 연제구 부산연제경찰서 연산파출소,,,
1949,전라남도 함평군 전라남도 함평교육지원청,전남 함평군 함평읍 기각리 373-34,35.0674654609781,126.522995270678
1950,경기도 광명시 광명경찰서 일직파출소,,,
1951,경기도 고양시 꽃향기공원 화장실,,,
1952,경기도 고양시 숲향기공원 화장실,,,
1953,전라남도 영암군 삼호 실내수영장,전남 목포시 옥암동 1373,34.8026790651015,126.440283243967
1954,서울특별시 광진구 자양1재정비촉진구역 도시정비형 재개발사업(공공청사),,,
1955,경상북도 경주시 황남동 포석로 공용주차장(공중화장실),,,
1956,전라남도 여수시 상하화보건진료소,전남 여수시 화정면 하화리 236,34.5943132542497,127.62005347345
1957,경기도 수원시 만석공원 맹꽁이화장실,,,
1958,부산광역시 해운대구 송정동경로당,,,
1959,충청남도 천안시 천안삼거리공원 화장실,,,
1960,충청남도 천안시 천안삼거리공원 체험공방,,,
1961,충청남도 천안시 천안삼거리공원 판매시설,,,
1962,충청남도 천안시 천안삼거리공원 지하주차장,,,
1963,경상남도 창원시 창원시 팔룡동 공영주차빌딩,,,
1964,경상남도 진주시 대곡중학교,경남 진주시 충무공동 128,35.1705896275696,128.136342596591
1965,전라남도 화순군 호남119특수구조대,전남 화순군 이양면 율계리 815-4,34.8722958472808,126.99524946858
1966,경기도 군포시 군포시 보훈회관,경기 군포시 산본동 1096-6,37.364718470201,126.933569814575
1967,인천광역시 남동구 남촌 어울림 커뮤니티센터,인천 남동구 남촌동 376-10,37.4329354753113,126.716029104962
1968,경기도 성남시 복정도서관 건립공사,,,
1969,강원도 춘천시 구곡폭포 특산물 판매장,,,
1970,"대구광역시 남구 강당골 스포츠클라이밍장 조성사업 부대시설(사무소,화장실,샤워장) 및 휴게음식점",,,
1971,"제주특별자치도 서귀포시 어촌·어항(신천항) 관광특성화사업(목욕탕, 소매점)",,,
1972,경기도 의정부시 의정부역 동부광장 역전근린공원 화장실,,,
1973,충청북도 진천군 진천군 육아종합지원센터,충북 진천군 덕산읍 두촌리 2749,36.8992759611961,127.528429030355
1974,충청남도 아산시 방축동 제1공영주차장,충남 아산시 온천동 1926,36.7928766314766,126.996512255557
1975,전라남도 광양시 광양 중마수영장 건립공사,,,
1976,경상북도 영천시 부향마을 경로당,,,
1977,전라북도 전주시 전주양현중학교,전북 전주시 덕진구 만성동 1357-1,35.8476285001152,127.074943858966
1978,경기도 파주시 가람마을공원 지하주차장,,,
1979,경상북도 고령군 개진면 노인회관 경로당,경북 고령군 개진면 직리 804-6,35.7225699567001,128.308492527802
1980,경상북도 구미시 구미경찰서,경북 구미시 신평동 188-2,36.118018342584,128.36448325241
1981,서울특별시 중랑구 중랑구 방정환 교육지원센터,서울 중랑구 상봉동 99-1,37.5974436342788,127.088310533115
1982,경상북도 봉화군 봉화경찰서 명호파출소,경북 봉화군 명호면 도천리 240-7,36.8560395948339,128.898100048915
1983,경상북도 청송군 청송경찰서 안덕파출소,경북 청송군 안덕면 명당리 455,36.290031489426,128.961209008861
1984,경상북도 영주시 장수면농촌중심지활성화사업 다목적체육관,,,
1985,제주특별자치도 제주시 제주보육원 신축공사,,,
1986,제주특별자치도 제주시 신창항 다이버 체험학습장 지원센터,,,
1987,전라남도 나주시 종자관리소청사(행정동) 건립공사,,,
1988,전라남도 보성군 겸백남성경로당 신축공사,,,
1989,서울특별시 영등포구 국회소통관,서울 영등포구 여의도동 1,37.5310586079353,126.915381487445
1990,전라북도 부안군 부안경찰서 보안파출소,전북 부안군 보안면 영전리 513-20,35.6114946096083,126.668540933517
1991,광주광역시 남구 광주광역시 남구 치매안심센터,광주 남구 노대동 737,35.1062290121958,126.903776403372
1992,전라남도 목포시 유달산 목재문화체험장,,,
1993,경기도 평택시 오성면 행정복지센터 건립공사,,,
1994,경상북도 상주시 도림사 공중화장실,,,
1995,경기도 고양시 고양2통경로당,경기 고양시 덕양구 고양동 1113,37.7194774004829,126.903578807622
1996,경상북도 청송군 청송군 얼음골 클라이밍센터 장애인화장실 증축공사,,,
1997,경상북도 경주시 금관총 보존전시공간 신축공사,,,
1998,서울특별시 중구 동화동 공영주차장 확충 및 교육혁신센터 건립공사,,,
1999,충청남도 서천군 비인 보건지소,충남 서천군 비인면 성내리 313-1,36.1414226036585,126.601390419493
2000,울산광역시 북구 호계커뮤니티센터,,,
2001,충청북도 충주시 동량면 동량행복센터(야외화장실 및 체육시설),,,
2002,충청남도 금산군 금산군 진산면 체육센터,,,
2003,충청남도 아산시 커뮤니티 거점 조성 및 사회적 경제 종합지원센터,,,
2004,광주광역시 광산구 광주광역시 거점형 공공직장어린이집,,,
2005,경기도 남양주시 (가칭)남앙주 다산 지금1초등학교,,,
2006,경상남도 하동군 적량면 농촌중심지 활성화사업,,,
2007,경상북도 칠곡군 왜관시장 복합문화공간 건립공사,,,
2008,전라북도 군산시 디오션시티 철길공원 화장실,,,
2009,전라북도 고창군 고창군 어업지도선 관리사무소,,,
2010,경상북도 청송군 현동면 당포 경로당,경북 청송군 현동면 개일리 265,36.2537026621211,129.025266369195
2011,경상북도 청송군 청송군 현동면 도평재래시장 공중화장실,,,
2012,광주광역시 북구 광주 솔로몬 로파크,광주 북구 문흥동 88-1,35.1871555919798,126.930260413013
2013,경기도 시흥시 (가칭) 장현2유치원 신축공사,,,
2014,경상북도 예천군 (가칭)예담유치원 신축,,,
2015,경상북도 포항시 포항시 장애인형 국민체육센터,,,
2016,경기도 시흥시 (가칭)시흥장현 공공주택지구 유치원1,,,
2017,전라남도 담양군 담양 객사리 석당간 및 남산리 오층석탑 보호구역 정비 관리사무소,,,
2018,전라남도 신안군 신안대동염전 천일염체험장조성사업,,,
2019,전라남도 고흥군 포두작은도서관 건립공사,,,
2020,전라남도 목포시 서산동 보리마당 공영주차장 내 화장실,,,
2021,전라북도 김제시 용지면 행정복지센터,전북 김제시 용지면 구암리 359,35.853902383284,126.954961214487
2022,제주특별자치도 제주시 한림읍 작은영화관 건립공사,,,
2023,서울특별시 동대문구 답십리동 우아세 어린이집 신축공사,,,
2024,경기도 이천시 이천시보건소 신축공사,,,
2025,충청북도 충주시 산척면 공중화장실(신축),,,
2026,전라남도 보성군 벌교전통시장 주차환경개선사업,,,
2027,경상북도 문경시 문경 인공암장 리모델링 사업,,,
2028,경상남도 합천군 가야산국립공원 롯데공중화장실,,,
2029,충청남도 보령시 고남포 복합 문화복지 공간조성(수부2리 마을회관),,,
2030,경기도 용인시 동천3지구 청소년시설 신축공사,,,
2031,서울특별시 영등포구 당산동1가12 도시계획시설,서울 영등포구 당산동1가 186-108,37.5227534705116,126.899228175222
2032,경기도 부천시 신흥동어울마당,경기 부천시 삼정동 207,37.5204235234169,126.773490502566
2033,인천광역시 옹진군 북도면 주민체육센터 건립공사,,,
2034,충청남도 보령시 관창산업단지 근로자복지센터,,,
2035,강원도 정선군 (주)강원랜드 제2직장어린이집,,,
2036,서울특별시 마포구 염리3구역 주택재개발 정비사업,서울 마포구 염리동 148-9,37.5462501017385,126.946113923104
2037,울산광역시 남구 울산신정 행복주택(공용주차장),,,
2038,울산광역시 남구 울산신정 행복주택(공공도서관),,,
2039,울산광역시 남구 울산신정 행복주택(어린이집),,,
2040,충청남도 아산시 모산역 문화플랫폼 및 문화어울림공간 조성사업,,,
2041,전라남도 무안군 오룡지구 내 근린공원 공중화장실,,,
2042,전라남도 광양시 금속가공 열처리 지원센터,,,
2043,전라남도 신안군 신안군 예비군 부대 사무실,,,
2044,경기도 성남시 수내2동 행정복지센터 신축공사,,,
2045,세종특별자치시  행정중심복합도시 1생활권 환승주차장,,,
2046,강원도 삼척시 삼척 샛별하나어린이집,,,
2047,경기도 수원시 서문경로당,경기 수원시 장안구 영화동 422-26,37.2876635984074,127.004664436896
2048,울산광역시 남구 울산 두왕 초등학교,울산 남구 두왕동 749-1,35.5137677655914,129.293977573238
2049,경기도 용인시 용인산림교육센터,,,
2050,경상북도 포항시 장안경로당,,,
2051,전라북도 전주시 전주 자연초등학교,전북 전주시 덕진구 송천동2가 1305,35.8774767655612,127.135866285531
2052,경기도 수원시 유천경로당,경기 수원시 권선구 세류3동 344-13,37.2622253179845,127.010517888155
2053,경기도 이천시 이천마장초등학교,경기 이천시 마장면 오천리 412,37.2535751914027,127.355907561837
2054,경기도 화성시 (가칭)능동1유치원,,,
2055,제주특별자치도 제주시 하귀2리 경로당,제주특별자치도 제주시 애월읍 하귀2리 1893-1,33.4789579708138,126.403271692148
2056,경상북도 안동시 서후면 복지회관,경북 안동시 서후면 성곡리 130-4,36.6165194524385,128.663495790635
2057,전라북도 부안군 동진면 농촌중심지활성화사업,,,
2058,경기도 시흥시 시흥시 대야3지구 어린이공원 내 공원관리사무소 및 공중화장실,,,
2059,전라남도 신안군 신안군 임자읍 공립형 지역아동센터,,,
2060,전라북도 순창군 순창경찰서,전북 순창군 순창읍 순화리 479,35.3771088572652,127.136309279646
2061,경상남도 양산시 당곡천 생태학습관,경남 양산시 원동면 용당리 산 18-11,35.3711745615923,128.908889620608
2062,경기도 의왕시 갈미어린이공원 지하공영주차장,,,
2063,경상북도 구미시 고아읍 생활체육센터,경북 구미시 고아읍 원호리 78,36.157261781323,128.34030891564
2064,경상북도 칠곡군 동명지 수변생태공원 조성사업(생태학습관),,,
2065,대전광역시 유성구 한밭대학교 지역협력 연구 및 분석지원센터,,,
2066,대전광역시 유성구 대전지방법원 광역등기소 신축 설계용역,,,
2067,전라남도 나주시 나주호 수변공원 화장실,,,
2068,인천광역시 미추홀구 (가칭)장애아 전문어린이집 및 육아종합지원센터,,,
2069,경기도 부천시 부천시 치매안심센터,경기 부천시 춘의동 163-7,37.5036506616244,126.788016089447
2070,경상남도 산청군 신촌마을 창조적마을 만들기 화장실,,,
2071,제주특별자치도 서귀포시 서귀포중앙 행복주택 신축공사 (업무시설),,,
2072,전라남도 구례군 구례공공도서관 이설공사,,,
2073,경기도 남양주시 수동멀티스포츠센터,경기 남양주시 수동면 입석리 338-1,37.7100886420781,127.322834495373
2074,제주특별자치도 제주시 올레 13코스 공중화장실,,,
2075,전라북도 전주시 전주화정중학교,전북 전주시 덕진구 송천동2가 1340,35.8713991873173,127.130571107934
2076,전라북도 전주시 전주효천초등학교,전북 전주시 완산구 효자동2가 1365,35.7994197062899,127.10518514498
2077,경기도 광주시 광주푸른초등학교,경기 광주시 쌍령동 504,37.3991393488625,127.271310421963
2078,서울특별시 동대문구 답십리 제18구역 어린이집,,,
2079,울산광역시 북구 염포운동장 관리동,,,
2080,경상남도 거제시 상동1초등학교,경남 거제시 상동동 750-1,34.8673161579761,128.630704711898
2081,강원도 홍천군 속초1리 경로당,강원 홍천군 동면 속초리 641-4,37.6775122010564,127.936602074853
2082,제주특별자치도 서귀포시 태흥3리 경로당,,,
2083,충청북도 청주시 충청북도 장애인회관 건립공사,,,
2084,제주특별자치도 제주시 선흘 동백동산 에코촌 유스호스텔 야외화장실 및 안내실,,,
2085,전라북도 전주시 전주 새솔유치원,전북 전주시 덕진구 송천동2가 1349,35.8747116578483,127.139231322902
2086,세종특별자치시  창의진로교육원 건립공사,,,
2087,충청남도 예산군 농촌신활력 플랫폼,,,
2088,경기도 수원시 수원 화물자동차 공영차고지,경기 수원시 권선구 고색동 551,37.2376618436354,126.98835619353
2089,강원도 춘천시 춘천 수리과학정보체험센터,,,
2090,강원도 정선군 정선경찰서,강원 정선군 정선읍 봉양리 316,37.3816993156513,128.661562893836
2091,울산광역시 울주군 서울주 문화센터,울산 울주군 언양읍 남부리 31-4,35.5612540624572,129.131257311469
2092,경상남도 함안군 독립유공 이태준 기념관 건립사업,,,
2093,울산광역시 북구 소금포역사관,울산 북구 염포동 193,35.5351878390435,129.39082253625
2094,강원도 원주시 태장1동 행정문화복합센터 신축공사,,,
2095,충청남도 청양군 장곡지구 공중화장실,,,
2096,충청남도 서천군 마서면 주민자치센터,충남 서천군 마서면 계동리 22,36.0619321124068,126.706831118865
2097,경상남도 창원시 창원해양경찰서,경남 창원시 마산회원구 봉암동 666-53,35.2113814208116,128.602382602216
2098,경상북도 성주군 법산마을회관,,,
2099,울산광역시 중구 우정동 행정복지센터,울산 중구 우정동 277-18,35.5552639062354,129.312538475066
2100,경상북도 경주시 경주시 치매안심센터,경북 경주시 성건동 620-83,35.8553705883803,129.210474361162
2101,서울특별시 서대문구 서대문구의회 청사(복합청사),,,
2102,대전광역시 대덕구 송촌동 상점가 공영주차 전용빌딩,,,
2103,충청북도 충주시 옹달샘 시장 화장실,,,
2104,대전광역시 대덕구 신탄진 도시재생 뉴딜사업 공영주차장 건립공사,,,
2105,충청남도 서산시 비점오염저감시설 공중화장실(용암리),,,
2106,충청남도 서산시 비점오염저감시설 공중화장실(부장리),,,
2107,전라북도 고창군 동호해수욕장 공중화장실,전북 고창군 해리면 동호리 627,35.5161308558679,126.48270758514
2108,전라북도 부안군 변산반도국립공원 내변산분소 신축공사,,,
2109,인천광역시 서구 인천도시철도 1호선 검단연장선 103정거장,,,
2110,인천광역시 서구 인천도시철도 1호선 검단연장선 102정거장,,,
2111,인천광역시 서구 인천도시철도 1호선 검단연장선 101정거장,,,
2112,서울특별시 강동구 강동구 청소년 문화의집,서울 강동구 천호동 308-10,37.5452357121837,127.128744603041
2113,경상남도 양산시 양산 석계2일반산업단지 공중화장실,,,
2114,경상남도 김해시 김해율산초등학교(율하2택지 2초등학교),경남 김해시 장유동 871,35.1648085449348,128.8289083114
2115,충청북도 청주시 강서2동 주민센터,충북 청주시 흥덕구 강서동 9-2,36.6266835213112,127.425904683595
2116,경상남도 김해시 김해모산중학교(율하2택지 중학교),경남 김해시 장유동 872,35.165557620032,128.829916859724
2117,경상남도 창원시 의창초등학교(중동2초등학교),경남 창원시 의창구 중동 789,35.2535793322088,128.629595107151
2118,경상북도 경산시 경상북도 재활병원,경북 경산시 상방동 242-3,35.8093466675104,128.739408540793
2119,경상북도 영천시 한국폴리텍대학 로봇캠퍼스,경북 영천시 화룡동 989,35.9720554541781,128.92094422718
2120,경상남도 진주시 신진주초등학교 교사 신축공사,,,
2121,충청북도 옥천군 옥천전통문화체험관,충북 옥천군 옥천읍 하계리 1-1,36.3163203263251,127.585522615252
2122,경상남도 하동군 하동서 금성파출소,,,
2123,경상남도 양산시 양산서 평산파출소,,,
2124,경상남도 의령군 의령서 유곡파출소,,,
2125,경상남도 창원시 창원중부서 신촌파출소,,,
2126,서울특별시 동작구 구립 나래어린이집,서울 동작구 상도동 356-100,37.5034895006085,126.933826942873
2127,경기도 여주시 가남읍 농촌중심지활성화사업 행복나눔센터 및 다목적체육센터 건립공사,,,
2128,전라북도 전주시 전북혁신도시 복합혁신센터,,,
2129,경상남도 남해군 지족어촌관광단지내 공중화장실,,,
2130,전라남도 목포시 전라남도 서남권 해양수산 종합지원관,,,
2131,전라남도 보성군 회천면 농민상담소,전남 보성군 회천면 율포리 423,34.6684619511994,127.084442225902
2132,서울특별시 도봉구 도봉1파출소,서울 도봉구 도봉동 594-24,37.6794843533046,127.043403630102
2133,울산광역시 동구 희망장애인보호작업장,울산 동구 서부동 615-3,35.5316398754563,129.414514090394
2134,강원도 삼척시 가곡 유황온천 개발 및 기반시설,,,
2135,대전광역시 대덕구 꿈놀작은도서관,대전 대덕구 목상동 210-7,36.4476632577384,127.415339874344
2136,서울특별시 은평구 구립 진관어린이집,서울 은평구 진관동 164-11,37.6313600387469,126.924338436703
2137,전라남도 영광군 전남안전체험학습장,전남 영광군 법성면 신장리 868,35.3301670706456,126.477025009869
2138,강원도 홍천군 광원보건진료소,강원 홍천군 내면 광원리 779-8,37.8294543492839,128.444236372736
2139,대구광역시 북구 북구 보훈회관 및 노인종합복지관,,,
2140,충청북도 진천군 생거진천 치유의숲(치유센터),,,
2141,충청북도 진천군 생거진천 치유의숲(숯채화효소원),,,
2142,경기도 고양시 한류초 및 한류유치원 신축,,,
2143,인천광역시 부평구 새뜰마을 공동이용시설,,,
2144,부산광역시 해운대구 해운대구 장애인복지관,부산 해운대구 반여동 1502-147,35.2107576290932,129.121925882488
2145,부산광역시 북구 구포2동 행정복지센터,부산 북구 구포동 969-4,35.201729338141,128.999393012995
2146,충청남도 부여군 부여읍 북부지역 보건진료소,,,
2147,울산광역시 남구 와와커뮤니티하우스,울산 남구 무거동 1236-11,35.5489114730706,129.280065223168
2148,충청남도 천안시 천안역세권 행복주택 건설공사,,,
2149,경기도 화성시 송린이음터,경기 화성시 새솔동 125,37.2768751983235,126.822320904799
2150,울산광역시 울주군 천상 한울공원 지하주차장 조성공사,,,
2151,울산광역시 중구 울산지방경찰청 수사동,,,
2152,전라북도 고창군 구시포항 공중화장실,,,
2153,전라북도 정읍시 정읍시 정우면 농업인상담소,전북 정읍시 정우면 초강리 36,35.6446335367352,126.876476601379
2154,경기도 안산시 안산시 창말체육관,경기 안산시 상록구 건건동 489,37.3086125366362,126.906614557691
2155,제주특별자치도 서귀포시 상천리다목적회관,,,
2156,충청남도 계룡시 계룡시 장애인 복지센터,충남 계룡시 금암동 148-3,36.2743167517448,127.25471247731
2157,대구광역시 달서구 성서산업단지 재생시행계획 수립 용역 A필지 주차장,,,
2158,대구광역시 달서구 성서산업단지 재생시행계획 수립 용역 E필지 주차장,,,
2159,대구광역시 달서구 성서산업단지 재생시행계획 수립 용역 B필지 주차장,,,
2160,울산광역시 중구 중구 B-05 구역 내 공공청사(파출소) 신축공사,,,
2161,경기도 안산시 안산 시립 하나어린이집,경기 안산시 단원구 대부북동 1960-1,37.2721471904477,126.568251879778
2162,제주특별자치도 제주시 애월읍 레포츠공원 다목적실(공중화장실 및 야외공연장),,,
2163,경기도 화성시 화성 동탄 제7중학교,,,
2164,경기도 시흥시 뱀내공원 멀티주차장 조성사업,,,
2165,인천광역시 서구 (가칭)검단4초등학교,,,
2166,광주광역시 동구 지원1동 마을사랑채,광주 동구 학동 721,35.1330439107607,126.932954811032
2167,세종특별자치시  부강면 농촌중심지활성화사업 청소년문화관,,,
2168,전라북도 정읍시 정읍시치매안심센터,전북 정읍시 금붕동 949-3,35.5545974426954,126.893321867516
2169,충청남도 천안시 천안희망초등학교,충남 천안시 동남구 신부동 298-6,36.8254370242672,127.153298831093
2170,강원도 홍천군 수타사 문화관광해설사 대기소 및 화장실,,,
2171,경기도 양주시 양주시 장애인종합복지관,경기 양주시 삼숭동 640-30,37.8017976479948,127.090653920299
2172,경상북도 고령군 개진면사무소,경북 고령군 개진면 개포리 240-1,35.7082704649919,128.35046557754
2173,서울특별시 강북구 미아동 1974외 공영주차장(공공공지),,,
2174,충청북도 청주시 밀레니엄타운 가족공원 편의시설 설치공사,,,
2175,강원도 속초시 행정지원센터(관광안내시설),,,
2176,강원도 속초시 속초해변 화장실 및 샤워장,,,
2177,"대구광역시 동구 대구 연경지구 1초,중 통합운영학교 및 1유치원",,,
2178,경기도 파주시 파주장단콩웰빙마루 조성사업(2BL),,,
2179,경기도 파주시 파주장단콩웰빙마루 조성사업(1BL),,,
2180,인천광역시 계양구 계양산성박물관,인천 계양구 계산동 산 11,37.5481285495448,126.727104419959
2181,경기도 용인시 용인한얼초등학교,경기 용인시 기흥구 구갈동 43-24,37.2708254051152,127.122391904225
2182,경상남도 산청군 산청고등학교,경남 산청군 산청읍 옥산리 815,35.4097698084271,127.870391898171
2183,전라북도 장수군 장수군립도서관 이전건립,,,
2184,경상남도 진주시 KSPO 스포츠가치센터,경남 진주시 내동면 삼계리 234-4,35.156413426657,128.035578991127
2185,인천광역시 계양구 갈개근린공원 관리사무소 신축공사,,,
2186,충청북도 진천군 진천경찰서 청사,,,
2187,충청남도 천안시 천안두정(복합) 행복주택,,,
2188,서울특별시 동대문구 동대문경찰서 장안1파출소,서울 동대문구 장안동 354-9,37.5678716759677,127.073319986169
2189,서울특별시 도봉구 창2동 주민복합공간,,,
2190,세종특별자치시  교육정보시스템 통합 재해복구센터,세종특별자치시 조치원읍 서창리 263,36.6036335247516,127.285133040577
2191,부산광역시 동구 좌천동 VR체험관,,,
2192,"충청북도 제천시 의림지 수리공원(공원안내센터, 휴게음식점)",,,
2193,인천광역시 중구 동화마을경로당,인천 중구 송월동3가 11-45,37.4786926287504,126.62018359308
2194,인천광역시 중구 중구 청소년수련관,인천 중구 운남동 1640-1,37.4738131567961,126.525838778604
2195,강원도 고성군 토성면 행정복지센터,강원 고성군 토성면 천진리 131,38.2606093666465,128.556280720335
2196,광주광역시 남구 양림동 공영주차장,광주 남구 양림동 171-5,35.1413578202824,126.914880033846
2197,경상북도 문경시 문경시 문학 어울림 아카데미,,,
2198,서울특별시 강남구 양재 공영주차장,서울 강남구 도곡동 922,37.4865474901998,127.037172110144
2199,경상북도 봉화군 삼동보건진료소,경북 봉화군 명호면 삼동리 765-3,36.8782154384723,128.932762330289
2200,경기도 안양시 안양8동 경로당,경기 안양시 만안구 안양동 707-139,37.3937289132072,126.921481404823
2201,경기도 안산시 안산시 보훈회관,경기 안산시 단원구 선부동 1077-9,37.3322287398153,126.81064385002
2202,강원도 양양군 강현면 전진리 제 1종 근린생활시설(공중화장실 및 창고),,,
2203,세종특별자치시  조치원중학교,세종특별자치시 조치원읍 서창리 30-11,36.6119741953263,127.299317196598
2204,충청남도 예산군 예산군 공공청사(조정팀 관리사무소),,,
2205,충청남도 서천군 서천군 신청사,충남 서천군 서천읍 군사리 52-5,36.0773931282203,126.702536313806
2206,부산광역시 영도구 영도해녀문화전시관,부산 영도구 동삼동 산 65-5,35.066991006971,129.066139373013
2207,경기도 평택시 평택 복합휴게시설,경기 평택시 청북읍 현곡리 73-18,37.0448952346036,126.944547234949
2208,광주광역시 남구 빛여울초등학교,광주 남구 임암동 714,35.1032114380994,126.869234478359
2209,세종특별자치시  세종시 어린이박물관 및 통합시설,,,
2210,충청남도 당진시 당진시 가족문화센터 조성사업,,,
2211,전라남도 영광군 스포티움축구장 공중화장실,,,
2212,서울특별시 은평구 한국산업인력공단 서울서부지사,서울 은평구 진관동 산 100-23,37.6394500363568,126.920712204085
2213,서울특별시 영등포구 신안산선 복선전철 민간투자사업(도림사거리정거장),,,
2214,서울특별시 동작구 신안산선 복선전철 민간투자사업(대림삼거리정거장),,,
2215,서울특별시 금천구 신안산선 복선전철 민간투자사업(독산정거장),,,
2216,서울특별시 금천구 신안산선 복선전철 민간투자사업(시흥사거리정거장),,,
2217,서울특별시 금천구 신안산선 복선전철 민간투자사업(석수정거장),,,
2218,경기도 시흥시 신안산선 복선전철 민간투자사업(목감정거장),,,
2219,경기도 안산시 신안산선 복선전철 민간투자사업(중앙정거장),,,
2220,경기도 의정부시 호원1동 경로당,경기 의정부시 호원동 121,37.7060709804331,127.050047022331
2221,서울특별시 강남구 개포시영 주택재건축 정비사업 예지어린이집,,,
2222,경기도 화성시 제부도 아트파크 내 공중화장실,,,
2223,경기도 남양주시 남양주 다산한강중학교,경기 남양주시 다산동 6241,37.5992360540167,127.175476547404
2224,경기도 남양주시 퇴계원면 종합행정타운,경기 남양주시 별내동 1028,37.6460296399524,127.122149881345
2225,경상북도 경산시 경산공설시장-C지구,,,
2226,강원도 강릉시 강동파출소,강원 강릉시 강동면 상시동리 150-1,37.7265612720027,128.954682528132
2227,울산광역시 북구 송정경로당,울산 북구 송정동 1236-4,35.6052846858234,129.368424355213
2228,전라남도 나주시 도담유치원,전남 나주시 빛가람동 626-2,35.0067108498675,126.786287013596
2229,부산광역시 영도구 영도 조내기 고구마 역사기념관,부산 영도구 청학동 484-1,35.0852064456605,129.058609531505
2230,충청남도 홍성군 홍성경찰서 내포지구대,,,
2231,경상북도 성주군 가야산 백운분소,경북 성주군 수륜면 백운리 1805,35.800777392793,128.141592987849
2232,인천광역시 계양구 계양 유소년 축구전용구장,,,
2233,울산광역시 북구 울산 제2시립노인복지관,,,
2234,경상남도 김해시 진영2초·중통합학교 교사 신축공사,,,
2235,경상북도 봉화군 국립공원공단 태백산국립공원 백천분소,,,
2236,부산광역시 강서구 신호동 민원센터,,,
2237,대전광역시 동구 가오동 새텃말 커뮤니티센터,,,
2238,경상북도 영덕군 3대문화권 나옹왕사 기념관 신축공사,,,
2239,서울특별시 양천구 양천근린공원 숲속도서관 신축공사,,,
2240,경상북도 문경시 문경시 청정식물원 내 체험 및 판매장,,,
2241,대전광역시 유성구 (가칭)서남4중학교 신축공사 설계용역,,,
2242,충청북도 음성군 음성군 평생학습관,,,
2243,서울특별시 구로구 항동초등학교,서울 구로구 항동 160,37.4766653765626,126.823914601581
2244,전라북도 임실군 임실군 거점형 공공직장어린이집,전북 임실군 임실읍 이도리 745-1,35.6151213157812,127.279709999765
2245,전라북도 전주시 전주시 거점형 공공직장어린이집,전북 전주시 덕진구 만성동 1370-2,35.8452840700241,127.081573193323
2246,경기도 하남시 (가칭)위례7유치원,,,
2247,전라남도 신안군 다도해해상국립공원 도초비금분소,전남 신안군 도초면 지남리 1033-2,34.6913133531924,125.92979374613
2248,경기도 용인시 풍덕천 체육공원 공중화장실,경기 용인시 수지구 풍덕천동 17-1,37.3299960004314,127.098546651365
2249,전라북도 전주시 전북권 보훈요양원,,,
2250,전라북도 남원시 남원시 청소년 수련관,전북 남원시 동충동 231-1,35.4129494371151,127.383827679508
2251,경상북도 포항시 해누리 경로당,,,
2252,대전광역시 서구 갈마노인복지관,대전 서구 갈마동 1328,36.3417661650731,127.375907001641
2253,강원도 고성군 아야진 금강용궁 테마마을,,,
2254,충청남도 홍성군 용봉산자연휴양림 공중화장실,,,
2255,광주광역시 북구 빛고을 국민안전체험관,광주 북구 오치동 5-10,35.1887258828984,126.917688212012
2256,대구광역시 달성군 (가칭)대구예아람학교 및 달성교육지원청,,,
2257,전라북도 고창군 부안면 건강증진센터,전북 고창군 부안면 오산리 313,35.5145872797473,126.669736195624
2258,경상북도 상주시 속리산 시어동 휴양체험단지 주차장(공용화장실),,,
2259,부산광역시 북구 야시고개 행복센터,부산 북구 구포동 1083-3,35.1989287430836,128.995042108691
2260,인천광역시 서구 원당문화체육센터,인천 서구 당하동 1029-9,37.5927596761697,126.695604934983
2261,강원도 철원군 철원군 공공산후조리원 및 의료인숙소,,,
2262,강원도 원주시 원주역사,강원 원주시 봉산동 836-1,37.3429300283656,127.96686598326
2263,서울특별시 마포구 마포구 거점형 공공직장어린이집,서울 마포구 연남동 369-18,37.563659056245,126.9203985981
2264,대구광역시 달성군 장애인 희망드림센터,,,
2265,전라북도 진안군 진안소방서,전북 진안군 진안읍 군상리 79-1,35.7989295254424,127.435375861514
2266,경기도 동두천시 동두천 국민체육센터,,,
2267,부산광역시 사하구 사하구 제2청사,부산 사하구 신평동 646-2,35.0949313632954,128.961615484563
2268,세종특별자치시  (가칭)세종학생안전교육원 신축공사,,,
2269,인천광역시 계양구 작전시장 고객지원센터,,,
2270,충청남도 태안군 서해 해양 문화관 신축공사,,,
2271,전라남도 순천시 전라남도 도로관리사업소 동부지소,전남 순천시 해룡면 호두리 1181-5,34.8914254349065,127.586073531106
2272,부산광역시 기장군 기장 수산물 체험홍보센터,,,
2273,경기도 시흥시 장곡 어울림센터,경기 시흥시 장곡동 344,37.3774720385739,126.787536456272
2274,강원도 인제군 인제군 기린면 국민체육센터,강원 인제군 기린면 서리 3-1,37.9650091651286,128.319030205341
2275,서울특별시 강남구 응봉공원(매봉산) 숲속도서관,,,
2276,서울특별시 중랑구 묵동 장미마을 어르신문화센터,,,
2277,강원도 춘천시 춘천교육지원청 청사이전 신축공사 설계용역,,,
2278,전라남도 장흥군 장평시장 시설현대화사업,,,
2279,인천광역시 미추홀구 숭의2동 행정복지센터 증축,,,
2280,제주특별자치도 제주시 서북방음작은도서관,,,
2281,경상남도 거제시 고현동 공영주차장,경남 거제시 고현동 977-1,34.8906949827961,128.622796455029
2282,서울특별시 양천구 시립청소년음악창작센터,,,
2283,대전광역시 유성구 구즉동 행정복지센터 신축 설계 용역,,,
2284,서울특별시 성동구 지하철 통합관제센터 신축공사 설계용역,,,
2285,제주특별자치도 제주시 국립종자원 제주지원 청사,,,
2286,경기도 화성시 동탄호수유치원,경기 화성시 산척동 732,37.1681223223277,127.113576566096
2287,충청북도 음성군 오감만족 새싹들의 체험교육장,,,
2288,강원도 영월군 한반도습지 생태문화시설,강원 영월군 한반도면 신천리 593-5,37.2305705254387,128.337192136385
2289,충청북도 단양군 매포공동복지목욕탕,,,
2290,강원도 인제군 인제 원통시장 주차장,강원 인제군 북면 원통리 686-13,38.12129971047,128.205963271954
2291,충청남도 보령시 곰내 줌마아제 희망키움센터,충남 보령시 웅천읍 대창리 713-1,36.2340473148918,126.600320985551
2292,제주특별자치도 서귀포시 서귀포시 장애인회관,제주특별자치도 서귀포시 서귀동 783-15,33.2396637216238,126.564642728743
2293,경기도 안산시 노리울경로당,,,
2294,대전광역시 유성구 어린이과학관,대전 유성구 구성동 411-1,36.3754944859871,127.37613709573
2295,전라남도 무안군 남악어린이공원 화장실,,,
2296,전라남도 무안군 성동공원 공중화장실,,,
2297,충청북도 충주시 산척 천지인 문화센터(신축),,,
2298,경기도 남양주시 진영공원 주차건물,,,
2299,경기도 수원시 경기도교육청 남부신청사 건립사업,,,
2300,부산광역시 강서구 명지글로벌 캠퍼스 건립공사,,,
2301,서울특별시 송파구 시립 송파 실버케어센터,,,
2302,충청북도 제천시 용두산 자연송림 이동식화장실 설치사업,,,
2303,전라남도 광양시 한국창의예술고등학교,전남 광양시 마동 328-6,34.9483582788954,127.703007823781
2304,전라북도 순창군 복흥면 공립형 지역아동센터,,,
2305,강원도 인제군 인제군 원통 실내체육관,강원 인제군 북면 원통리 1905,38.1224065196565,128.194916818533
2306,경상북도 영천시 영천시 약용작물산업화지원센터,,,
2307,전라북도 완주군 이서 혁신도시 공공도서관,전북 완주군 이서면 갈산리 691-3,35.8364634760604,127.056051458086
2308,인천광역시 서구 오류왕길동 행정복지센터,인천 서구 마전동 927-4,37.6051127116646,126.661861143271
2309,서울특별시 강동구 천호동 행정복지센터,서울 강동구 천호동 447-17,37.5364985295236,127.133223572592
2310,경기도 가평군 청평호반 문화체육센터,경기 가평군 청평면 청평리 333-13,37.7390999879112,127.424324702723
2311,경상남도 함양군 함양조망공원(하)공중화장실,,,
2312,전라북도 전주시 전주 북부권 복합복지관,,,
2313,부산광역시 강서구 (가칭)부산학생안전체험관,,,
2314,대전광역시 유성구 어은동 도시재생 뉴딜사업 구역 내 소호형주거클러스터,,,
2315,경기도 파주시 파주혜음원지 방문자센터,,,
2316,충청북도 단양군 소선암 치유의 숲 치유센터,,,
2317,충청북도 청주시 (가칭)동남2유치원,,,
2318,충청북도 음성군 설피마을 공중화장실,,,
2319,서울특별시 은평구 (가칭)구립 한울타리어린이집,,,
2320,제주특별자치도 서귀포시 안덕보건지소 증축동,,,
2321,경상남도 하동군 갑정보건진료소,경남 하동군 진교면 월운리 681,35.0684431990521,127.883790660136
2322,경상남도 김해시 김해치매전담 노인요양 주간보호시설,,,
2323,전라남도 나주시 빛그린유치원,전남 나주시 빛가람동 95-2,35.0273695654957,126.791372317213
2324,경상남도 창원시 재료연구소 노후기숙사동 환경개선사업,,,
2325,경상남도 고성군 해양마리나 배후시설,,,
2326,강원도 정선군 정선아리랑시장 주차타워 건립사업,,,
2327,경기도 평택시 (가칭)동삭유치원,,,
2328,제주특별자치도 제주시 제주일도2 행복주택(공공업무시설),,,
2329,경상남도 사천시 삼천포커뮤니티 에코주차장 조성공사,,,
2330,경기도 부천시 부천시 별빛마루도서관 건립공사,,,
2331,광주광역시 광산구 하남3지구 주차전용건축물 2,,,
2332,서울특별시 강서구 공항고등학교,서울 강서구 마곡동 733-3,37.5704610944881,126.81851983357
2333,부산광역시 금정구 금정구 회동동 복합커뮤니티 문화센터,부산 금정구 회동동 200-3,35.2266292550951,129.116467467996
2334,경상남도 창녕군 부곡온천 공중화장실(야외3주차장),,,
2335,인천광역시 강화군 강화온수우체국,인천 강화군 길상면 온수리 544-6,37.6392412940129,126.49160539552
2336,경상북도 포항시 장량동 다목적 재난구호소,경북 포항시 북구 양덕동 655-1,36.0901697454433,129.396135449786
2337,경상북도 울진군 중흥부 경로당,,,
2338,부산광역시 영도구 부산 탁구체육관,부산 영도구 동삼동 1163,35.0788102159516,129.077508783818
2339,충청북도 충주시 충주대소원초중학교,충북 충주시 대소원면 본리 647,36.9878728767557,127.827448349326
2340,충청북도 충주시 충주남한강초등학교,충북 충주시 호암동 1075,36.9550758821428,127.929226448492
2341,경기도 화성시 동탄 목동 이음터,경기 화성시 목동 137-1,37.1895487124705,127.124487765851
2342,충청북도 청주시 오송보건의료행정타운 제2직장어린이집(증축),,,
2343,강원도 원주시 도농교류센터,강원 원주시 귀래면 귀래리 550,37.2193098878706,127.869568147382
2344,경기도 수원시 송원경로당,경기 수원시 장안구 조원동 778-13,37.2966479851267,127.01263750078
2345,경상북도 포항시 포항 장애인재활작업장,경북 포항시 북구 청하면 월포리 622-1,36.2071509033294,129.353260033284
2346,"전라북도 완주군 이서 혁신도시 문화체육센터, 청소년 문화의집",,,
2347,경상북도 경주시 경주경찰서 용강파출소 청사,,,
2348,경상북도 영천시 영천시 농산물 도매시장 시설 현대화 사업,,,
2349,인천광역시 남동구 석촌근린공원 내 다목적체육관,,,
2350,대전광역시 유성구 대전국제전시컨벤션센터,,,
2351,전라북도 전주시 전주 양현초등학교,전북 전주시 덕진구 만성동 1357-4,35.8465863099,127.074326637341
2352,대전광역시 동구 판암파출소 청사 신축공사,,,
2353,충청북도 청주시 청주시 장애인가족지원센터,충북 청주시 상당구 남일면 효촌리 137-1,36.5859765490981,127.507283903234
2354,충청북도 청주시 통합청주시 상당구청사,,,
2355,울산광역시 중구 울산혁신도시 복합혁신센터,,,
2356,경상남도 창원시 교방동 남성경로당,경남 창원시 마산합포구 산호동 57-13,35.2170796940525,128.578033678935
2357,경기도 양주시 양주시 장애인보호작업장,경기 양주시 산북동 333-9,37.8058204963432,127.045475226156
2358,서울특별시 동대문구 용두문화복지센터,서울 동대문구 용두동 29-3,37.5753348560275,127.039152883884
2359,제주특별자치도 제주시 사회복지법인 유진 단기거주시설,,,
2360,울산광역시 남구 울산남부경찰서 무거지구대,울산 남구 무거동 1532-3,35.5506697554479,129.26000964871
2361,인천광역시 서구 검단17호 근린공원 관리사무소,,,
2362,충청남도 공주시 공주형 어린이 생태문화환경 놀이터 내 공중화장실,,,
2363,경기도 파주시 e편한세상 운정 어반프라임,경기 파주시 동패동 346,37.7084109846219,126.723899681522
2364,전라북도 진안군 진안동향면사무소,,,
2365,충청남도 보령시 석서골 노인회관,충남 보령시 신흑동 766-94,36.3199935604426,126.516283545142
2366,울산광역시 울주군 산림교육문화센터,,,
2367,경기도 수원시 지동 행정복지센터 건립공사,,,
2368,전라남도 영광군 법성간이버스정류장 신축공사,,,
2369,전라북도 순창군 월드푸드 사이언스관,,,
2370,강원도 강릉시 사천면 하평리 경로당,강원 강릉시 사천면 사천진리 54-3,37.839795121098,128.871437391324
2371,전라남도 순천시 전남 일자리플랫폼 신축공사,,,
2372,경기도 화성시 화성시 거점형 공공직장어린이집 신축공사 건축설계용역,,,
2373,강원도 삼척시 삼척시 중앙시장 주차타워 건립공사,,,
2374,충청남도 보령시 소미 실내게이트볼장,,,
2375,강원도 원주시 친환경유역 통합관리센터,강원 원주시 문막읍 문막리 744,37.3124029709087,127.823074855882
2376,경상북도 구미시 구미 확장단지 근린공원 9호 화장실,,,
2377,전라남도 무안군 무안군 청계면 도림리 공중화장실,전남 무안군 청계면 도림리 469-3,34.9096085953186,126.430273909197
2378,충청남도 논산시 충청유교문화원,충남 논산시 노성면 병사리 98-6,36.2886292712011,127.099464114103
2379,강원도 원주시 원주소방서,강원 원주시 반곡동 산 16-12,37.3332506981324,127.973175184975
2380,전라북도 김제시 만경보건지소,전북 김제시 만경읍 만경리 485-4,35.8519817550405,126.817411949078
2381,제주특별자치도 제주시 제주시 노인복지회관 다목적동,,,
2382,경기도 김포시 (가칭)걸포3유치원,,,
2383,경상북도 경주시 외동읍 농촌중심지 활성화사업(소통문화센터),,,
2384,전라남도 순천시 순천 유·청소년 다목적수영장,,,
2385,인천광역시 서구 가좌청소년문화의집,인천 서구 가좌동 278-8,37.4879664615769,126.678691778681
2386,부산광역시 해운대구 해운대구 노인복지관 분관,,,
2387,전라북도 부안군 부안 반다비 체육센터,,,
2388,충청북도 보은군 보은군 숲속화장실 신축공사,,,
2389,인천광역시 서구 강남시장 주차장 주차타워,,,
2390,경상북도 안동시 안동경찰서,경북 안동시 당북동 350-4,36.561595275827,128.719899254933
2391,전라남도 함평군 월야 달맞이공원 공중화장실,,,
2392,충청북도 옥천군 군서면 금천리 공중화장실,,,
2393,충청남도 태안군 안면노인복지관,충남 태안군 안면읍 승언리 903-1,36.5256496136679,126.34531604846
2394,충청남도 천안시 천안 남산지구 어르신일자리 복지문화센터,,,
2395,충청북도 옥천군 군서면 금산리(증산리) 공중화장실,,,
2396,강원도 홍천군 도관1리 경로당 신축공사,,,
2397,경기도 양주시 양주경찰서 옥정파출소,경기 양주시 옥정동 953-6,37.8271139453574,127.094304329901
2398,충청남도 서천군 보령해양경찰서 장항파출소,충남 서천군 장항읍 장암리 435,36.0079179727704,126.663646437702
2399,경기도 고양시 (가칭)향동2유치원,,,
2400,강원도 영월군 영월군 김삿갓면 마을회관,강원 영월군 김삿갓면 예밀리 106,37.1417684534746,128.590516263955
2401,경기도 김포시 e편한세상 김포마송 B-6BL 신축공사,,,
2402,서울특별시 양천구 목3동 등나무 공영주차장,,,
2403,전라남도 완도군 완도 군외 근린생활형 체육센터,,,
2404,제주특별자치도 서귀포시 장애인단기거주시설 행복나눔,,,
2405,경기도 광주시 곤지암읍 농촌중심지활성화센터,,,
2406,강원도 홍천군 화상대2리 어은동 마을회관 및 경로당,,,
2407,충청남도 천안시 천안 불당유치원,충남 천안시 서북구 불당동 1573,36.8126148608867,127.101283949539
2408,전라북도 임실군 임실군 노인종합복지관,,,
2409,제주특별자치도 서귀포시 도순마을 경로당,,,
2410,전라남도 완도군 보길면사무소,,,
2411,경상북도 포항시 장기면다목적복지회관,,,
2412,경기도 안산시 방아머리경로당,경기 안산시 단원구 대부북동 1855-64,37.2775244205369,126.567226895238
2413,대전광역시 유성구 봉산어린이공원 공중화장실,대전 유성구 봉산동 216,36.4358614999624,127.38787672697
2414,경기도 화성시 송린중학교,경기 화성시 새솔동 125,37.2768751983235,126.822320904799
2415,경기도 하남시 하남시 위례파출소,경기 하남시 학암동 650,37.4870443511132,127.15656821387
2416,경상남도 거제시 옥포국제시장 공영주차장,경남 거제시 옥포동 530-16,34.8940872220963,128.692159300145
2417,강원도 고성군 죽왕보건지소,강원 고성군 죽왕면 오호리 64-2,38.3254205152056,128.525840600618
2418,강원도 고성군 아야진보건진료소,강원 고성군 토성면 아야진리 39,38.2723758882187,128.555455354075
2419,경상남도 사천시 신송창조적마을만들기(공용화장실),,,
2420,전라북도 임실군 임실 청소년 문화의 집 건립사업,,,
2421,전라북도 익산시 익산경찰서 함열파출소,,,
2422,강원도 삼척시 성내지구 청년스타트업 공간건립사업,,,
2423,인천광역시 강화군 강화군 노인문화센터,인천 강화군 길상면 온수리 470-39,37.6422846217772,126.487319447068
2424,강원도 정선군 정선군 목재문화체험장 조성사업,,,
2425,울산광역시 동구 해양수산복합공간 조성사업,,,
2426,"충청남도 공주시 옥룡 17, 18통 경로당",,,
2427,부산광역시 북구 백양체육공원 공중화장실,부산 북구 만덕동 843,35.2061686769009,129.035571951396
2428,충청남도 부여군 부여 송국리유적 정비 중 화장실,,,
2429,경기도 성남시 정자1동 복합청사,,,
2430,전라남도 순천시 순천시립예술단 연습동 건립공사,,,
2431,강원도 강릉시 왕산리 공중화장실,,,
2432,전라북도 군산시 (가칭) 군산 미성유치원 신축공사,,,
2433,경상남도 창녕군 창녕 대합면 농촌중심지활성화사업 공용화장실,,,
2434,경기도 의정부시 의정부 희망하나 어린이집,,,
2435,제주특별자치도 서귀포시 권역형 장애인 주간보호시설 신축공사,,,
2436,강원도 홍천군 남면 공공도서관,강원 홍천군 남면 양덕원리 350-10,37.6176893736927,127.767407448898
2437,경기도 용인시 성복근린공원54호 화장실동,,,
2438,서울특별시 성북구 길음1재정비촉진구역내 사회복지시설,,,
2439,제주특별자치도 제주시 제주시 연동 1519-2번지 공영주차장,,,
2440,인천광역시 중구 왕산해수욕장 공중화장실,,,
2441,경기도 동두천시 승지골 경로당 신축,,,
2442,인천광역시 서구 인천 현무체육공원 국궁장,,,
2443,강원도 영월군 영흥 14리 경로당,,,
2444,서울특별시 노원구 공릉2동 어린이집,서울 노원구 공릉2동 240-271,37.6202419773914,127.082740296241
2445,경상북도 청송군 진보면 고현리 경로당,경북 청송군 진보면 고현리 124-9,36.5218635522539,129.108195598668
2446,경상북도 청송군 파천면 신기2리 경로당,,,
2447,강원도 양구군 국립농산물품질관리원 강원지원 양구사무소,,,
2448,전라남도 함평군 손불지구 어촌뉴딜300사업,,,
2449,제주특별자치도 서귀포시 법환 경로당,제주특별자치도 서귀포시 법환동 1073-1,33.2398371385256,126.509146517452
2450,전라북도 고창군 상하체육테마공원 내 공중화장실,,,
2451,경기도 남양주시 남양주 금곡 행복주택,경기 남양주시 금곡동 687-7,37.6329760534329,127.201789668923
2452,제주특별자치도 제주시 제주시 외도1동 559-1 공영주차장,,,
2453,충청북도 충주시 신니면 농촌중심지 활성화사업(게이트볼장),,,
2454,경상남도 합천군 가회 하목곡 경로당,,,
2455,충청북도 단양군 단성면 상방리 경로회관,,,
2456,인천광역시 강화군 강화남부지역 다목적강당 및 놀이시설 건립사업,,,
2457,경상남도 함양군 유림 다목적체육관 건립사업,,,
2458,인천광역시 강화군 황청보건진료소 신축공사,,,
2459,대전광역시 유성구 청양군 로컬푸드생산자 직판장,,,
2460,충청남도 당진시 송악건강생활지원센터,충남 당진시 송악읍 복운리 1628-1,36.9386276526898,126.778711530251
2461,충청북도 충주시 충주 건강복지타운,충북 충주시 지현동 14,36.9711343642891,127.929540785889
2462,강원도 홍천군 내면 창촌2리 경로당,,,
2463,경기도 포천시 포천시 소흘읍 직동2리 경로당 신축공사,,,
2464,경기도 포천시 포천시 창수면 추동1리 경로당 신축공사,,,
2465,충청남도 아산시 월랑수변공원 공중화장실,,,
2466,충청남도 아산시 인주중학교,충남 아산시 인주면 관암리 418-1,36.8608912655751,126.880086682867
2467,경상남도 창원시 감계복지센터,경남 창원시 의창구 북면 감계리 237-3,35.3004354227547,128.595198535758
2468,경기도 고양시 일산교 산책로 화장실,,,
2469,경기도 파주시 파주등기소(시법원),,,
2470,인천광역시 서구 인천 서부경찰서 가정지구대,,,
2471,전라북도 부안군 부안 고마지구 농촌테마공원 조성사업,,,
2472,전라남도 여수시 여수시 장애인종합복지관,전남 여수시 미평동 183-1,34.7736758273058,127.714661254584
2473,충청남도 부여군 부여군 노인회관,충남 부여군 규암면 외리 111-3,36.2703960819728,126.886354119763
2474,경상북도 구미시 구미경찰서 봉곡파출소,,,
2475,울산광역시 울주군 울주군보훈회관,울산 울주군 청량읍 율리 1490,35.5247140927101,129.24296105499
2476,강원도 원주시 원주의료원 부설주차장,강원 원주시 개운동 450,37.3324890437823,127.9492602782
2477,경기도 안양시 석수3동 행정복지센터,경기 안양시 만안구 석수동 279-1,37.4138704877598,126.90936203333
2478,강원도 삼척시 미로어린이집,강원 삼척시 미로면 하거노리 714-194,37.4190892318599,129.113136002281
2479,강원도 강릉시 관음2리 경로당,강원 강릉시 성산면 관음리 150-1,37.7396716710688,128.838575246667
2480,경상남도 하동군 동정호 지방정원 안내실 및 화장실,,,
2481,충청북도 보은군 보은읍 장신2리 경로당,충북 보은군 보은읍 장신리 115-6,36.4843783794913,127.70434056736
2482,세종특별자치시  국토연구원 공동 직장어린이집,,,
2483,경상남도 통영시 통영 두억보건진료소,경남 통영시 한산면 두억리 247,34.7850013031824,128.479606578848
2484,경기도 안양시 근린생활시설(지역자치센터),,,
2485,부산광역시 강서구 창원해양경찰서 대항출장소,부산 강서구 대항동 236,35.0115534791313,128.827344196721
2486,경기도 양주시 양주옥정우체국 건립공사,,,
2487,강원도 태백시 태백 농업기술센터 청사,,,
2488,대전광역시 중구 대사동 복합행정복지센터 신축공사,,,
2489,서울특별시 동작구 구립 은하어린이집,서울 동작구 신대방동 366-27,37.4958379784061,126.925077766108
2490,서울특별시 광진구 구의1동 주민센터,서울 광진구 구의동 237-6,37.5424573720103,127.085701714441
2491,경기도 안산시 달산경로당,경기 안산시 단원구 선부동 1113-9,37.3467291927217,126.814286312952
2492,강원도 삼척시 삼척 근덕 낭만센터 신축공사,,,
2493,경상남도 진주시 미천면 경로당,경남 진주시 미천면 효자리 581-2,35.3306380400435,128.068562538799
2494,서울특별시 강남구 광역소공인특화지원센터,,,
2495,경기도 화성시 새솔유치원,경기 화성시 새솔동 156,37.2728945087063,126.828998229687
2496,경기도 안양시 공영주차장(안양명학),경기 안양시 만안구 안양동 201-23,37.3858729542991,126.936259041554
2497,전라북도 부안군 부안 국민체육센터,전북 부안군 부안읍 동중리 99-8,35.7309483838561,126.737137520947
2498,전라남도 해남군 해남 작은영화관 및 청소년문화센터 신축사업,,,
2499,경상남도 진주시 금호지 생태공원 공중화장실,,,
2500,경상북도 구미시 상모사곡동 행정복지센터 신축공사,,,
2501,전라북도 부안군 녹두꽃 문화 복지센터,전북 부안군 백산면 오곡리 697-5,35.7044995318585,126.787835921976
2502,서울특별시 영등포구 나라키움 영등포복합청사,,,
2503,경상북도 경산시 경산 명품대추 테마공원 대추홍보관,,,
2504,제주특별자치도 서귀포시 생태관광지원센터,제주특별자치도 제주시 한경면 청수리 113-2,33.3020617374248,126.258942923484
2505,대구광역시 서구 원대동 근린생활시설,,,
2506,제주특별자치도 제주시 제주시 도남동 574-3번지 공영주차장,,,
2507,서울특별시 금천구 우리동네 소규모 체육관,,,
2508,강원도 원주시 (가칭)기업초등학교2 신축공사,,,
2509,인천광역시 중구 왕산경로당,인천 중구 을왕동 959-1,37.4614918095379,126.369900200461
2510,경상북도 청송군 덕천1리 마을단위종합개발사업 공중화장실,,,
2511,충청남도 당진시 당진 손병희선생 안채,,,
2512,울산광역시 울주군 울주(함양)휴게소,,,
2513,울산광역시 울주군 울주(울산)휴게소,울산 울주군 삼동면 보은리 산 213-15,35.5106073935874,129.130523542516
2514,경상북도 김천시 지례어린이집,경북 김천시 지례면 교리 563-1,35.9853768132275,128.028133465565
2515,경상남도 김해시 통계청 김해사무소,경남 김해시 대청동 298-10,35.1899462410373,128.79955774353
2516,경기도 오산시 초평동 행정복지센터,경기 오산시 벌음동 243-1,37.1397508741738,127.040785041969
2517,인천광역시 강화군 인천 강화소방서,인천 강화군 강화읍 남산리 200-1,37.7396907373939,126.487541608927
2518,울산광역시 울주군 상북 삽재 경로당,울산 울주군 상북면 덕현리 556-1,35.6318611032528,129.055345616364
2519,전라북도 순창군 국립농산물품질관리원 전북지원 순창사무소,전북 순창군 순창읍 남계리 278,35.3785615446276,127.144589311385
2520,전라북도 전주시 전주완산경찰서 삼천지구대,전북 전주시 완산구 삼천동1가 177-5,35.7998409249766,127.121205762543
2521,경상북도 경주시 경주시 지방정원 조성사업 가든센터,,,
2522,"제주특별자치도 제주시 제주시 한림리 1198-3, 4번지 공영주차장",,,
2523,경기도 화성시 (가칭)동탄 16유치원,,,
2524,경기도 김포시 통진읍 행정복합청사,경기 김포시 월곶면 군하리 188-11,37.7151521400709,126.552900832402
2525,경기도 안산시 (가칭)안산1중학교,,,
2526,경상남도 창원시 북면지역 공공도서관,,,
2527,경기도 용인시 (가칭)남사고등학교 및 복합화시설,,,
2528,전라북도 장수군 장수군 대덕마을 창조적마을만들기사업,,,
2529,경상북도 포항시 포항시 농업인교육복지관,경북 포항시 북구 흥해읍 성곡리 1432,36.0829552177671,129.338603111306
2530,충청북도 청주시 청주지식산업센터,충북 청주시 청원구 오창읍 양청리 810-13,36.7125506099498,127.438359941335
2531,경상남도 사천시 수산기술사업소,,,
2532,충청북도 제천시 제천 청소년 수련관,충북 제천시 송학면 도화리 967-3,37.1895610171962,128.205183823333
2533,강원도 양구군 DMZ 친환경 경제순환센터,,,
2534,경기도 남양주시 남양주시 청년창업복합단지 조성사업,,,
2535,경기도 용인시 용인도시계획시설(체육공원 63호)내 공중화장실,,,
2536,서울특별시 광진구 자양문화체육센터,서울 광진구 자양동 594,37.5293842784142,127.077529458568
2537,강원도 원주시 원주얼 교육관,강원 원주시 행구동 346,37.3573046334709,128.013442016936
2538,전라남도 완도군 완도군 다목적 실내체육관,전남 완도군 금당면 육산리 201,34.4409613160909,127.060054938063
2539,경상북도 문경시 영순면 분회경로당,,,
2540,인천광역시 남동구 남동경찰서 구월지구대,인천 남동구 구월동 1121-13,37.449846366218,126.695428232272
2541,경기도 평택시 평택새빛초등학교,경기 평택시 칠원동 588,37.0247238616011,127.105076643697
2542,서울특별시 양천구 구립 해맞이 어린이집,서울 양천구 신월동 953-6,37.5209350834927,126.833920815547
2543,울산광역시 북구 공공산후조리원,울산 북구 호계동 1021-1,35.6315548389719,129.364985504253
2544,제주특별자치도 제주시 와산리 마을복지회관,,,
2545,경상북도 영주시 영주시 농어촌 놀이터,,,
2546,경상북도 의성군 비안면 이두2리 경로당,경북 의성군 비안면 이두리 230-1,36.3378058793641,128.4946048559
2547,경상북도 의성군 옥산면 구성1리 경로당,경북 의성군 옥산면 구성리 444-5,36.3931561199019,128.809596289507
2548,경상북도 영양군 서부3리 경로당,,,
2549,서울특별시 관악구 남현소공원 지하주차장,서울 관악구 남현동 1063-1,37.4756934610787,126.979277387828
2550,제주특별자치도 제주시 제주시 일도2동 82-8 공영주차장,,,
2551,경상남도 의령군 화정면 상정리 공중화장실,,,
2552,서울특별시 영등포구 신길14구역 내 지구대청사 신축공사,,,
2553,전라남도 영광군 법성뉴타운 공용주차장 화장실,,,
2554,경기도 이천시 이천시 차량등록사업소,경기 이천시 중리동 382,37.2735942987028,127.433756216889
2555,경기도 이천시 이천시 차량등록사업소,경기 이천시 고담동 382,37.2474485082284,127.460385685162
2556,경기도 이천시 이천시 차량등록사업소,경기 이천시 단월동 382,37.2279189078082,127.447467598351
2557,경기도 이천시 이천시 차량등록사업소,경기 이천시 율현동 382,37.259791278007,127.442322998729
2558,경기도 이천시 이천시 차량등록사업소,경기 이천시 장록동 382,37.259665729253,127.456690398234
2559,경기도 이천시 이천시 차량등록사업소,경기 이천시 증일동 382,37.2509865225716,127.430270027188
2560,경기도 남양주시 의정부지방검찰청 남양주지청 신축 설계용역,,,
2561,경상남도 양산시 강서유치원 및 양산도서관,,,
2562,전라남도 여수시 다도해해상국립공원 금오도분소,전남 여수시 남면 유송리 155-1,34.5309239604086,127.765801719949
2563,전라남도 완도군 완도소방서 신축 기본 및 실시설계 용역,,,
2564,전라남도 순천시 순천팔마국민체육센터,전남 순천시 연향동 225-2,34.9408900151997,127.521486988814
2565,강원도 홍천군 홍천군 치매안심센터,강원 홍천군 홍천읍 희망리 350,37.690008305957,127.87677864289
2566,인천광역시 부평구 부평고교주변 주민공동이용시설(해바라기마을),,,
2567,경상북도 문경시 농암면 농업인상담소,경북 문경시 농암면 농암리 217-3,36.6007259991291,128.003639764906
2568,서울특별시 중랑구 중랑구 새우개하나어린이집,서울 중랑구 신내동 283-1,37.6179902427176,127.101217596797
2569,경기도 부천시 부천 시립 역곡 도서관,경기 부천시 역곡동 산 35-11,37.4882278303367,126.803407463805
2570,전라남도 순천시 수출형 기계부품가공 공장,,,
2571,경상북도 영덕군 영덕군 병곡면 스포츠센터,,,
2572,충청남도 계룡시 계룡 향적산 치유의 숲(치유센터),,,
2573,전라북도 순창군 섬진강문화예술 다님길(섬진강미술촌),,,
2574,경상남도 함양군 내동마을 공동화장실,,,
2575,경상남도 하동군 화개보건지소,경남 하동군 화개면 탑리 546-2,35.1939185698759,127.627862207919
2576,울산광역시 남구 수동경로당,,,
2577,강원도 홍천군 수타사지구 상가 앞 주차장 화장실,,,
2578,전라북도 익산시 동부건강생활지원센터,전북 익산시 금마면 서고도리 654,35.993709960672,127.050188391891
2579,강원도 홍천군 남노일리 경로당,,,
2580,경상남도 거제시 양정초등학교,경남 거제시 양정동 90-2,34.8716677078727,128.651141234589
2581,인천광역시 연수구 (가칭)송도5유치원,,,
2582,경기도 시흥시 (가칭)장현4초등학교,,,
2583,경상남도 남해군 남해 보물섬고등학교,,,
2584,강원도 인제군 인제군 들꽃마을 방문자쉼터(공중화장실),,,
2585,강원도 인제군 인제라이딩센터,,,
2586,경상북도 울진군 흥부생활체육공원 국궁장,,,
2587,인천광역시 부평구 부개2동 하나어린이집,인천 부평구 부개동 134-9,37.4939184145157,126.736262368895
2588,충청남도 당진시 시민봉사지원센터 및 장애인회관,,,
2589,경기도 성남시 성남시 의료원,경기 성남시 수정구 태평동 3309,37.4447664223939,127.139210331418
2590,전라북도 전주시 가칭) 전주 양현유치원 신축공사,,,
2591,경상남도 밀양시 밀양문화원,경남 밀양시 삼문동 184-11,35.4868401667694,128.755108984836
2592,제주특별자치도 제주시 제주시 중앙로상점가 주차환경개선사업,,,
2593,경상북도 영양군 화매권역 단위종합정비사업 공중화장실,,,
2594,인천광역시 동구 인천시동구 선거관리위원회 청사,,,
2595,경상북도 영천시 대창분회 경로당,,,
2596,서울특별시 동작구 국공립 윤슬어린이집 및 실내놀이터,,,
2597,충청남도 보령시 보령해양경찰서,충남 보령시 명천동 산 48-5,36.334407392248,126.60630921508
2598,강원도 삼척시 용화관광지 지역특산물 판매장,,,
2599,강원도 원주시 박건호공원 공중화장실,,,
2600,강원도 원주시 바우골공원 공중화장실,,,
2601,제주특별자치도 제주시 애월읍 수산리 경로당,제주특별자치도 제주시 애월읍 수산리 462-1,33.4669134321654,126.393364885024
2602,강원도 인제군 인제야구장 부대시설,,,
2603,서울특별시 강서구 방신전통시장 고객지원센터,서울 강서구 방화동 567-35,37.5715321025277,126.812181002456
2604,서울특별시 강서구 화곡3동 구립 아이나무 어린이집,서울 강서구 화곡동 1042-5,37.5414085792198,126.833582462675
2605,서울특별시 강서구 화곡본동 구립 하늘마음 어린이집,서울 강서구 화곡동 56-587,37.5392508440892,126.851542043576
2606,세종특별자치시  조치원역 일원 뉴딜사업 생활문화거점시설,,,
2607,경기도 포천시 클라우드 시네마,,,
2608,강원도 인제군 소양호 빙어체험마을 조성사업 기본계획 및 실시설계용역,,,
2609,서울특별시 마포구 아현시장 고객지원센터,,,
2610,경상북도 포항시 포스코휴먼스 사무동(증축),,,
2611,서울특별시 종로구 국립현대미술관 서울,서울 종로구 소격동 165-10,37.5786345033144,126.980554525137
2612,전라북도 고창군 고창 자연마당 공중화장실,,,
2613,경기도 고양시 (가칭) 삼송2고등학교,,,
2614,충청북도 청주시 흥덕경찰서 봉명지구대,충북 청주시 흥덕구 봉명동 2296-6,36.6580355118285,127.456371204943
2615,경상북도 청도군 국립농산물품질관리원 청도사무소 청사,,,
2616,경기도 하남시 (가칭)위례1초등학교,,,
2617,경상북도 청송군 청송군 안덕면 명당리 공중화장실,,,
2618,경상북도 청송군 현서면 농촌중심지활성화사업 내 공중화장실,,,
2619,경상북도 청송군 백석탄골부리권역 단위종합개발사업 공중화장실,,,
2620,경상북도 군위군 군위경찰서 효령파출소,경북 군위군 효령면 중구리 194-2,36.1560756214441,128.587097440782
2621,경기도 수원시 세류3동 분회경로당,경기 수원시 권선구 세류동,37.262117386159,127.008053643212
2622,경기도 수원시 세류3동 분회경로당,경기 수원시 권선구 세류1동,37.2621966842977,127.007958955864
2623,경기도 수원시 세류3동 분회경로당,경기 수원시 권선구 세류2동,37.2533515935548,127.013048456235
2624,경기도 수원시 세류3동 분회경로당,경기 수원시 권선구 세류3동,37.2590571183931,127.011926665429
2625,강원도 동해시 동해시 U-care 센터,강원 동해시 단봉동 2,37.480605084255,129.124646656724
2626,서울특별시 양천구 목동깨비시장 공동주차장 및 공유센터,,,
2627,충청북도 충주시 국립충주기상과학관,충북 충주시 연수동 산 60-1,36.9854388406274,127.947445966383
2628,경기도 부천시 법원 앞 공영 주차장 고도화사업,,,
2629,경기도 의정부시 의정부미술도서관,경기 의정부시 민락동 855,37.744383901563,127.106782927496
2630,경기도 안양시 관양1동 주차타워,경기 안양시 동안구 관양동 1591,37.3922851722217,126.956528293645
2631,경기도 양평군 양서군립어린이집 및 육아종합지원센터 복합시설,,,
2632,인천광역시 연수구 인천 송도소방서 국제119안전센터,인천 연수구 송도동 313-9,37.4103120473802,126.628720076916
2633,충청북도 진천군 생거진천 게이트볼장,,,
2634,경기도 의정부시 신곡2동 신촌경로당,경기 의정부시 신곡동 537-41,37.7453030990768,127.06493590546
2635,경기도 연천군 북부 야생동물병원(보전학습장),,,
2636,광주광역시 북구 국립광주과학관 어린이 과학체험관,,,
2637,서울특별시 영등포구 이룸센터,서울 영등포구 여의도동 17-13,37.5268745021723,126.917884353782
2638,강원도 홍천군 홍천군 장애인체육센터,강원 홍천군 홍천읍 태학리 308-1,37.7083339578417,127.90863252
2639,경기도 화성시 (가칭)봉담2-2중학교,,,
2640,부산광역시 부산진구 행복문화센터(개금3동사),,,
2641,세종특별자치시  (가칭)나성유치원,,,
2642,경기도 고양시 선유동 게이트볼장,,,
2643,부산광역시 동래구 동래구 신청사 건립공사,,,
2644,광주광역시 광산구 1913송정역시장 주차타워,광주 광산구 송정동 833-8,35.1396654093522,126.793771186047
2645,전라북도 남원시 남원어린이청소년도서관,전북 남원시 도통동 554-2,35.4202408897802,127.399775329171
2646,전라북도 남원시 남원어린이청소년도서관,전북 남원시 식정동 554-2,35.4464714442756,127.430179918668
2647,대전광역시 동구 가양지구대 청사 신축공사,,,
2648,대전광역시 중구 태평시장 주차전용건축물,,,
2649,충청남도 태안군 태안 종합실내체육관 건립공사,,,
2650,인천광역시 부평구 동암마을 주민공동이용시설,인천 부평구 십정동 479-19,37.4725406331521,126.703908360306
2651,인천광역시 부평구 인천 삼산경찰서 부개파출소,인천 부평구 부개동 501-10,37.4976979294626,126.739707355429
2652,충청남도 보령시 보령스포츠파크,충남 보령시 신흑동 산 178,36.3188424917624,126.520085188149
2653,경기도 평택시 (가칭)고덕2유치원,,,
2654,강원도 양양군 양양군 노인회관,강원 양양군 양양읍 남문리 48-20,38.0752786126985,128.624416308849
2655,경기도 과천시 과천 중앙동 다목적센터 신축공사,,,
2656,경기도 부천시 상동시장 공영주차장 화장실,,,
2657,경상남도 김해시 서부장애인복지센터,경남 김해시 대청동 298-9,35.1903020052915,128.799384014675
2658,경상북도 포항시 동북지방통계청 포항사무소 청사,,,
2659,경상남도 진주시 상봉동 행정복지센터,경남 진주시 상봉동 1020-13,35.1996153427031,128.074845952115
2660,제주특별자치도 서귀포시 하천리 마을회관 재건축 공사 실시설계용역,,,
2661,제주특별자치도 서귀포시 고성리 경로당,제주특별자치도 서귀포시 성산읍 고성리 1040-1,33.4446861882903,126.911375060164
2662,경상남도 진주시 진주충무공동 우체국,경남 진주시 충무공동 277-1,35.1748178704099,128.149562506209
2663,제주특별자치도 서귀포시 시흥리 올레1코스 공중화장실,,,
2664,광주광역시 동구 일자리이모작 평생학습복합센터,,,
2665,강원도 인제군 인제군 사회적경제지원센터,강원 인제군 북면 원통리 473-7,38.1263166929086,128.213443435075
2666,울산광역시 남구 울산광역시 남구 차오름센터(청소년수련관),,,
2667,대구광역시 달성군 국민건강보험공단 달성지사,대구 달성군 화원읍 천내리 38-5,35.8047955872047,128.500508238297
2668,전라북도 부안군 위도 치유의숲,,,
2669,전라남도 화순군 화순 수산식품산업거점단지,,,
2670,전라남도 함평군 신광노인복지센터,전남 함평군 신광면 백운리 376-2,35.1527514237939,126.496265183848
2671,경상북도 봉화군 봉화군 선거관리위원회 청사,,,
2672,경기도 화성시 다원 초등학교,경기 화성시 영천동 651-1381,37.2126025757328,127.110960901147
2673,인천광역시 연수구 송도4동 행정복지센터,인천 연수구 송도동 3-33,37.3910663732425,126.652078958636
2674,경기도 광주시 (가칭)송정초등학교,,,
2675,전라북도 전주시 한바탕 국민체육센터,전북 전주시 완산구 평화동2가 321-1,35.7891153395174,127.128077174201
2676,경상남도 양산시 양산 다방동 화물자동차 공영차고지 조성사업,,,
2677,세종특별자치시  (가칭)나성초등학교,,,
2678,경기도 김포시 김포시 마산도서관,경기 김포시 마산동 634-1,37.64144551832,126.640183321024
2679,경기도 화성시 (가칭)동탄28초등학교 신축공사,,,
2680,전라남도 영광군 영광군 장애인복지타운,전남 영광군 영광읍 녹사리 3,35.2697284534693,126.509007399469
2681,전라북도 순창군 풍산다목적구장,,,
2682,부산광역시 강서구 부산상공회의소 공동 직장어린이집,,,
2683,경상남도 창원시 이명경로당,경남 창원시 마산합포구 진전면 이명리 626-3,35.0923708130527,128.446727158409
2684,경상남도 창원시 연동경로당,경남 창원시 마산합포구 진북면 망곡리 70-4,35.1376532484545,128.486801794871
2685,경상남도 창원시 회봉경로당,,,
2686,세종특별자치시  (가칭)나성중학교,,,
2687,서울특별시 도봉구 도봉2동 청소년 문화의집,서울 노원구 상계동 966-15,37.6711430463691,127.056668630811
2688,강원도 화천군 화천군 문화복지센터,강원 화천군 화천읍 중리 212-7,38.108132908354,127.71197079481
2689,경기도 용인시 용담호수 둘레길 화장실B(자동차화장실),,,
2690,경기도 용인시 용담호수 둘레길 화장실A(화장실 및 관리사),,,
2691,경기도 의정부시 경기도청 북부청사 앞 경관광장 지하주차장,,,
2692,경상북도 포항시 환여동행정복지센터,경북 포항시 북구 환호동 378-6,36.0683048851449,129.391821035956
2693,제주특별자치도 서귀포시 서귀포소방서 동홍119센터,제주특별자치도 서귀포시 서홍동 478-1,33.2492333321485,126.553344269172
2694,울산광역시 울주군 천상도서관 및 공영주차장,,,
2695,경상남도 산청군 신촌마을 창조적마을 만들기 화장실,,,
2696,경상북도 안동시 안동시 다목적체육관,,,
2697,제주특별자치도 제주시 삼양 다목적 생활문화센터,제주특별자치도 제주시 삼양일동 1660-3,33.5240004545265,126.58832314414
2698,인천광역시 서구 인천시립 마전도서관,인천 서구 마전동 1116-1,37.5942328681664,126.663476937549
2699,경기도 남양주시 국민건강보험공단 남양주가평지사,경기 남양주시 다산동 261-3,37.596099652609,127.174845711349
2700,대구광역시 달성군 현풍 북카페 두런두런,,,
2701,인천광역시 남동구 (가칭)청라6유치원,,,
2702,제주특별자치도 서귀포시 성읍 119 지역센터,제주특별자치도 서귀포시 표선면 성읍리 1382,33.3833250168282,126.794416462762
2703,부산광역시 강서구 부전-마산 복선전철 민간투자시설사업 BM02 정거장,,,
2704,경상남도 김해시 부전 - 마산 복선전철 민간투자시설사업 장유역,,,
2705,전라북도 전주시 전주시립도서관,전북 전주시 완산구 중화산동2가 산 66,35.8202431647609,127.123665727542
2706,세종특별자치시  세종시보건환경연구원,세종특별자치시 조치원읍 봉산리 59,36.6026597800966,127.283270236991
2707,인천광역시 강화군 월곳리 대묘동 경로당 신축공사,,,
2708,인천광역시 남동구 대구월 경로당,인천 남동구 구월동 1236-7,37.4498566479331,126.717941311139
2709,경기도 연천군 연천군 국공립어린이집,경기 연천군 백학면 두일리 477-3,38.0283325352753,126.910264924634
2710,전라남도 구례군 봉동리 4구 경로당,,,
2711,전라북도 완주군 지역재생형 운주농촌유학센터,,,
2712,전라남도 영광군 스포티움 축구장 공중화장실,,,
2713,전라남도 영광군 군남면 보건지소,전남 영광군 군남면 백양리 549-20,35.240023373878,126.449178854022
2714,경기도 고양시 (가칭)향동고등학교,,,
2715,강원도 횡성군 횡성읍사무소(본관동),,,
2716,경기도 가평군 가평 청사복합 따복하우스,,,
2717,인천광역시 서구 서구 경서3구역 도시개발사업 공영주차장(주차장9),,,
2718,인천광역시 서구 서구 경서3구역 도시개발사업 공영주차장(주차장6),,,
2719,인천광역시 서구 서구 경서3구역 도시개발사업 공영주차장(주차장5),,,
2720,경기도 용인시 용인자연휴양림 나눔숲복지센터,,,
2721,경상남도 창원시 마산소방서 소방정대,경남 창원시 마산합포구 월영동 720-1,35.1757895837101,128.569263959129
2722,서울특별시 성동구 옥수 푸른숲 어린이집,,,
2723,충청북도 청주시 영운국민체육센터,충북 청주시 상당구 영운동 179-1,36.6185205926342,127.49481059697
2724,세종특별자치시  한솔동 복합커뮤니티센터(정음관),세종특별자치시 한솔동 961,36.4774843241497,127.255823216416
2725,세종특별자치시  한솔동 복합커뮤니티센터(정음관),세종특별자치시 가람동 961,36.4658446682138,127.247186798122
2726,울산광역시 울주군 온양 솔밭경로당,울산 울주군 온양읍 대안리 245-3,35.4068541586636,129.289703076837
2727,전라남도 해남군 해남군 보훈회관 신축공사,,,
2728,충청남도 공주시 공주우금치전적 방문자센터 건립공사,,,
2729,경기도 구리시 구리경찰서 갈매파출소,경기 구리시 갈매동 654,37.6295905194979,127.12033509768
2730,대전광역시 중구 대전중부경찰서 유등지구대 청사 신축공사,,,
2731,울산광역시 울주군 남부 청소년수련관 건립공사,,,
2732,충청남도 천안시 오룡 주차빌딩 및 공원조성 공사,,,
2733,강원도 고성군 죽왕보건지소,강원 고성군 죽왕면 오호리 64-2,38.3254205152056,128.525840600618
2734,강원도 인제군 북면 복합커뮤니티센터 건립공사,,,
2735,경기도 포천시 포천청년여행창고,,,
2736,서울특별시 구로구 개봉2동 주민센터,서울 구로구 개봉동 403-29,37.4925736648898,126.855610653362
2737,강원도 원주시 국민건강보험공단 원주횡성지사,강원 원주시 무실동 1733-9,37.3378383748968,127.929102366621
2738,경상남도 하동군 하동군 노인·장애인 종합복지관,,,
2739,제주특별자치도 제주시 제주소방서 아라119센터,제주특별자치도 제주시 영평동 2072,33.4679101007016,126.565755590784
2740,부산광역시 기장군 정관노인복지관,부산 기장군 정관읍 용수리 1314-2,35.3248149789007,129.178877069112
2741,제주특별자치도 제주시 한림2리 새마을회 경로당,,,
2742,경상북도 안동시 안동시 치매안심센터,경북 안동시 용상동 1517-263,36.5500193830369,128.758937192006
2743,인천광역시 계양구 안산 경로당,인천 계양구 계산동 911-34,37.5450492644734,126.731647369093
2744,경기도 남양주시 (가칭)진건2초등학교,,,
2745,서울특별시 송파구 역도경기장,,,
2746,경기도 수원시 수원시 환경성질환 아토피센터,경기 수원시 장안구 조원동 9-2,37.3073073275388,127.021942948321
2747,충청남도 청양군 청양 다목적실내체육관,충남 청양군 청양읍 송방리 364-4,36.4529324376374,126.792551429941
2748,충청북도 제천시 화산동 행정복지센터,충북 제천시 화산동 638,37.1273738348336,128.215005485902
2749,충청북도 제천시 화산동 행정복지센터,충북 제천시 강제동 638,37.1177443482408,128.190249298839
2750,충청북도 제천시 화산동 행정복지센터,충북 제천시 산곡동 638,37.0996279248087,128.186765362261
2751,경기도 이천시 이천보건소 남부치매안심센터,,,
2752,서울특별시 도봉구 도봉동 다목적체육센터,서울 도봉구 도봉동 652,37.6813864661477,127.050290945582
2753,경기도 포천시 포천 신북파출소,,,
2754,강원도 철원군 철원 어린이 실내 상상놀이터,강원 철원군 동송읍 이평리 662-1,38.2117028467294,127.222077184116
2755,경기도 양평군 (가칭)양근 교직원 공동사택,,,
2756,인천광역시 미추홀구 수산기술지원센터 청사,,,
2757,울산광역시 울주군 상북 양등경로당,울산 울주군 상북면 양등리 310,35.6019742013595,129.072527763889
2758,울산광역시 울주군 두동 곽성경로당,,,
2759,전라남도 나주시 나주시 일자리종합지원센터,전남 나주시 이창동 506-13,34.9964486787882,126.710051613829
2760,전라북도 임실군 전라북도 국제양궁장,전북 임실군 오수면 금암리 463-10,35.5388335617585,127.337987588248
2761,전라남도 장성군 장성군 공공실버주택,전남 장성군 장성읍 영천리 1475-5,35.3041663004952,126.782316595603
2762,전라북도 남원시 김주열열사 생가 주차장 화장실 신축,,,
2763,전라남도 해남군 해남군 치매안심센터,전남 해남군 해남읍 해리 186,34.5704017845173,126.611974152619
2764,경상남도 창원시 가곡경로당,경남 창원시 의창구 동읍 본포리 456,35.3590069498599,128.644403999673
2765,경상북도 상주시 은척면 봉중리 체육공원 공중화장실,,,
2766,경상남도 양산시 쌍벽루아트홀,경남 양산시 신기동 652-15,35.3501891919172,129.033983426143
2767,전라북도 김제시 지평선산업단지 비즈니스센터,,,
2768,경기도 안양시 해누리 어린이집 신축공사,,,
2769,경상남도 산청군 산청 남부 도서관,,,
2770,서울특별시 영등포구 신길4동 공공복합청사,,,
2771,경기도 가평군 음악역 1939,경기 가평군 가평읍 대곡리 174-3,37.8242333325623,127.513086959895
2772,제주특별자치도 제주시 제주문학관,제주특별자치도 제주시 도남동 1218-3,33.4814194364278,126.518013782473
2773,경상남도 창원시 창원보건소 치매안심센터,경남 창원시 마산합포구 해운동 61-1,35.182516643529,128.56314551836
2774,"서울특별시 강남구 삼성2파출소, 기동순찰대 통합청사",,,
2775,강원도 원주시 무실빛 유치원,강원 원주시 무실동 694-14,37.3242820922936,127.923545476549
2776,경기도 수원시 법무부기록관 신축설계 용역,,,
2777,서울특별시 도봉구 동부간선도로 지하차도 관리사무소 및 도봉문화센터,,,
2778,경상북도 김천시 김천평화 행복주택(복합문화센터) 건설공사,,,
2779,제주특별자치도 서귀포시 제주 음악창작소,제주특별자치도 제주시 노형동 938-11,33.4843606612725,126.484703660447
2780,전라남도 강진군 강진군 치매안심센터,전남 강진군 강진읍 동성리 66-3,34.6381196815112,126.775552356425
2781,충청남도 당진시 고대농업인상담소,,,
2782,충청남도 홍성군 국립서해안기후대기센터,,,
2783,충청남도 공주시 공주시 노인회관,충남 공주시 주미동 94-5,36.4229221018941,127.102211389748
2784,경상남도 양산시 주민치유마당 화장실,,,
2785,경상남도 양산시 도요문화센터,,,
2786,강원도 정선군 정선군 청소년수련관,강원 정선군 정선읍 북실리 764-14,37.3795614952358,128.648893150016
2787,경기도 하남시 (가칭)감일고등학교,,,
2788,대전광역시 서구 관저다목적체육관,대전 서구 관저동 1583,36.2936845858891,127.336432855253
2789,경상북도 영천시 동부동4통 경로당,,,
2790,경상북도 상주시 속리산 시어동 휴양체험단지 관리사무소,,,
2791,강원도 삼척시 삼척 기적의 도서관,강원 삼척시 남양동 113,37.4391953596514,129.166292078574
2792,강원도 삼척시 삼척 기적의 도서관,강원 삼척시 조비동 113,37.4105126793762,129.158526034776
2793,경상북도 울진군 울진군 보훈회관,경북 울진군 울진읍 읍내리 49-1,36.9924925406486,129.403833233203
2794,경상북도 예천군 호명라온유치원,경북 예천군 호명면 오천리 210-1,36.5928318503389,128.470833932055
2795,경상북도 군위군 삼산보건진료소,경북 군위군 산성면 삼산리 1000,36.0937680365728,128.705450642321
2796,강원도 홍천군 서석면 체육공원 공중화장실,,,
2797,경기도 안산시 명휘체육센터,경기 안산시 상록구 사동 1273,37.2839131866662,126.84032561433
2798,경기도 안산시 안산시 장애인지원센터,경기 안산시 상록구 사동 1586,37.2989883685487,126.846400989198
2799,경상북도 안동시 예안향교 주차장 공중화장실,,,
2800,대구광역시 중구 성내1동 주민센터,대구 중구 봉산동 2-2,35.8666262338818,128.595811626762
2801,서울특별시 중랑구 중화2동 주민공동이용시설,서울 성북구 석관동 63-3,37.6080991019974,127.063856277953
2802,경상남도 거제시 복항마을(매미성) 공중화장실,,,
2803,경기도 오산시 오산시 소리울도서관,경기 오산시 원동 481-17,37.1326319223431,127.074976337391
2804,전라북도 익산시 웅포보건지소,전북 익산시 웅포면 웅포리 898-1,36.0657219532812,126.878197895856
2805,경기도 양주시 남면 신산시장 복합센터 건립공사,,,
2806,강원도 홍천군 두촌면 농촌중심지활성화사업 복지회관,,,
2807,전라남도 나주시 빛고을 정신요양원 남자생활관,,,
2808,전라북도 고창군 세이브더칠드런 고창 농어촌 놀이터,,,
2809,전라남도 순천시 낙안보건지소,전남 순천시 낙안면 동내리 202,34.9079837255343,127.346379887683
2810,전라북도 완주군 혁신도시 소리공원내 여성전용 공중화장실,,,
2811,전라북도 전주시 전주시 아동청소년센터,전북 전주시 완산구 효자동1가 545-3,35.8059802313581,127.120314045765
2812,전라남도 여수시 남면 역포대합실 신축공사,,,
2813,강원도 홍천군 홍천 무궁화수목원 방문자센터,,,
2814,전라남도 여수시 여자중계민원처리소,,,
2815,경기도 남양주시 (가칭)녹촌유치원,,,
2816,경상북도 영양군 일월면분회 경로당,,,
2817,경기도 수원시 고등동 행정복지센터,경기 수원시 팔달구 고등동 153-1,37.2734126617997,127.001111713104
2818,경기도 여주시 북내 실내체육관,경기 여주시 북내면 당우리 40-2,37.3344915669679,127.676918992438
2819,경상남도 고성군 고성향토역사관,,,
2820,충청북도 증평군 증평군 보훈회관,충북 증평군 증평읍 증평리 482,36.7817162257765,127.58607577146
2821,전라남도 담양군 외추보건진료소,전남 담양군 금성면 외추리 98,35.3208279024254,127.031387073821
2822,인천광역시 미추홀구 모퉁이보호작업장,인천 미추홀구 숭의동 161-26,37.4646005787767,126.645000322431
2823,부산광역시 사상구 부산사상경찰서 학장파출소,,,
2824,경상북도 상주시 화북면 중벌리 체육공원 공중화장실,,,
2825,대구광역시 동구 내동경로당,대구 동구 내동 212-3,35.9700085214686,128.660289043116
2826,경기도 평택시 신촌지구 근린공원 공중화장실,,,
2827,경기도 평택시 신촌지구 체육공원 공중화장실,,,
2828,충청북도 영동군 영산동 공영주차장 복층화사업,,,
2829,인천광역시 강화군 강화고인돌체육관,인천 강화군 강화읍 국화리 46-2,37.7549549358487,126.468553923841
2830,울산광역시 북구 북구 노인회관,울산 북구 화봉동 450-1,35.5885552282386,129.3678398342
2831,경기도 오산시 삼미초등학교,경기 오산시 외삼미동 290-3,37.1912307719777,127.060267985487
2832,경기도 오산시 화양면사무소,,,
2833,경기도 양주시 (가칭)옥정1고등학교,,,
2834,경기도 시흥시 (가칭)목감1유치원,,,
2835,세종특별자치시  (가칭) 해밀중고등학교,,,
2836,세종특별자치시  (가칭) 해밀초등학교,,,
2837,경기도 의왕시 부곡동 청소년 문화의 집,경기 의왕시 삼동 628,37.3177262575199,126.957266328843
2838,"경상북도 청도군 청도군 각북면 농촌중심지 활성화사업(행복주민센터, 주민행복마당)",,,
2839,광주광역시 북구 무돌길(금곡마을) 공중화장실,,,
2840,경기도 화성시 서연중학교,경기 화성시 장지동 972,37.160892262095,127.110118249572
2841,대구광역시 달서구 월성수복정경로당,대구 달서구 월성동 273,35.8324469380722,128.530447885264
2842,경상북도 영양군 입암면분회(신구리) 경로당,경북 영양군 입암면 신구리 534-2,36.5929279685305,129.089319509903
2843,서울특별시 강남구 개포초등학교 및 유치원,,,
2844,서울특별시 은평구 은평구 어르신일자리 지원센터,서울 은평구 녹번동 11-3,37.6070539505574,126.933366669883
2845,제주특별자치도 제주시 제주 삼성혈 전시관,제주특별자치도 제주시 이도일동 1775-12,33.5006612437536,126.527755524668
2846,경상남도 양산시 양산 비즈니스센터 및 첨단하이브리드 생산기술 센터,,,
2847,경상남도 양산시 상북면 어울림마당 공중화장실,,,
2848,충청북도 제천시 제천시 치매가족쉼터,,,
2849,충청북도 괴산군 사리면 예비군중대본부,,,
2850,경상남도 통영시 통영시 화장시설,경남 통영시 정량동 52-3,34.8518903088955,128.439759334322
2851,경상남도 의령군 의령군 청소년문화의 집,경남 의령군 의령읍 서동리 560,35.3161689391637,128.252756485939
2852,대구광역시 수성구 삼덕동 경로당,대구 수성구 삼덕동 552-1,35.8279525107449,128.668741087374
2853,제주특별자치도 제주시 조천 주민교류센터,,,
2854,강원도 홍천군 노천 초등학교,강원 홍천군 동면 노천리 1441,37.6683918195464,128.014144116199
2855,경기도 남양주시 다산진건지구 공영주차장(타워식),,,
2856,전라남도 곡성군 곡성경찰서 오곡파출소,전남 곡성군 오곡면 오지리 909-1,35.2729118556404,127.313512275158
2857,인천광역시 연수구 송도컨벤시아 1단계,인천 연수구 송도동 6-1,37.3881766252214,126.646217378186
2858,경기도 광명시 광명7동 주민센터 신축공사,,,
2859,세종특별자치시  행정중심복합도시 3-11호 어린이공원,,,
2860,부산광역시 동구 부산희망드림 종합센터,,,
2861,부산광역시 강서구 부산지방기상청 청사,,,
2862,전라남도 화순군 무등산국립공원동부사무소,전남 화순군 화순읍 유천리 258-4,35.0663766621907,126.997873581134
2863,대구광역시 서구 비산4동 어린이집,대구 서구 비산동 223-4,35.87008046095,128.573596916316
2864,세종특별자치시  (가칭) 해밀유치원,,,
2865,부산광역시 기장군 정관 아쿠아 드림파크,부산 기장군 정관읍 모전리 676,35.3413648662752,129.164579375623
2866,강원도 강릉시 포남1동 주민센터,강원 강릉시 포남동 1295-2,37.7727061402257,128.91333804127
2867,경기도 김포시 김포향산 근린공원 관리사무소,,,
2868,충청남도 천안시 직산 삼은저수지 생활체육공원 내 화장실 및 게이트볼장,,,
2869,충청남도 태안군 소원면 공립형 지역아동센터,,,
2870,충청남도 논산시 성광온누리학교,충남 논산시 성동면 병촌리 351,36.1925169189701,127.012291420962
2871,경기도 화성시 통탄 아름드림센터,,,
2872,경기도 시흥시 시흥어울림국민체육센터,경기 시흥시 정왕동 1800-6,37.3482221187884,126.741285833621
2873,강원도 삼척시 도계 평생학습관,,,
2874,경상남도 창원시 석동 공영주차빌딩,경남 창원시 진해구 석동 140,35.1527378768856,128.70517920595
2875,제주특별자치도 제주시 판포리 게이트볼장,,,
2876,전라남도 영광군 미래 이동수단 사용자 경헙랩,,,
2877,제주특별자치도 서귀포시 신례1리 마을 복지회관,,,
2878,서울특별시 양천구 구립 목4동 어린이집,서울 양천구 목동 771-5,37.5347692022762,126.867463447286
2879,충청남도 천안시 천안북부스포츠센터(운동장),,,
2880,충청남도 천안시 천안북부스포츠센터,충남 천안시 서북구 성환읍 매주리 393-10,36.8996860917972,127.132194991592
2881,경기도 수원시 서호꽃뫼공원-The 큰 통합놀이터,,,
2882,경기도 평택시 현덕축구장,경기 평택시 현덕면 덕목리 521-3,36.953511535448,126.95749324075
2883,충청북도 음성군 음성군 평생학습관,,,
2884,강원도 양양군 송이연어푸드 디자인센터,,,
2885,경기도 안산시 아이러브맘카페 2호점 건립공사,,,
2886,전라북도 김제시 청년창업공간『아토(芽土)』,,,
2887,경상북도 울진군 흥부 하나어린이집,,,
2888,경기도 안양시 석수1동 경로당,경기 안양시 만안구 안양동 707-139,37.3937289132072,126.921481404823
2889,서울특별시 양천구 목동 센트럴 아이파크위브(4단지),,,
2890,서울특별시 양천구 목동 센트럴 아이파크위브(3단지),,,
2891,서울특별시 양천구 목동 센트럴 아이파크위브(2단지),,,
2892,서울특별시 양천구 목동 센트럴 아이파크위브(1단지),,,
2893,전라남도 진도군 국민해양안전관 건립사업(유스호스텔),,,
2894,전라남도 진도군 국민해양안전관 건립사업(국민해양안전관),,,
2895,충청북도 충주시 충주시 유소년 축구장,,,
2896,제주특별자치도 서귀포시 발자국 화석산지 수장고,,,
2897,경기도 시흥시 배곧 한울초등학교,경기 시흥시 정왕동 2572,37.3601243508604,126.712651023728
2898,인천광역시 서구 인천 서부소방서 오류119안전센터,인천 서구 오류동 1735-3,37.5945183276458,126.632548722556
2899,전라남도 화순군 화순군 치매안심센터 및 기초정신건강복지센터,,,
2900,강원도 동해시 청운경로당,,,
2901,강원도 동해시 해오름 경로당,강원 동해시 구미동 589-6,37.4785156365229,129.128235283845
2902,제주특별자치도 제주시 제주시 한림읍 청사 신축공사,,,
2903,경기도 김포시 운양환승센터 조성사업(B동),,,
2904,경기도 김포시 운양환승센터 조성사업(A동),,,
2905,서울특별시 양천구 용왕산 화장실 및 관리실,,,
2906,충청북도 단양군 단성면 상방리 다목적회관,,,
2907,"경상남도 김해시 부원 2,3,4통 경로당",,,
2908,경상북도 구미시 구미시 공설 숭조당 2관,,,
2909,경상북도 성주군 성주군 어린이놀이터(공중화장실),,,
2910,경기도 포천시 포천시 치매안심센터 일동쉼터,경기 포천시 일동면 기산리 88-31,37.9558117718689,127.315381147042
2911,충청북도 청주시 청주시 새활용시민센터,충북 청주시 청원구 주성동 297-19,36.682514929848,127.499152338607
2912,인천광역시 서구 청라3동 행정복지센터,인천 서구 청라동 155-14,37.5325710363019,126.644209105144
2913,경기도 구리시 시립인창어린이집,경기 구리시 인창동 626,37.6066617253159,127.128962971854
2914,경기도 연천군 동두천~연천 복선전철 연천역사,,,
2915,경기도 연천군 동두천~연천 복선전철 초성리역사,,,
2916,경기도 연천군 동두천~연천 복선전철 전곡역사,,,
2917,경상북도 경주시 영천-신경주 복선전철 아화역사,,,
2918,울산광역시 울주군 삼남면가천경로당,울산 울주군 삼남읍 가천리 385-2,35.5316505227843,129.090370340502
2919,경기도 평택시 새한어린이공원 공중화장실,,,
2920,강원도 인제군 인제군 방동리 경로당,강원 인제군 기린면 방동리,37.9251279406181,128.407590459342
2921,전라북도 부안군 새만금 환경생태용지 방문자센터,,,
2922,경상남도 진주시 경남진주혁신도시 복합혁신센터,,,
2923,전라남도 고흥군 남양면 다목적 복지회관,,,
2924,전라북도 고창군 고창군 장애인주간보호 직업재활시설,,,
2925,서울특별시 강남구 개원 지구대,,,
2926,서울특별시 강남구 개포동 우체국,서울 강남구 개포동 14-4,37.493652897878,127.078059604909
2927,서울특별시 강남구 개포 어린이집,서울 강남구 개포동 1164-16,37.4735686634604,127.053528506045
2928,경기도 안양시 호원지구 소공원 지하 공영주차장 조성사업,,,
2929,전라남도 광양시 광양시 기능훈련센터 신축공사,,,
2930,전라북도 고창군 국민건강보험공단 고창출장소 사옥신축공사,,,
2931,대구광역시 달서구 달서영어도서관,대구 달서구 송현동 2003-32,35.8311897332958,128.555216068468
2932,경기도 양주시 (가칭)옥정10초등학교,,,
2933,경기도 안양시 비산1동 행정복지센터,경기 안양시 동안구 비산동 488-15,37.3998591534192,126.933620011911
2934,제주특별자치도 서귀포시 서귀포시 신효경로당,제주특별자치도 서귀포시 신효동 700-2,33.2645684723608,126.614235729975
2935,경상남도 양산시 이팝문화센터,,,
2936,강원도 강릉시 강동파출소,강원 강릉시 강동면 상시동리 150-1,37.7265612720027,128.954682528132
2937,경상남도 남해군 남해군 가인포보건진료소,,,
2938,경상남도 창원시 월영 주거환경개선사업 경로당,,,
2939,경기도 성남시 성남소방서,경기 성남시 수정구 수진동 4417,37.4366313175296,127.133451318963
2940,강원도 홍천군 남면 신대1리 마을회관 및 경로당,,,
2941,강원도 홍천군 자은리 친환경 공중화장실,,,
2942,경기도 화성시 (가칭)동탄10초등학교,,,
2943,경상북도 성주군 초전어린이집,경북 성주군 초전면 대장리 592,35.9761660247155,128.262330495426
2944,대구광역시 달성군 심인고등학교,대구 달성군 다사읍 죽곡리 816,35.8528377802508,128.465333703598
2945,대구광역시 달성군 심인중학교,대구 달성군 다사읍 죽곡리 819,35.8529168170735,128.466655168825
2946,전라북도 고창군 바람숲 화장실,,,
2947,충청남도 아산시 충청남도교육청 과학교육원,충남 아산시 장존동 185-9,36.7487204553258,126.991393079855
2948,충청북도 옥천군 옥천군 군서면 은행보건진료소,충북 옥천군 군서면 은행리 143-2,36.2699969972994,127.509335607306
2949,경상남도 진주시 경상남도교육청 학생안전체험교육원,경남 진주시 문산읍 삼곡리 640-1,35.1664955522415,128.166739227551
2950,경기도 김포시 걸포3지구 중앙공원 관리사무소,,,
2951,제주특별자치도 제주시 신양1리 마을회관,,,
2952,경상남도 창원시 병암동 다목적주민자치사랑방,,,
2953,강원도 양양군 양양전통시장 주차장,강원 양양군 양양읍 남문리,38.0735587080703,128.625044559538
2954,경기도 남양주시 경기시청자미디어센터,경기 남양주시 다산동 3209-2,37.6125827020318,127.168090295255
2955,서울특별시 성북구 장위5구역 내 노유자시설,,,
2956,경상북도  청송읍 분회경로당,경북 청송군 청송읍 월막리 198-2,36.4336270886303,129.057722926052
2957,경상남도 김해시 전하3통 경로당,경남 김해시 전하동 17-1,35.2246873380147,128.873325838631
2958,전라남도 무안군 무안 각설이 품바 전승관,,,
2959,충청북도 충주시 칠금동 주차전용건축물,,,
2960,전라북도 순창군 복흥면 청소년문화의 집 및 노인교실,,,
2961,강원도 화천군 토마토수영장,강원 화천군 사내면 사창리 459-8,38.0711654657592,127.519723878604
2962,서울특별시 송파구 가락1동 주민센터 및 가락1동 어린이집,,,
2963,대전광역시 서구 노루벌 구절초와 반디의 숲 체험원,,,
2964,부산광역시 사상구 부산도시철도 사상~하단선 503 정거장,,,
2965,부산광역시 사상구 부산도시철도 사상~하단선 스마트시티 정거장,,,
2966,제주특별자치도 서귀포시 서귀포 시각장애인 주간보호시설,제주특별자치도 서귀포시 월평동 476-1,33.2441620101483,126.459381734831
2967,인천광역시 미추홀구 주안동 장애인거주시설,인천 미추홀구 도화동 95-30,37.4679860319019,126.662405489367
2968,충청남도 예산군 신례원 버스승강장 공중화장실,,,
2969,경기도 동두천시 소요 별&숲 테마파크,경기 동두천시 상봉암동 15,37.9495720956409,127.065370480918
2970,경상북도 성주군 성밖숲정보센터,,,
2971,충청남도 논산시 논산시사람꽃복지관(구 논산시장애인종합복지관),,,
2972,전라북도 군산시 국립신시도자연휴양림 조성사업,,,
2973,경상북도 칠곡군 (가칭)남율중학교 신축공사,,,
2974,울산광역시 동구 동울산종합시장 공영주차장 및 고객지원센터,,,
2975,서울특별시 중구 서울시 시네마테크 건립,,,
2976,서울특별시 도봉구 창동 창업 및 문화 산업단지 조성사업,,,
2977,경기도 김포시 김포시 풍무도서관,경기 김포시 풍무동 156-5,37.6069566975839,126.727443436515
2978,전라남도 보성군 보성군 노동면사무소,전남 보성군 노동면 광곡리 254,34.7989223870492,127.067937239161
2979,경상남도 의령군 의령 농가형 전통장류 활성화센터,,,
2980,경상북도 안동시 안동시 북후면 농촌중심지활성화 공중화장실,,,
2981,대전광역시 유성구 봉산어린이공원 공중화장실,대전 유성구 봉산동 216,36.4358614999624,127.38787672697
2982,전라남도 순천시 환선정 창작공원 관광명소화사업,,,
2983,경기도 화성시 시립향남공원 어린이집,경기 화성시 향남읍 상신리 1308,37.1012618718264,126.897416355088
2984,전라남도 진도군 진도읍 환경미화원 복지센터,,,
2985,경기도 광명시 하안1동 밤일마을 경로당 건립공사,,,
2986,강원도 홍천군 서면 생활체육공원 다목적 체육시설,,,
2987,경상남도 창원시 진해경찰서 자은파출소,경남 창원시 진해구 자은동 146,35.1540602611074,128.713193481316
2988,경상남도 김해시 선지공원 공중화장실,,,
2989,경상남도 김해시 선천들공원 공중화장실,,,
2990,경상남도 김해시 무지개공원 공중화장실 2,,,
2991,경상남도 김해시 무지개공원 공중화장실 1,,,
2992,전라남도 여수시 학동 공중화장실,전남 여수시 학동 201,34.7561231216912,127.658624866169
2993,전라남도 여수시 꽃가람공원 편익시설(공중화장실),,,
2994,전라남도 여수시 백야항 화장실,,,
2995,전라북도 군산시 익산~대야 복선전철 대야역사,,,
2996,대전광역시 서구 월평도서관,대전 서구 갈마동 820,36.356020244175,127.372682090023
2997,강원도 원주시 강원혁신지식산업센터,강원 원주시 반곡동 1913-12,37.3249559459741,127.98902657889
2998,강원도 동해시 동해시종합버스터미널,강원 동해시 평릉동 166-4,37.5277350694699,129.103954371451
2999,제주특별자치도 서귀포시 중문보건지소 이전 신축공사,,,
3000,경상남도 양산시 덕계2초등학교,경남 양산시 덕계동 1588,35.3739082896507,129.160428331343
3001,경상북도 문경시 문경시 청정식물원 내 체험 및 판매장,,,
3002,충청북도 충주시 충주 연수동 주차전용건축물(2),,,
3003,충청북도 충주시 충주 연수동 주차전용건축물(1),,,
3004,인천광역시 연수구 학나래 근린공원 화장실,,,
3005,경상남도 하동군 하동 학숙 배움터 조성사업,,,
3006,서울특별시 동작구 신대방1동 구립 지역아동센터,,,
3007,대구광역시 달서구 달서구 장애인복지센터,대구 달서구 도원동 1468,35.802437659005,128.535983751036
3008,경상북도 경주시 경주 황성공원 내 물놀이장(공중화장실),,,
3009,충청남도 논산시 논산시 치매안심센터,충남 논산시 관촉동 327-2,36.1955211713431,127.102506972123
3010,세종특별자치시  반곡유초등학교,,,
3011,경상남도 창원시 교방여성경로당,경남 창원시 마산합포구 교방동 286-12,35.2136718823995,128.567042826815
3012,충청남도 논산시 논산시 공영주차장 주차타워,,,
3013,충청남도 아산시 아산시 청소년문화의집,충남 아산시 배방읍 장재리 1351,36.7885165220042,127.094472745215
3014,충청북도 청주시 충청북도 재난안전체험교육관,,,
3015,전라북도 정읍시 태인축구장 관리사무동,,,
3016,전라북도 익산시 익산시 미륵사지 관광지 공중화장실,,,
3017,전라북도 익산시 익산시 미륵사지 관광지 전통문화 전시관,,,
3018,충청남도 논산시 화지중앙시장 화장실,충남 논산시 화지동 71-5,36.206533200997,127.084442875218
3019,제주특별자치도 서귀포시 제주 국립산림생태관리센터(지원동),,,
3020,제주특별자치도 서귀포시 제주 국립산림생태관리센터(사무동),,,
3021,광주광역시 광산구 하남3지구 주차전용건축물 1,,,
3022,경기도 군포시 고랑치기 주차장,경기 군포시 부곡동 1246-1,37.3266517759212,126.941784592992
3023,전라남도 함평군 함평중학교,전남 함평군 함평읍 기각리 1175,35.0681729015052,126.522298274699
3024,전라남도 신안군 가거도 해양보호구역 해양센터 및 관리사무소,,,
3025,경기도 고양시 (가칭)지축중학교,,,
3026,광주광역시 서구 광주 노인회관,광주 서구 치평동 1154,35.1524786875749,126.838024957529
3027,인천광역시 연수구 (가칭)동춘1초등학교 신축공사,,,
3028,서울특별시 강서구 강서구 청소년상담복지센터,서울 강서구 화곡동 1071-26,37.5394557575666,126.835514184028
3029,광주광역시 서구 서구치매안심센터,광주 서구 쌍촌동 1004-13,35.1488362666606,126.860306325025
3030,경기도 시흥시 (가칭)장현2중학교,,,
3031,충청남도 보령시 충남 보령경찰서 이전 신축공사,,,
3032,제주특별자치도 서귀포시 하원 마을회관,제주특별자치도 서귀포시 하원동 480-4,33.2567262858365,126.461054249361
3033,부산광역시 서구 서대신5구역 치안센터,,,
3034,인천광역시 부평구 부평4동 행정복지센터 신축공사,,,
3035,광주광역시 동구 무등산국립공원 사무소,광주 동구 운림동 438,35.1316651788637,126.947990549256
3036,대구광역시 중구 신천 커뮤니티센터,,,
3037,서울특별시 동작구 흑석8구역 롯데캐슬 에듀포레,,,
3038,경상북도 청도군 옥산보건진료소,경북 청도군 각남면 녹명리 326-1,35.6289380514086,128.637522560412
3039,충청남도 공주시 공주시 보건소 치매안심센터,,,
3040,경상남도 산청군 천상화원 탐방지원센터,,,
3041,전라남도 완도군 노화 갈꽃섬 전복오감여행학교,,,
3042,경상북도 성주군 성주군 월항주차공원 공중화장실,,,
3043,강원도 홍천군 용수리(큰말)경로당,강원 홍천군 남면 용수리 238-6,37.6596386939549,127.750141757479
3044,대구광역시 수성구 범어2동 커뮤니티센터,대구 수성구 만촌동 990-28,35.8648578783039,128.647389988742
3045,경기도 화성시 동탄8동 행정복지센터,경기 화성시 방교동 828,37.1733508234942,127.089569433181
3046,경상북도 청도군 청도군 치매안심센터 및 정신건강복지센터,,,
3047,제주특별자치도 제주시 상가리 마을회 경로당 증축 공사,,,
3048,경기도 하남시 하남 위례도서관,경기 하남시 학암동 90-46,37.4825241977798,127.148669572486
3049,전라북도 익산시 익산시 보훈회관,전북 익산시 신동 760-8,35.9646375229945,126.953905000131
3050,충청남도 홍성군 충남도서관,충남 홍성군 홍북읍 신경리 887,36.6570255479898,126.669316329339
3051,서울특별시 성북구 서울시 창작연극 지원센터,,,
3052,경기도 양주시 (가칭)옥정5중학교,,,
3053,경기도 수원시 수원팔달구·장안구 선거관리위원회 합동청사,,,
3054,경상북도 구미시 항곡1리 경로당,,,
3055,경기도 여주시 이포권역 다목적 행복센터,,,
3056,제주특별자치도 제주시 추자면 묵리 노유자시설(경로당)신축공사,,,
3057,경기도 시흥시 목감도서관,경기 시흥시 목감동 398,37.3855650149302,126.86133144245
3058,경기도 시흥시 목감도서관,경기 시흥시 물왕동 398,37.383130520592,126.823515799909
3059,경기도 시흥시 목감도서관,경기 시흥시 산현동 398,37.3628209062552,126.832004109847
3060,경기도 화성시 화성 동탄2 제16초 이음터,,,
3061,대구광역시 서구 내당1동 행정복지센터,대구 서구 내당동 12-36,35.8634324463259,128.563970900106
3062,경상남도 진주시 (가칭)비봉 커뮤니티 센터 (비봉새뜰),,,
3063,"세종특별자치시  버스, 에디슨모터스 화이버드 초저상",,,
3064,"세종특별자치시  버스, 현대 뉴슈퍼에어로시티 초저상버스",,,
3065,"세종특별자치시  버스, 현대 블루시티 초저상 하이브리드",,,
3066,서울특별시 성북구 성북구립 삼선실버복지센터,,,
3067,강원도 평창군 평창군 어울림 문화센터,,,
3068,부산광역시 북구 정이있는 구포시장 고객편의시설,,,
3069,충청남도 보령시 도화담2리 생활체육시설,,,
3070,경기도 의정부시 호원1동 경로당,경기 의정부시 호원동 121,37.7060709804331,127.050047022331
3071,경상북도 영양군 석보면분회경로당,경북 영양군 입암면 신구리 534-2,36.5929279685305,129.089319509903
3072,전라북도 고창군 동호해수욕장 공중화장실,전북 고창군 해리면 동호리 627,35.5161308558679,126.48270758514
3073,강원도 화천군 화천소방서,강원 화천군 하남면 위라리 380-1,38.0981270976963,127.71381198014
3074,경상남도 고성군 고성해양레포츠 아카데미,,,
3075,전라북도 정읍시 정읍우체국,전북 정읍시 수성동 558-2,35.5671960344055,126.852133611736
3076,전라남도 여수시 전남여수산학융합지구,,,
3077,인천광역시 서구 검단노인복지관,인천 서구 마전동 987-7,37.6021265664848,126.661261898697
3078,인천광역시 중구 (가칭)하늘3중학교,,,
3079,충청남도 천안시 목천읍 주민자치센터,충남 천안시 동남구 목천읍 서리 100-16,36.783580568789,127.234975194843
3080,인천광역시 남동구 신월경로당,인천 남동구 구월동 1283-18,37.4496779569682,126.720130939879
3081,경상북도 고령군 고령군 아이나라 키즈교육센터,,,
3082,충청북도 옥천군 금구 공영주차타워,,,
3083,서울특별시 마포구 망원동 공영주차장,서울 마포구 망원동 403-2,37.5555820062404,126.905860657206
3084,경상남도 창원시 경남마산로봇랜드 컨벤션센터,,,
3085,경상북도 의성군 순호보건진료소,경북 의성군 가음면 순호리 550,36.2108889009781,128.726952712373
3086,충청남도 아산시 충남 사회젹경제 유통지원센터,,,
3087,전라남도 나주시 나주시 진산요양원,전남 나주시 노안면 오정리 301-28,35.0893888720972,126.693831810205
3088,전라남도 순천시 조곡동 행정복지센터,전남 순천시 조곡동 82-260,34.9499959780529,127.498633686864
3089,전라남도 목포시 고하도주차장화장실,,,
3090,경상북도 봉화군 분천산타마을 푸드코트,,,
3091,경상남도 진주시 상대동 경로당,경남 진주시 상대동 199-48,35.1852406362516,128.115492918254
3092,경상남도 진주시 상평동 경로당,경남 진주시 상평동 198-99,35.1772207566426,128.114292407517
3093,전라북도 완주군 완주군 보훈회관,전북 완주군 삼례읍 삼례리 1416-5,35.9087578096731,127.071832211631
3094,충청북도  업성저수지 방문자센터,,,
3095,경기도 양주시 광적 공영주차장,경기 양주시 광적면 가납리,37.8167731250135,126.99347193126
3096,세종특별자치시  조치원공영버스터미널,세종특별자치시 조치원읍 상리 96-2,36.6019034481609,127.302735717979
3097,광주광역시 광산구 치매안심센터 및 맘앤맘센터?맘쓰리센터,,,
3098,전라남도 구례군 구례 매천도서관 이전 건립공사,,,
3099,서울특별시 송파구 올림픽홀,서울 송파구 방이동 88-2,37.5177541504634,127.125610090087
3100,인천광역시 미추홀구 주안1동 263-2번지 공영주차장,인천 미추홀구 주안동 168,37.4610088578538,126.681507798811
3101,경상남도 진주시 예하초등학교,경남 진주시 정촌면 예하리 1294,35.1249084884631,128.099043922944
3102,경기도 수원시 팔달구 노인회지회회관,,,
3103,인천광역시 미추홀구 인천 미추홀구 보훈회관,인천 미추홀구 용현동 450-192,37.4562533302297,126.65167740567
3104,전라북도 고창군 고창 운곡람사르습지 에코촌 유스호스텔,,,
3105,경상남도 의령군 의령 화정복합문화센터,경남 의령군 화정면 상정리 737-3,35.2745131279041,128.213012710338
3106,경상북도 문경시 문경 고향쉼터,,,
3107,충청남도 홍성군 홍성내포우체국,충남 홍성군 홍북읍 신경리 949-1,36.6508304560047,126.685214891517
3108,충청남도 부여군 부여읍 주차타워,,,
3109,충청북도 청주시 금빛도서관,충북 청주시 상당구 금천동 327,36.6308775002501,127.511583591561
3110,충청남도 아산시 신리초등학교,충남 아산시 모종동 229,36.7864809622881,127.024359078445
3111,전라북도 무주군 무주경찰서 안성파출소,전북 무주군 안성면 장기리 1308-4,35.8657263392701,127.654280061051
3112,전라북도 익산시 익산경찰서 성당파출소,전북 익산시 성당면 장선리 275-2,36.0870548327603,126.937796797071
3113,경기도 화성시 (가칭)동탄1초등학교 신축공사,,,
3114,제주특별자치도 제주시 제주특별자치도립노인요양원(신관),,,
3115,경기도 고양시 경의로 철로변 화장실 설치공사,,,
3116,전라북도 고창군 고창 생물권보전지역 관리센터,전북 고창군 고창읍 도산리 578-3,35.4358131840937,126.654662389554
3117,서울특별시 영등포구 신길 재정비촉진지구 신길3 재정비촉진구역 주택재개발사업,,,
3118,충청남도 보령시 보령 성주사지 홍보관,충남 보령시 성주면 성주리 104,36.3433340927724,126.655007317472
3119,전라북도 익산시 금마도서관,전북 익산시 금마면 서고도리 634,35.9931332737468,127.050586267644
3120,인천광역시 서구 신거북시장 주차장 및 판매시설,,,
3121,경상북도 청송군 주왕산국립공원 탐방안내소,경북 청송군 주왕산면 상의리 295,36.3907580251042,129.141642170642
3122,경기도 용인시 서농동 주민센터,경기 용인시 기흥구 서천동 748-2,37.2379362871243,127.068445923695
3123,서울특별시 서초구 서초구립 도구머리어린이집,,,
3124,경기도 이천시 월포보건진료소,경기 이천시 율면 월포리 608-3,37.0893270055545,127.579366583915
3125,서울특별시 양천구 구립 목3동 공원어린이집,,,
3126,전라남도 목포시 유달산 노적봉 화장실,,,
3127,제주특별자치도 제주시 탑동광장관리사무소 신축공사,,,
3128,울산광역시 동구 일산진마을 주민공동이용시설,,,
3129,부산광역시 기장군 기장군 장애인회관,부산 기장군 기장읍 동부리 390-1,35.2500228308654,129.213116156972
3130,경상남도 함양군 한들 생태환경 주차장,,,
3131,"경상남도 밀양시 밀양 농어촌관광휴양단지 조성사업(김치테마랜드, 농축임산물종합판매타운, 국제웰니스토리타운)",,,
3132,제주특별자치도 서귀포시 성산읍 노인복지회관,제주특별자치도 서귀포시 성산읍 고성리 1549-1,33.4485076678965,126.906462570519
3133,강원도 강릉시 제일경로당,,,
3134,경상남도 밀양시 밀양소방서,경남 밀양시 교동 산 26,35.4998796127552,128.758719078871
3135,전라북도 김제시 김제 장애인평생교육센터,전북 김제시 서암동 529-3,35.8054512084271,126.872277090057
3136,경상북도 구미시 부곡동 진줄새마을 경로당,경북 구미시 부곡동 54,36.1457601796448,128.303747247477
3137,전라북도 무주군 덕유산국립공원 탐방안내소,전북 무주군 설천면 삼공리 464,35.8895032668388,127.778138821661
3138,울산광역시 남구 삼호동 공영주차장,울산 남구 무거동 629-22,35.5427263947424,129.261179427078
3139,광주광역시 서구 광주통합청사,광주 서구 동천동 584,35.1694244136025,126.863015259568
3140,제주특별자치도 서귀포시 호근경로당,,,
3141,강원도 원주시 원주시 남산공원 야외화장실,,,
3142,인천광역시 연수구 인천도시철도1호선 송도랜드마크시티,,,
3143,인천광역시 강화군 어유정항 화장실 신축공사,,,
3144,경상북도 경주시 경주국립공원건천분소,경북 경주시 건천읍 천포리 402-1,35.8535567410523,129.100743372143
3145,세종특별자치시  세종특별자치시교육원,세종특별자치시 도담동 688,36.5138327279152,127.254941964187
3146,세종특별자치시  세종특별자치시교육원,세종특별자치시 산울동 688,36.5340801039236,127.244032781908
3147,세종특별자치시  세종특별자치시교육원,세종특별자치시 어진동 688,36.5075052757226,127.256455103533
3148,광주광역시 광산구 어등어린이공원 공중화장실,,,
3149,광주광역시 광산구 수랑어린이공원 공중화장실,,,
3150,광주광역시 광산구 서작어린이공원 공중화장실,,,
3151,광주광역시 광산구 도루메어린이공원 공중화장실,,,
3152,광주광역시 광산구 임방울어린이공원 공중화장실,,,
3153,인천광역시 연수구 G-TOWER,인천 연수구 송도동 24-4,37.3961508184486,126.634341718205
3154,경상북도 영양군 영양군 청소년수련관,경북 영양군 영양읍 동부리 184,36.6614032297269,129.118575431633
3155,인천광역시 부평구 청천2구역 공공시설 주민센터,,,
3156,전라북도 부안군 보안면 문화복지센터,,,
3157,대구광역시 북구 침산1동 마을회관,대구 북구 침산동 557-26,35.8951058397565,128.5907844276
3158,전라북도 전주시 (가칭)전주세내유치원,,,
3159,서울특별시 도봉구 방학동 고령자전용 공공리모델링 임대주택,,,
3160,충청북도 청주시 충청북도교육청 환경교육센터,,,
3161,충청남도 논산시 행복공동체 노인공동작업장(노인회관),,,
3162,전라남도 여수시 여수 이순신 도서관,전남 여수시 웅천동 1820-2,34.7499373596105,127.690392476902
3163,대구광역시 달성군 노사평화의 전당,,,
3164,서울특별시 양천구 구립 목3동어린이집,서울 양천구 목동 720-8,37.5397671193074,126.864587730532
3165,인천광역시 서구 인천국민안전체험관(가칭),,,
3166,전라남도 진도군 진도경찰서 고군파출소,전남 진도군 고군면 오산리 1123-5,34.4926144559368,126.341818150324
3167,서울특별시 구로구 구로구 가족통합지원센터,,,
3168,경기도 안산시 안산상록경찰소 이동파출소,,,
3169,충청남도 천안시 천안SB플라자,충남 천안시 서북구 직산읍 삼은리 513,36.8857318327498,127.158116927126
3170,"경기도 부천시 상동 어울마당, 상동어린이집",,,
3171,세종특별자치시  산학연클러스터 지원센터,세종특별자치시 집현동 1008-2,36.4994945381002,127.329063382044
3172,대전광역시 서구 복수동 주민센터,대전 서구 복수동 614,36.3000204426123,127.378940109614
3173,경상남도 창원시 창원중부경찰서 신촌파출소 신축공사,,,
3174,충청북도 제천시 봉양복합문화복지센터,,,
3175,강원도 홍천군 홍천 남산유치원,강원 홍천군 홍천읍 연봉리 158-1,37.6827267472736,127.877963383452
3176,충청남도 보령시 수산식품산업 거점단지 조성사업,,,
3177,서울특별시 서초구 서초3동 하나어린이집(가칭),,,
3178,강원도 삼척시 근덕 청소년 문화의 집,강원 삼척시 근덕면 교가리 568-3,37.3831733477461,129.223283164159
3179,인천광역시 동구 화수정원마을 공공임대주택 및 공영주차장,,,
3180,경기도 부천시 수주도서관,경기 부천시 고강동 산 90,37.5243794090981,126.818651540996
3181,경상북도 구미시 구미 해평 정다운센터,경북 구미시 해평면 낙성리 160-1,36.1946448830207,128.391107167894
3182,전라남도 보성군 보성군 동화나라어린이집,전남 보성군 보성읍 주봉리 418-1,34.7641587086507,127.071779445033
3183,인천광역시 동구 국공립 동산어린이집,인천 동구 송림동 97-6,37.4714024015923,126.649266164041
3184,경상남도 양산시 양산경찰서 평산파출소,경남 양산시 평산동,35.3815622180432,129.146974672454
3185,경상북도 포항시 장성파출소,경북 포항시 북구 장성동 1552-12,36.0785228092011,129.381651515388
3186,부산광역시 동구 범일2동 복합커뮤니티센터,,,
3187,전라북도 군산시 대야시장 공중화장실,,,
3188,강원도 정선군 강원랜드 사회공헌센터,강원 정선군 고한읍 고한리 125-4,37.2086088793552,128.843150229727
3189,강원도 삼척시 삼척시 도계 노인복지관,강원 삼척시 도계읍 도계리 315-2,37.2382289665768,129.046437171561
3190,전라남도 고흥군 고흥 드론 특화 지식산업센터,,,
3191,광주광역시 서구 사회적 가치 공동체 지원센터,,,
3192,경상남도 양산시 양산물금우체국,경남 양산시 물금읍 가촌리 1275-2,35.3134260766201,128.994152637938
3193,인천광역시 연수구 청학문화센터,인천 연수구 청학동 239-4,37.4261829570797,126.667976003398
3194,경상남도 산청군 국민건강보험공단 진주산청지사 산청출장소,경남 산청군 산청읍 지리 737,35.4190318858073,127.880363806483
3195,경기도 고양시 (가칭)삼송1초 및 삼송1유치원 신축공사 설계용역,,,
3196,충청남도 금산군 그라운드골프장 클럽하우스,,,
3197,경기도 용인시 나곡 체육공원 내 공중화장실,,,
3198,경상남도 양산시 생태숲 체험관,경남 김해시 삼계동 산 47,35.2681331273567,128.875108441274
3199,제주특별자치도 제주시 탑동 화장실 개선사업,,,
3200,전라남도 신안군 신안군 지도읍 공립형 지역아동센터,,,
3201,서울특별시 강동구 (가칭)강빛 초.중 통합학교,,,
3202,강원도 고성군 고성복지커뮤니티센터,,,
3203,경상북도 칠곡군 칠곡군 보훈회관,경북 칠곡군 왜관읍 석전리 795-12,36.0001097918618,128.397458799011
3204,경상남도 진주시 진주 상봉어린이집,경남 진주시 상봉동 1075-2,35.1972880010148,128.071633149765
3205,경상북도 청송군 청송군 병풍바위 지질명소 공중화장실,,,
3206,경기도 시흥시 시흥경찰서 목감파출소,,,
3207,경기도 화성시 (가칭)동탄29초등학교,,,
3208,제주특별자치도 제주시 비자림 공중화장실,,,
3209,경상남도 통영시 북신전통시장 주차장,경남 통영시 북신동 662-4,34.855104910718,128.428157203826
3210,부산광역시 부산진구 개금2동 주민센터,부산 부산진구 개금동 503-18,35.1526666234988,129.021914658297
3211,경기도 동두천시 동점마을 경로당,,,
3212,전라남도 보성군 회천면 농민상담소,전남 보성군 회천면 율포리 423,34.6684619511994,127.084442225902
3213,서울특별시 동작구 흑석동 구립 도레미 어린이집,서울 동작구 흑석동 173-52,37.5098461218059,126.959156391745
3214,충청북도 괴산군 괴산 서울농장,,,
3215,경상남도 사천시 통영해양경찰서 사천파출소,경남 사천시 동금동 579-5,34.9257268102179,128.079460934229
3216,제주특별자치도 제주시 하귀2리 경로당,제주특별자치도 제주시 애월읍 하귀2리 1893-1,33.4789579708138,126.403271692148
3217,경상북도 영천시 신대리 마을회관,경북 영천시 금호읍 신대리 64-15,35.9103333872741,128.868306617744
3218,인천광역시 서구 (가칭)청호초.중학교 신축공사,,,
3219,경상남도 남해군 동대만 간이역,,,
3220,제주특별자치도 제주시 동복리체육센터(야구장관리실),,,
3221,전라북도 고창군 부안해양경찰서 고창파출소,전북 고창군 상하면 자룡리 969,35.4490602813965,126.426767473061
3222,전라북도 전주시 서노송예술촌 문화예술복합공간,,,
3223,전라남도 영광군 영광읍 복지회관,전남 영광군 영광읍 도동리 114,35.2732247523923,126.51298477194
3224,경기도 시흥시 배곧어울림센터,경기 시흥시 정왕동 2495,37.3720701692748,126.736142220533
3225,광주광역시 서구 광주서구 보듬이나눔이 어린이집,광주 서구 내방동 313,35.1548081116793,126.874186215824
3226,전라남도 광양시 장애인직업재활시설,전남 광양시 광양읍 덕례리 산 14,34.965693471365,127.574507364854
3227,광주광역시 동구 남광주시장 공중화장실,광주 동구 학동 55,35.1391467321841,126.921765322838
3228,경상북도 울진군 한마음광장 공중(어업인)화장실,,,
3229,경상북도 봉화군 봉화 억지춘양시장 공영주차타워,,,
3230,강원도 원주시 반곡동1910-10 대도시형 직매장,,,
3231,부산광역시 해운대구 반여3동 노인복합복지시설,,,
3232,서울특별시 강동구 천호2 재정비촉진구역(주택재건축사업),,,
3233,경상남도 통영시 욕지도체험센터,,,
3234,전라남도 고흥군 고흥 청년 창업몰,,,
3235,강원도 홍천군 남면 화전3리 마을회관 및 경로당,,,
3236,경기도 남양주시 남양주경찰서 화도2파출소,,,
3237,제주특별자치도 제주시 제주지방경찰청 청사,,,
3238,전라남도 담양군 담양호 관광단지 노후화장실 개선사업,,,
3239,대구광역시 달성군 경서중학교,대구 달성군 옥포읍 교항리 2946,35.782647915156,128.445231708323
3240,충청남도 당진시 순성면 행정복지센터,충남 당진시 순성면 봉소리 7,36.8456296004518,126.714538612393
3241,경기도 여주시 반려동물 테마파크 조성,,,
3242,전라북도 김제시 김제시 새뜰마을사업 주민공동이용시설 (커뮤니티센터),,,
3243,대구광역시 동구 도동문화마을 커뮤니티센터,대구 동구 도동 470-1,35.9191676910053,128.66239095309
3244,울산광역시 북구 화청경로당,울산 북구 화봉동 836-2,35.5899968793967,129.361920354655
3245,대구광역시 북구 구암건강생활지원센터,대구 북구 구암동 788-3,35.938643697055,128.565914908681
3246,경상남도 의령군 의령경찰서 유곡파출소,경남 의령군 유곡면 칠곡리 333-2,35.4333807773392,128.31308488026
3247,전라남도 순천시 순천시 드라마 촬영장 실내체험장 건립공사,,,
3248,경상북도 칠곡군 영오권종합정비사업(천왕사랑방),,,
3249,강원도 양양군 오색주차장2 공중화장실,,,
3250,충청남도 천안시 천안중앙시장 주차빌딩,,,
3251,광주광역시 동구 나라키움 광주 동구 복합청사,,,
3252,경상북도 상주시 (가칭)중모고등학교 농업계 특성화고 전환공사,,,
3253,경상남도 남해군 삼동면복지회관 목욕탕,경남 남해군 삼동면 지족리 179-4,34.8303051899156,128.002422355776
3254,경상남도 밀양시 경남특수교육원,경남 밀양시 하남읍 대사리 242-2,35.3934915749387,128.733398394417
3255,부산광역시 금정구 장전1동 주민센터,부산 금정구 장전동 130-15,35.238163018858,129.084481077734
3256,전라남도 영암군 전남 제2정선센터,,,
3257,충청남도 태안군 태안해안국립공원 자연학습장,,,
3258,강원도 동해시 묵호항 여객선터미널 공중화장실,,,
3259,경상남도 남해군 남해힐링국민여가캠핑장 내 공중화장실,,,
3260,전라북도 익산시 익산맑은샘 유치원,전북 익산시 오산면 영만리 950-6,35.9597664637438,126.905861109602
3261,경상북도 군위군 군위경찰서 효령파출소,경북 군위군 효령면 중구리 194-2,36.1560756214441,128.587097440782
3262,경상북도 영덕군 웰빙문화 테마마을 조성사업 웰빙문화센터 건축공사,,,
3263,제주특별자치도 서귀포시 대정읍 모다들엉 문화충전소,,,
3264,부산광역시 영도구 조엄조내기 고구마 역사공원 기념관,,,
3265,경상남도 거창군 거함산 향노화 휴양 체험지구,,,
3266,경상남도 창원시 부산지방고용노동청 창원지청 청사,,,
3267,경기도 평택시 평택소사 2지구 120호 근린공원 공중화장실,,,
3268,경기도 평택시 평택소사 2지구 119호 근린공원 공중화장실,,,
3269,전라북도 장수군 그린 장수 치유의숲(치유센터),,,
3270,경상남도 밀양시 밀양시 농업기술센터 교육관,,,
3271,대전광역시 동구 도심형 산어지원플랫폼 건립사업 - 주차장동,,,
3272,대전광역시 동구 도심형 산어지원플랫폼 건립사업 - 플랫폼동,,,
3273,충청남도 금산군 남부체육센터 축구전용구장 클럽하우스,,,
3274,경기도 동두천시 소요동 행정복지센터 신축공사,,,
3275,서울특별시 양천구 신월6동 복합청사,서울 양천구 신월동 1078-1,37.5179463858294,126.845140799496
3276,부산광역시 강서구 부산강서경찰서 명지파출소,,,
3277,대구광역시 북구 (가칭)대구연경지구2유치원,,,
3278,경상북도 울진군 울진군 제2민원실,,,
3279,"서울특별시 구로구 천왕 역세권 도시환경 정비사업(도서관, 어린이집)",,,
3280,강원도 양구군 양구소방서 청사 신축 설계,,,
3281,제주특별자치도 제주시 노형동 공영주차장,제주특별자치도 제주시 노형동 726-3,33.4815905130377,126.486875454265
3282,경기도 성남시 위례하늘유치원,경기 성남시 수정구 창곡동 599,37.4669720657851,127.151079071824
3283,경상북도 포항시 테마공원(반려동물 놀이시설) 공중화장실,,,
3284,경상남도 김해시 김해서부경찰서 율하파출소,경남 김해시 장유동 844,35.1697070809729,128.823460873506
3285,인천광역시 연수구 (가칭)해양6초등학교,,,
3286,세종특별자치시  주식회사 새롬테크,,,
3287,울산광역시 동구 (가칭)남목노인복지관,,,
3288,경기도 수원시 행궁광장 공중화장실,,,
3289,충청북도 청주시 청주 보듬이나눔이 어린이집,,,
3290,부산광역시 금정구 금샘도서관(공영주차장포함),,,
3291,경기도 남양주시 (가칭)진건1유치원,,,
3292,전라남도 광양시 광양시 수산물 종합 유통물류센터,,,
3293,대구광역시 북구 (가칭) 대구연경지구2초등학교 건립사업,,,
3294,부산광역시 강서구 창원해양경찰서 대항출장소,부산 강서구 대항동 236,35.0115534791313,128.827344196721
3295,전라북도 전주시 전북어린이 창의체험관,,,
3296,강원도 고성군 아야진보건진료소,강원 고성군 토성면 아야진리 39,38.2723758882187,128.555455354075
3297,인천광역시 부평구 부평 보듬이나눔이 어린이집,,,
3298,부산광역시 남구 (주)아델라7,부산 남구 대연동 245-68,35.1510121673149,129.090442666486
3299,경기도 화성시 화성시어린이문화센터,경기 화성시 봉담읍 동화리 590,37.2123708694717,126.960714711012
3300,경기도 성남시 운중동 934번지 공영주차장 건립공사,,,
3301,강원도 강릉시 순포리 경로당,,,
3302,충청남도 서천군 서천군 경제진흥통합센터,,,
3303,전라남도 순천시 신대초등학교,전남 순천시 해룡면 신대리 1966,34.9392821883998,127.546072318229
3304,전라남도 나주시 에너지밸리 산업단지 캠퍼스 및 기업연구관,,,
3305,경상북도 영천시 언하2동 경로당,,,
3306,울산광역시 남구 울산 남구 LH 해피투게더타운 중 업무시설,,,
3307,부산광역시 기장군 (가칭)일광중학교,,,
3308,경상북도 상주시 상주시청 직장어린이집,경북 상주시 남성동 235-7,36.4096171432791,128.162879691579
3309,울산광역시 울주군 명촌경로당,울산 울주군 상북면 명촌리 152,35.5713465945523,129.084088796466
3310,울산광역시 울주군 곡연경로당,,,
3311,울산광역시 울주군 상평2리 경로당,,,
3312,울산광역시 울주군 서부2리 경로당,,,
3313,울산광역시 울주군 천전경로당,울산 울주군 두동면 천전리 1210-34,35.6172630022772,129.1528494999
3314,경기도 평택시 배미어린이공원 공중화장실,,,
3315,경기도 평택시 신흥근린공원 공중화장실,,,
3316,경기도 평택시 신흥문화공원 공중화장실,,,
3317,경기도 평택시 모산근린공원 공중화장실,,,
3318,경기도 평택시 용죽역사공원 공중화장실,,,
3319,경기도 평택시 죽백근린공원 공중화장실,,,
3320,경기도 평택시 당산근린공원 공중화장실,,,
3321,경기도 평택시 생기자리근린공원 공중화장실,,,
3322,경기도 평택시 배다리생태공원2 공중화장실,,,
3323,경기도 평택시 배다리생태공원1 공중화장실,,,
3324,경기도 평택시 물장구어린이공원 공중화장실,,,
3325,경기도 연천군 백학 꿈나무 어린이집,경기 연천군 백학면 두일리 477-3,38.0283325352753,126.910264924634
3326,강원도 삼척시 하장면 복지회관,강원 삼척시 하장면 번천리 131-2,37.3685440454211,128.999700133197
3327,전라남도 담양군 객사3리 경로당,전남 담양군 담양읍 객사리 81,35.3208367574464,126.98454873435
3328,서울특별시 영등포구 대림3동 어린이집,서울 영등포구 대림동 777,37.498039858904,126.894820030466
3329,제주특별자치도 제주시 금능리 복합문화복지센터,,,
3330,강원도 횡성군 횡성 한우 체험관,강원 횡성군 횡성읍 읍하리 283,37.4917780418444,127.978029794706
3331,충청북도 진천군 진천군 공립 덕산어린이집,충북 진천군 덕산읍 용몽리 566-4,36.9062940915492,127.509151071048
3332,경기도 김포시 (가칭)걸포3초등학교,,,
3333,충청남도 부여군 부여 구드래 역사마을 조성사업,,,
3334,서울특별시 관악구 신사동 국공립어린이집,서울 관악구 신림동 501-30,37.4862807839031,126.915171281213
3335,부산광역시 동래구 부산사회복지종합센터,부산 동래구 온천2동 1485,35.2055983653794,129.076623351596
3336,서울특별시 서대문구 서대문구육아종합지원센터 구립가재울어린이집,,,
3337,서울특별시 은평구 한국환경산업기술원 별관,,,
3338,"부산광역시 기장군 (가칭)일광2초등학교, 일광3유치원",,,
3339,경기도 의정부시 용현산업단지 기업지원센터,,,
3340,"인천광역시 중구 씨사이드파크 족욕장화장실, 족구장화장실",,,
3341,인천광역시 중구 씨사이드파크 염전2화장실,인천 중구 운남동 1640-1,37.4738131567961,126.525838778604
3342,"인천광역시 중구 씨사이드파크 카라반캠핑관리실?매점, 테니스화장실",,,
3343,인천광역시 중구 씨사이드파크 텐트캠핑장 관리실?매점,,,
3344,전라남도 여수시 여수시치매안심센터,전남 여수시 봉강동 323-11,34.7390533715435,127.726085918563
3345,경기도 화성시 화성동탄(2) 정현고등학교,,,
3346,충청남도 서천군 CITES 동물보호센터,,,
3347,인천광역시 계양구 목상동 경로당,인천 계양구 목상동 209-6,37.5692087092428,126.707081985207
3348,경기도 성남시 정자동 72번지 공영주차장 건립공사,,,
3349,경기도 시흥시 월곶어울림센터,경기 시흥시 정왕동 2495,37.3720701692748,126.736142220533
3350,경기도 남양주시 진접선(당고개~진접) 복선전철 4공구 003정거장,,,
3351,부산광역시 강서구 부전~마산 복선전철 민간투자시설사업2공구 (BM01정거장),,,
3352,제주특별자치도 서귀포시 서귀포시 제2청사 별관,,,
3353,경기도 안산시 안산시 단원구 청소년수련관,경기 안산시 단원구 초지동 667,37.3268455747838,126.813908652466
3354,경기도 안산시 안산시 단원구 청소년수련관,경기 안산시 단원구 성곡동 667,37.3202912774805,126.743053138427
3355,대구광역시 달성군 하빈PMZ 평화예술센터,대구 달성군 하빈면 봉촌리 1037-15,35.8619129456683,128.392445664895
3356,경상북도 청도군 매전면 복합체육시설,,,
3357,경상북도 구미시 소롯골 경로당,,,
3358,광주광역시 서구 서구 복합커뮤니티센터 건립공사,,,
3359,광주광역시 남구 쌈지경로당,광주 남구 방림동 11,35.1296031750454,126.924153981992
3360,전라남도 광양시 광양시장애인복지관,전남 광양시 광양읍 덕례리 1724-3,34.9650703915916,127.574251286826
3361,서울특별시 강남구 개포4 복합문화센터,서울 강남구 개포동 1204,37.4771387902852,127.049901529788
3362,경기도 파주시 국민건강보험공단 파주지사,경기 파주시 금촌동 986-4,37.751214494214,126.766465335325
3363,경기도 파주시 (가칭)새터중학교,,,
3364,세종특별자치시  창업벤처기업 보육공간,,,
3365,경기도 수원시 녹색교통회관,경기 수원시 팔달구 화서동 717,37.2862246576088,126.981057866251
3366,강원도 삼척시 국민건강보험공단 삼척지사,강원 삼척시 정상동 376-17,37.4384629806257,129.171679327373
3367,강원도 원주시 원주 중앙공원 문화예술회관,,,
3368,강원도 원주시 원주 중앙공원 배드민턴장,,,
3369,강원도 원주시 원주 중앙공원,강원 원주시 무실동 산 15-15,37.3267450773328,127.93403488384
3370,경기도 안산시 안산 시립 하나어린이집,경기 안산시 단원구 대부북동 1960-1,37.2721471904477,126.568251879778
3371,대구광역시 달서구 문화어울마당 쉼터조성 및 마을주차장 확충개선공사,,,
3372,울산광역시 울주군 중부 청소년수련관,울산 울주군 범서읍 구영리 210-6,35.5747660029128,129.24420793965
3373,경상남도 양산시 황산경로당,,,
3374,경상남도 양산시 백호경로당,,,
3375,충청남도 당진시 (가칭) 당진나래학교 신축공사,,,
3376,제주특별자치도 서귀포시 하예2(하예하동) 마을회관,제주특별자치도 서귀포시 하예동 1559-1,33.2365607296325,126.373147077373
3377,전라남도 보성군 주암호 유적답사길 명품 공중화장실,,,
3378,경상북도 안동시 명륜동주민센터,경북 안동시 안막동 64-71,36.5767129420731,128.732934524711
3379,전라남도 고흥군 고흥 치매안심 요양병원 확충(신축)공사,,,
3380,서울특별시 도봉구 계성경로당,서울 도봉구 쌍문동 378-33,37.6488132330049,127.026004179038
3381,경상남도 양산시 양산 석계2일반산업단지 공중화장실,,,
3382,경상북도 봉화군 행복나눔 파인토피아봉화,,,
3383,서울특별시 강남구 세곡복합문화센터,,,
3384,전라남도 여수시 여수진남상가 주차장,전남 여수시 교동 221,34.7412934502993,127.734874731122
3385,전라북도 김제시 김제시 치매안심센터,전북 김제시 요촌동 141-8,35.797259695185,126.888661648759
3386,경상북도 영주시 휴천2동 주민센터,경북 영주시 휴천동 667-2,36.8178125514928,128.625919455916
3387,경기도 용인시 경기남부경찰청 용인동부경찰서 서천파출소,,,
3388,울산광역시 남구 남구 장애인 행복일자리 지원센터,울산 남구 삼산동 1466-3,35.5446693988246,129.332965951002
3389,전라북도 정읍시 정읍 필야정 이전 신축공사,,,
3390,경기도 수원시 수원컨벤션센터,경기 수원시 영통구 하동 855-2,37.2854536483543,127.059990646272
3391,경기도 가평군 가평군 북면 행정복지센터,경기 가평군 북면 목동리 913-4,37.888122380831,127.549079820259
3392,전라남도 영암군 하정웅미술관 창작교육관,,,
3393,전라북도 장수군 평지마을회관,전북 장수군 장계면 명덕리 1498-2,35.7268715914687,127.632314847948
3394,전라북도 장수군 신기마을회관,전북 장수군 장계면 송천리 382-1,35.7346599958569,127.593732128207
3395,충청남도 계룡시 (가칭)어린이감성체험장,,,
3396,충청남도 계룡시 계룡시 공립(계룡상록) 어린이집,충남 계룡시 엄사면 도곡리 147-21,36.2684196000802,127.214028996828
3397,부산광역시 북구 야시고개 행복센터,부산 북구 구포동 1083-3,35.1989287430836,128.995042108691
3398,부산광역시 기장군 정관읍 복지회관,부산 기장군 정관읍 두명리 254-19,35.3617717681897,129.146280747237
3399,서울특별시 동작구 국공립 다원어린이집,서울 관악구 신림동 733,37.4718043296825,126.91228956853
3400,전라남도 목포시 유달아파트 인근 경로당,,,
3401,전라남도 목포시 용해동 인근 경로당,전남 목포시 용해동 954-98,34.794888593164,126.407240736
3402,전라남도 장흥군 장흥119안전센터 이전신축 기본 및 실시설계용역,,,
3403,경상북도 군위군 군위군 오천 보건진료소,경북 군위군 효령면 오천리 507-1,36.1879438841546,128.60593832006
3404,충청남도 홍성군 금마면 철마산 공중화장실,,,
3405,전라남도 곡성군 곡성 보훈회관,전남 곡성군 곡성읍 읍내리 824-1,35.2761438366661,127.289701253272
3406,경기도 화성시 화성동탄(2) 해무리공원 지하주차장 및 연결보행로 조사설계,,,
3407,전라북도 부안군 부안해양경찰서,전북 부안군 부안읍 동중리 120-12,35.7290119589261,126.736705402608
3408,경상북도 구미시 해평면 월호리 경로당,경북 구미시 해평면 월호리 453,36.2004687638712,128.392965219706
3409,경상북도 울진군 흥부생활체육시설 실내체육관,,,
3410,경상북도 김천시 개령어린이집,경북 김천시 개령면 신룡리 626,36.1568386480459,128.152314996423
3411,서울특별시 동작구 흑석동 도서관 복합시설,,,
3412,강원도 춘천시 석사동 행정복지센터 신축공사,,,
3413,경기도 광주시 광주시 신현초등학교,경기 광주시 오포읍 신현리 779-5,37.3567218904714,127.146338218549
3414,경기도 남양주시 화도 노인복지관,경기 남양주시 화도읍 묵현리 597-28,37.6554223751363,127.270256233789
3415,충청북도 괴산군 부흥보건지소,충북 괴산군 청안면 부흥리 204-3,36.7046967755041,127.730353664481
3416,제주특별자치도 제주시 비양도마을회경로당,,,
3417,전라남도 영암군 한국 트로트가요센터,전남 영암군 영암읍 회문리 42-6,34.7920816519419,126.684982985378
3418,전라남도 여수시 여수시 육아종합지원센터,전남 여수시 웅천동 1820-1,34.7496777103835,127.689764440152
3419,충청남도 아산시 가칭 월천(통합)유치원,,,
3420,서울특별시 영등포구 (가칭)윤중유치원,,,
3421,세종특별자치시  원리119지역대,세종특별자치시 조치원읍 원리 141-62,36.6020399789767,127.296495427468
3422,경상북도 청송군 청송군 안덕면 명당리 공중화장실,,,
3423,경상북도 영천시 영천시 말문화복합센터,,,
3424,경상남도 창원시 대산면보건지소,경남 창원시 의창구 대산면 제동리 822-2,35.3307355550627,128.708331438426
3425,경상남도 산청군 신안보건지소,경남 산청군 신안면 하정리 606-4,35.3040415167671,127.973919922849
3426,전라남도 화순군 이양면 농촌중심지 활성화사업 이양시장 공중화장실,,,
3427,전라남도 화순군 이양면 농촌중심지 활성화사업 만남의광장 공중화장실,,,
3428,경상남도 하동군 하동 금성파출소,,,
3429,강원도 원주시 원주시 행복드림센터,강원 원주시 판부면 서곡리 2026-7,37.3203766737182,127.941723659945
3430,서울특별시 중구 (가칭) 메리츠화재 봉래동 오피스,,,
3431,인천광역시 미추홀구 용비도서관,인천 미추홀구 용현동 615-5,37.4494030076062,126.640382119991
3432,경상남도 함안군 함안파출소,경남 함안군 함안면 북촌리 1002-8,35.2420134978787,128.422039447107
3433,전라남도 완도군 완도 수영장,전남 완도군 완도읍 군내리 319,34.31276088617,126.760472822097
3434,경기도 화성시 매향리 평화기념관,,,
3435,전라남도 함평군 함평전통시장 시설현대화사업,,,
3436,제주특별자치도 제주시 선흘 동백동산 에코촌 유스호스텔 야외화장실 및 안내실,,,
3437,제주특별자치도 서귀포시 평지동마을회관,제주특별자치도 서귀포시 대정읍 무릉리 973-1,33.2811049552465,126.223873775636
3438,경기도 양주시 양주도담학교,경기 양주시 옥정동 866-11,37.8338575475005,127.081317270298
3439,강원도 인제군 남면 신남1리 경로당,강원 인제군 남면 신남리 615-1,37.9706728737723,128.082850744758
3440,울산광역시 남구 노동복지센터,울산 남구 삼산동 1604-2,35.5343522863387,129.341307257325
3441,경상남도 사천시 사천시 장애인국민체육센터,경남 사천시 용현면 덕곡리 536-17,34.9968838930449,128.059912338244
3442,전라남도 강진군 강진군 지역활력 커뮤니티센터 신축공사,,,
3443,광주광역시 동구 지원1동 복합커뮤니티센터,광주 동구 소태동 486-1,35.1253019751399,126.935220428488
3444,전라남도 고흥군 점암면 강산지구 공중화장실 신축공사,,,
3445,경기도 의정부시 신곡지구대,경기 의정부시 의정부동 368,37.7334077191892,127.049251571634
3446,충청남도 태안군 태안군 수산식품산업 거점단지 조성사업-수산물직판장,,,
3447,경기도 용인시 용인 수지초등학교 증개축공사,,,
3448,경기도 안산시 성포동 행정복지센터,경기 안산시 상록구 성포동 593-1,37.3275900108156,126.844360578902
3449,대구광역시 달성군 대구테크비즈센터,대구 달성군 현풍읍 중리 507,35.6905915787595,128.456119612022
3450,충청남도 서산시 안산공원 복합커뮤니티센터,충남 서산시 대산읍 대산리 1742,36.9359781298418,126.430536262522
3451,서울특별시 동작구 아크로리버하임 2,서울 동작구 흑석동 335-1,37.5065983218011,126.966477625997
3452,경상남도 합천군 교동 노인복지시설,,,
3453,경상북도 봉화군 봉화 궁도장 조성사업,,,
3454,인천광역시 남동구 남동구 평생학습관,인천 남동구 만수동 984-6,37.4477200145497,126.733122014698
3455,강원도 평창군 헌충시설주변 화장실 신축공사,,,
3456,강원도 강릉시 송암리 경로당,강원 강릉시 성산면 송암리 142-4,37.7812160590542,128.837061379029
3457,경상남도 남해군 꽃내중학교,경남 남해군 삼동면 동천리 1104-1,34.8098246755723,128.036371690661
3458,부산광역시 동래구 온천2구역 치안센터,,,
3459,강원도 홍천군 야시대1리 벌촌경로당,,,
3460,경상북도 경산시 동부동 행정복지센터,경북 경산시 사동 189,35.8086909689964,128.755037256515
3461,제주특별자치도 제주시 봉개동 여가문화 교류거점 조성사업,,,
3462,대전광역시 대덕구 목상동 어린이도서관,대전 대덕구 목상동 210-7,36.4476632577384,127.415339874344
3463,충청남도 보령시 고남포 복합 문화복지 공간조성(수부2리 창조적 마을만들기),,,
3464,세종특별자치시  세종시 행정중심복합도시 상수도 통합관제센터,,,
3465,강원도 강릉시 금산2리 경로당,강원 강릉시 성산면 금산리 449,37.7399563221085,128.850626766097
3466,경상남도 거제시 거제 치유의숲 내 치유센터,,,
3467,경상북도 김천시 국제종자생명교육센터,경북 김천시 율곡동,36.1214163346642,128.183708300022
3468,경기도 평택시 가내초등학교,경기 평택시 죽백동 738,37.0065617361242,127.114395258249
3469,충청남도 천안시 천안 성정동 어린이공원 지하주차장 및 공중화장실,,,
3470,강원도 양양군 양양군 탁구장 건립공사,,,
3471,경기도 김포시 (가칭)마산서초등학교,,,
3472,경기도 군포시 군포3동 주민센터,경기 군포시 도마교동 478-2,37.3162296827148,126.923817120857
3473,강원도 강릉시 남양2리 경로당,강원 강릉시 옥계면 남양리 1167-4,37.5666446163719,129.012863759938
3474,경기도 성남시 위례신도시 8호선 추가역,,,
3475,강원도 홍천군 홍천읍 갈마곡1리 경로당,강원 홍천군 홍천읍 갈마곡리 417-10,37.6985015018489,127.895273893697
3476,전라남도 여수시 여수 수산시장 주변 공영주차장 신축공사,,,
3477,전라북도 남원시 김주열열사 생가 주차장 화장실 신축,,,
3478,강원도 동해시 부곡동 복합커뮤니티센터,,,
3479,강원도 동해시 동해소방서 청사,,,
3480,전라남도 여수시 화정면 개도 화산 통합터미널 조성공사,,,
3481,강원도 홍천군 홍천읍 진1리경로당,강원 홍천군 홍천읍 진리 31-1,37.6931494731384,127.890853523163
3482,강원도 홍천군 화촌면 농촌중심지활성화사업 청소년작은도서관,,,
3483,세종특별자치시  2-4생활권 복합커뮤니티센터,세종특별자치시 고운동 1382,36.5197094469914,127.236693127984
3484,경기도 용인시 용인 동백 공동주택-공공 문화시설,,,
3485,울산광역시 남구 울산테크노 산업단지 두왕 초등학교 신축공사,,,
3486,부산광역시 사하구 국민건강보험공단 부산사하지사 사옥,,,
3487,충청남도 서산시 서해안 안전체험관,충남 서산시 잠홍동 335-19,36.7903302199815,126.486527155174
3488,서울특별시 동작구 동작구 종합행정타운(복합청사),,,
3489,경기도 수원시 수원시 사회복지타운,경기 수원시 장안구 조원동 119-3,37.309580013682,127.010855898545
3490,경기도 김포시 은여울초등학교,경기 김포시 마산동 640-6,37.6381454387763,126.640636793832
3491,전라북도 정읍시 내장산 천하대장군 공중화장실,,,
3492,전라북도 전주시 국민연금공단 지방이전 제2사옥,,,
3493,경상남도 창원시 웅천중학교 교사 신축공사,,,
3494,서울특별시 구로구 구로 기적의 도서관,서울 구로구 신도림동 400-6,37.5068394019251,126.87740104892
3495,부산광역시 사상구 주례1동 우체국,부산 사상구 주례동 692-37,35.1512391416129,128.997367304321
3496,부산광역시 기장군 (가칭)빛물꿈 종합사회복지관,,,
3497,부산광역시 북구 덕천2동 행정복지센터,부산 북구 덕천동 382-7,35.2112286747191,129.008751079866
3498,경상남도 함안군 함안군 청소년 문화의 집,경남 함안군 칠원읍 오곡리 113-2,35.2766396658981,128.52079407439
3499,경기도 이천시 마장 건강생활지원센터 건립공사,,,
3500,대구광역시 북구 시민운동장 축구전용경기장,,,
3501,전라북도 장수군 장수 대덕마을 창조적 마을만들기,,,
3502,서울특별시 노원구 중계마을 복지센터,서울 노원구 중계동 157-74,37.6590542428924,127.073319693817
3503,충청남도 천안시 청당2공원 화장실 설치공사,,,
3504,서울특별시 노원구 시립노원청소년 직업체험센터,서울 노원구 하계동 224-9,37.6415617066369,127.073097985188
3505,경상북도 포항시 상도동 경로당,경북 포항시 남구 상도동 18-63,36.0166084931494,129.357827541031
3506,제주특별자치도 제주시 광령2리 노유자시설,,,
3507,전라남도 영광군 영광법성포단오제 전수교육관,전남 영광군 법성면 진내리 642-10,35.3627451270066,126.436049011366
3508,충청북도 청주시 충청북도 근로자종합복지관,충북 청주시 서원구 장성동 115-11,36.5928065590212,127.477589106155
3509,서울특별시 금천구 시흥5동 복합청사,서울 금천구 시흥동 910-5,37.4507628992879,126.90835453431
3510,경기도 수원시 권선파출소,경기 수원시 권선구 권선동 1012,37.2614651839332,127.027847959145
3511,전라북도 임실군 오수 의견공원 공중화장실,전북 임실군 운암면 마암리 504-36,35.6188363379033,127.104345045012
3512,강원도 평창군 국민건강보험공단 평창영월지사,강원 평창군 평창읍 종부리 505-4,37.3595027043905,128.388965165784
3513,세종특별자치시  차오름 어린이집,세종특별자치시 어진동 651,36.4973346385503,127.266416043965
3514,경상남도 합천군 합천가야초등학교,경남 합천군 가야면 황산리 72-1,35.7570661670502,128.135444852353
3515,강원도 홍천군 서석면 청량2리경로당,강원 홍천군 서석면 청량리 389-6,37.67848983408,128.207694469671
3516,경기도 군포시 반월호수 공영주차장 조성공사(둔터지구),,,
3517,경기도 화성시 동탄5동 행정복지센터,경기 화성시 영천동 539-9,37.209948411696,127.103840694619
3518,전라남도 여수시 특수교 관리센터 여수사무소,전남 여수시 돌산읍 우두리 816,34.7304664947183,127.736831419138
3519,전라남도 나주시 매성유치원,전남 나주시 산포면 매성리 199,35.0342620079537,126.805689331145
3520,경기도 수원시 선거장비 지원센터,,,
3521,경상북도 봉화군 봉화군 농축임산물 전시판매장,,,
3522,경기도 오산시 내삼미동 드라마세트장 웰컴센터,,,
3523,울산광역시 울주군 서생 진하2리경로당,울산 울주군 서생면 진하리 82-7,35.3838656404223,129.341804019162
3524,울산광역시 울주군 두동 계당경로당,울산 울주군 두동면 봉계리 771-12,35.7076714841603,129.204310252842
3525,울산광역시 울주군 상북 지곡경로당,울산 울주군 상북면 거리 938-1,35.5908541270702,129.067394359847
3526,서울특별시 노원구 노원구 청소년 상담복지센터 신축공사,,,
3527,전라북도 정읍시 애국지사 박준승기념관,,,
3528,인천광역시 서구 장애인 생산품 판매시설,인천 서구 원창동 381-124,37.5100544978018,126.644641635675
3529,경상북도 영천시 영천경찰서 동부지구대,경북 영천시 망정동 417-42,35.9874915718133,128.95690386498
3530,제주특별자치도 제주시 금능해수욕장 샤워탈의장 및 종합상황실,,,
3531,강원도 영월군 주천면 청소년 문화의집,강원 영월군 주천면 주천리 897-9,37.272124750244,128.265203859379
3532,제주특별자치도 제주시 조천 청소년 문화의집,제주특별자치도 제주시 조천읍 조천리 3159,33.5340325442034,126.633825351237
3533,경기도 부천시 부천소사경찰서,경기 부천시 송내동 601,37.4809750342942,126.772503902725
3534,충청북도 옥천군 구일소류지 공중화장실,,,
3535,경상남도 의령군 의령문화원사,,,
3536,경상북도 청송군 현동면 당포 경로당,경북 청송군 현동면 개일리 265,36.2537026621211,129.025266369195
3537,서울특별시 강동구 길동복합청사,서울 강동구 길동 228-6,37.5346937808062,127.142598241962
3538,충청북도 음성군 생극우체국,충북 음성군 생극면 신양리 448-3,37.0345206029192,127.605189115313
3539,강원도 홍천군 홍천 구만리 창조적 마을 만들기 사업,,,
3540,광주광역시 동구 광주동구 보듬이나눔이 어린이집,,,
3541,서울특별시 강서구 마곡 어린이집,서울 강서구 마곡동 744,37.56230033929,126.819169157728
3542,서울특별시 강북구 동북권 아동.청소년 예술교육센터 및 강북구 종합체육센터,,,
3543,울산광역시 남구 부산~울산 복선전철 태화강역사,,,
3544,경기도 평택시 평택시 세교지구 공원화장실2,,,
3545,경기도 평택시 평택시 세교지구 공원화장실1,,,
3546,충청남도 부여군 부여국유림관리소 청사,,,
3547,경기도 남양주시 경기도 구리남양주 교육지원청사,,,
3548,서울특별시 영등포구 신길14정비촉진구역 주택재개발정비사업조합,,,
3549,제주특별자치도 제주시 올레 13코스 공중화장실,,,
3550,강원도 강릉시 탑동 경로당,강원 강릉시 왕산면 도마리 31-1,37.6617052049937,128.847845844466
3551,경상북도 경주시 황남초등학교,경북 경주시 용강동 1675,35.8847602630835,129.229674618309
3552,충청남도 부여군 부여군 꿈자람 지역아동센터,,,
3553,대구광역시 북구 (가칭)대구장애학생특성화고등학교,,,
3554,경상북도 고령군 다산습지관찰원 화장실,,,
3555,경상북도 고령군 호촌늪 화장실,,,
3556,대구광역시 중구 한방의료체험타운,대구 중구 종로2가 39-1,35.8681914765542,128.59097169292
3557,울산광역시 동구 울산 VR/AR 제작지원센터,울산 동구 일산동 944-6,35.500878487863,129.431281223855
3558,경기도 수원시 행궁광장 공중화장실,,,
3559,경기도 용인시 (가칭)아곡유치원 신축공사,,,
3560,인천광역시 중구 (가칭)하늘6고등학교,,,
3561,경상남도 함양군 내동마을 공동화장실,,,
3562,인천광역시 연수구 (가칭)해양4초등학교,,,
3563,인천광역시 동구 원괭이 새뜰마을 주민커뮤니티센터,,,
3564,충청남도 홍성군 구항보건지소,충남 홍성군 구항면 오봉리 726-1,36.5876856747262,126.610402170777
3565,세종특별자치시  연동면 복합커뮤니티센터,세종특별자치시 연동면 내판리 33-1,36.5552346971422,127.327397360503
3566,충청남도 홍성군 봉서보건진료소,충남 홍성군 금마면 봉서리 산 586-2,36.6062972201543,126.749994330886
3567,전라북도 정읍시 정읍시 정우면 농업인상담소 신축공사,,,
3568,경상남도 창원시 창원시립단기청소년쉼터(여자),,,
3569,부산광역시 강서구 부산농업기술센터,부산 강서구 대저1동 2426-2,35.2131798236586,128.986577445515
3570,부산광역시 중구 오르미 복합문화주차타워,,,
3571,제주특별자치도 제주시 월정리 어촌해양관광센터 신축공사,,,
3572,경기도 안산시 와동 기쁨어린이공원 지하주차장 조성사업,,,
3573,인천광역시 옹진군 옹진백령 공공실버주택,,,
3574,경상북도 포항시 포항시 남구 해도동 경로당,경북 포항시 남구 해도동 30-2,36.0224204224829,129.375365062577
3575,충청북도 진천군 광혜원 문화복지회관,,,
3576,울산광역시 동구 울산동부경찰서 직장어린이집,,,
3577,전라남도 여수시 여수경찰서 직장어린이집,,,
3578,경기도 성남시 분당경찰서 직장어린이집,,,
3579,경기도 김포시 김포경찰서 풍무파출소,경기 김포시 풍무동 154-6,37.6070860862043,126.727993138825
3580,강원도 횡성군 횡성 장애인 어울림 게이트볼장,강원 횡성군 횡성읍 북천리 119,37.4956927052264,127.991664433276
3581,인천광역시 남동구 도림고등학교,인천 남동구 도림동 562-3,37.4212124929338,126.718753382505
3582,전라남도  광양경찰서 진상파출소,전남 광양시 진상면 섬거리,35.0230048152572,127.713271502583
3583,충청북도 청주시 양청초등학교,충북 청주시 청원구 오창읍 양청리,36.7231242153344,127.431882208368
3584,강원도 고성군 문암진리 해풍그늘 들살이마당 조성사업,,,
3585,경기도 화성시 (가칭)동탄7도서관,,,
3586,부산광역시 서구 서구 가족센터,부산 서구 토성동5가 56-4,35.0963358889247,129.022054370281
3587,광주광역시 북구 광주역 다사로움,,,
3588,서울특별시 금천구 금천소방서,서울 금천구 독산동 1054-8,37.4642874628285,126.89802622809
3589,경기도 군포시 샘물경로당,경기 군포시 당정동 974-8,37.3482529384305,126.955558366636
3590,경상북도 구미시 구미경찰서 봉곡파출소,,,
3591,서울특별시 송파구 구립 방이어린이집,서울 송파구 방이동 141-8,37.5109033671178,127.116834703218
3592,서울특별시 영등포구 문래동 제2어린이집,서울 영등포구 문래동5가 3-4,37.5164471915069,126.887474908873
3593,강원도 원주시 남원주건강생활지원센터,강원 원주시 단구동 1699-2,37.3163704958376,127.957337201898
3594,대구광역시 북구 대구패션창조거리,,,
3595,부산광역시 연제구 연제종합사회복지관,부산 연제구 연산동 2022-374,35.1727378666898,129.088844473863
3596,경기도 부천시 부천 강남시장 공영주차장,경기 부천시 도당동 248-1,37.5076021649074,126.779244913708
3597,인천광역시 남동구 식품영양복지지원센터,인천 남동구 만수동 984-1,37.4481304769871,126.732188892492
3598,서울특별시 서대문구 서대문구 보훈회관,서울 서대문구 연희동 138-66,37.5747338022708,126.935089440927
3599,경상북도 청송군 안덕면 복지회관,경북 청송군 안덕면 명당리 368-1,36.2879145990942,128.956348927811
3600,충청북도 충주시 충주 보훈회관,충북 충주시 지현동 1800-34,36.9588482381924,127.931021387986
3601,경기도 포천시 포천시 보훈회관,경기 포천시 군내면 구읍리 714-2,37.8916775121979,127.202716426987
3602,경기도 수원시 만석공원 테마화장실,,,
3603,전라남도 고흥군 고흥군 치매안심센터,전남 고흥군 고흥읍 등암리 1258-21,34.5924263848061,127.268677670706
3604,강원도 원주시 원주의료원 부설주차동,강원 원주시 개운동 435-3,37.3337593098886,127.949042128959
3605,대구광역시 남구 봉덕1동 행정복지센터,대구 남구 봉덕동 540-1,35.8438438324201,128.60110938673
3606,경상남도 거제시 경상남도 수산안전기술원 거제지원,경남 거제시 거제면 서정리 773-13,34.8492654773273,128.583224331557
3607,경기도 화성시 화성시 평생학습관,경기 화성시 능동 1152,37.2000975861088,127.055839920878
3608,강원도 삼척시 초곡항 공동화장실,,,
3609,제주특별자치도 제주시 탑동 제2공원 화장실,,,
3610,전라북도 익산시 익산경찰서 직장어린이집,,,
3611,경상북도 의성군 의성 청소년 문화의 집,경북 의성군 의성읍 후죽리 508-1,36.3533218279341,128.696477959747
3612,경상북도 안동시 웅부중학교,경북 안동시 도산면 온혜리 923,36.7491601962662,128.823670976444
3613,부산광역시 강서구 부산장애인직업재활시설,부산 강서구 대저1동 1318-7,35.2189831464646,128.966882762071
3614,충청남도 천안시 천안시 종합사회복지관,충남 천안시 동남구 삼룡동 332-1,36.7809261664675,127.164439435942
3615,경상북도 상주시 모서면 연화사 공중화장실,,,
3616,전라남도 해남군 해남공공도서관,전남 해남군 해남읍 구교리 347,34.5746965762601,126.594901988091
3617,전라남도 담양군 담양에코센터,전남 담양군 담양읍 학동리 672,35.3227794415449,127.005825142999
3618,전라남도 신안군 다도해서부 비금도초분소,,,
3619,경상북도 경주시 황성공원내 물놀이장 관리실 및 화장실,,,
3620,경상북도 포항시 포항 지식산업센터,경북 포항시 북구 흥해읍 이인리 산 64-4,36.0612983924473,129.318798843382
3621,인천광역시 남동구 (가칭)논현도서관,,,
3622,강원도 고성군 사계절 4D 해양모험센터,,,
3623,경기도 하남시 하남시 차량등록사무소,경기 하남시 신장동 521-3,37.5415384765064,127.214379862024
3624,인천광역시 연수구 (가칭) 해양 1 중학교,,,
3625,강원도 인제군 텃말 샤워장 신축공사,,,
3626,충청북도 괴산군 사리면 예비군중대본부,,,
3627,충청북도 괴산군 감물면 농촌중심지 활성화사업 공중화장실,,,
3628,울산광역시 북구 평생학습관,울산 북구 연암동 1118-2,35.5844888316188,129.361724753547
3629,인천광역시 중구 미단시티 근린공원2호 화장실,,,
3630,경상남도 창원시 마산회원노인종합복지관,경남 창원시 마산회원구 석전동 274-8,35.2305852085583,128.569449170398
3631,서울특별시 구로구 나라키움 구로 복합관사 개발사업,,,
3632,경기도 용인시 중앙동 행정복지센터,경기 용인시 처인구 김량장동 296-41,37.2345300489513,127.204923075059
3633,경상북도 포항시 포항 장성동 경로당,경북 포항시 북구 장성동 1560-1,36.077878836953,129.384588165955
3634,충청남도 보령시 보령소방서 청사,,,
3635,강원도 화천군 화천군 농업기술센터,강원 화천군 상서면 신풍리 809,38.1157247943352,127.681894143174
3636,제주특별자치도 서귀포시 위미1리 주민복지시설,,,
3637,제주특별자치도 서귀포시 신흥2리 노인복지시설(경로당),,,
3638,경기도 화성시 새솔동새솔동 행정복지센터,경기 화성시 새솔동 98,37.2811826457697,126.818775714376
3639,전라남도 여수시 서교동 공영주차장,전남 여수시 서교동 280,34.7418000779544,127.728596283055
3640,강원도 정선군 정선군 장애인보호작업장,강원 정선군 정선읍 애산리 432-309,37.3822539450917,128.673436169519
3641,광주광역시 북구 금곡마을 공중화장실,,,
3642,강원도  홍천 네트워크활성화 문화터미널,,,
3643,강원도  횡성군 안흥면 농촌중심지 활성화사업(복합복지 문화센터),,,
3644,전라남도  목포항(연안포함) VTS,,,
3645,전라남도  장성읍 북부보건지소 신축공사,,,
3646,전라남도 해남군 대한노인회 해남군지회 신축공사,,,
3647,전라북도  고창 국공립어린이집 이전 신축공사,,,
3648,경상남도  축동 가산마을 창조적마을 만들기사업,,,
3649,전라북도  정읍시 장애인이용시설,,,
3650,경상북도  김천소방서,경북 김천시 양천동 540-1,36.1068146956935,128.122727607957
3651,경기도  광암 이벽 유적지,,,
3652,경상남도 산청군 내대보건진료소,경남 산청군 시천면 내대리 587-15,35.2778437963113,127.747034163433
3653,경상남도  자은동 민원센터,경남 창원시 진해구 자은동 147,35.1537885214702,128.71316945803
3654,경상북도  청소년 문화의집 및 청년 창업플랫폼,,,
3655,경상북도 포항시 북구청 및 문화팩토리,,,
3656,서울특별시 강서구 강서문예회관,,,
3657,제주특별자치도 제주시 납읍리 마을회관,제주특별자치도 제주시 애월읍 납읍리 1605-1,33.4383717010714,126.330915976523
3658,경기도  (가칭)고촌고등학교,,,
3659,대구광역시  수성알파시티 스마트비즈니스센터,,,
3660,경상남도  사천시 치매안심센터,경남 사천시 벌리동 104-1,34.944301736228,128.081175840386
3661,전라남도  보성군 율어면사무소,전남 보성군 율어면 문양리 265-3,34.8707366602337,127.186951323735
3662,충청남도  소원면 공립형 지역아동센터,,,
3663,서울특별시 성북구 장위석관지역 세대통합 보건지소,,,
3664,제주특별자치도 제주시 옹포리 마을주민회관,,,
3665,경상남도  죽전마을 바람쉼터 화장실,,,
3666,경상북도  영양 화천리 삼층석탑 화장실,,,
3667,경상북도  임봉보건진료소,경북 구미시 산동읍 봉산리 205-17,36.1394892098711,128.459651927981
3668,경상남도 진주시 숙호산 등산로변 화장실 신축공사,,,
3669,경상남도 진주시 석갑산 등산로변 화장실 신축공사,,,
3670,서울특별시 성동구 성동구 육아종합지원센터 신축공사,,,
3671,경상남도 진주시 월아산 등산로변 화장실 신축공사,,,
3672,울산광역시 울주군 옹기마을 6차 산업 발효식품관,,,
3673,경기도  사이동 주민커뮤니티센터,경기 안산시 상록구 사동 1502,37.2784336545203,126.851002553687
3674,충청남도  삽교호관광지 공중화장실 및 관리창고,,,
3675,제주특별자치도 서귀포시 일과1리 노인회관,제주특별자치도 서귀포시 대정읍 일과리 28,33.2329977027053,126.244129176072
3676,경기도  화성서부경찰서 비봉파출소,,,
3677,충청북도  증평종합운동장 건립사업,,,
3678,경상북도  임고면 농촌중심지 활성화사업(문화센터),,,
3679,경상북도  도계권역단위 종합개발사업 신리마을회관,,,
3680,경상북도  도계권역단위 종합개발사업 효센터,,,
3681,제주특별자치도 제주시 금악리 마을회관,제주특별자치도 제주시 한림읍 금악리 2134-1,33.3598956367631,126.294386522205
3682,세종특별자치시  지방자치회관,세종특별자치시 조치원읍 교리 21-1,36.6031468009938,127.300686537177
3683,경상북도 영천시 화남면 다목적회관,경북 영천시 화남면 삼창리 850,36.0589854050074,128.889944550411
3684,충청남도  태안 동학농민혁명기념관,,,
3685,경기도  경기도 공공산후조리원,경기 여주시 상동 357,37.2943726362734,127.639666930392
3686,경기도  세류1동 분회경로당,경기 수원시 권선구 세류동,37.262117386159,127.008053643212
3687,경기도  세류1동 분회경로당,경기 수원시 권선구 세류1동,37.2621966842977,127.007958955864
3688,경기도  세류1동 분회경로당,경기 수원시 권선구 세류2동,37.2533515935548,127.013048456235
3689,경기도  세류1동 분회경로당,경기 수원시 권선구 세류3동,37.2590571183931,127.011926665429
3690,경상북도  청송군 부동면 라리경로당,경북 청송군 주왕산면 라리 652-11,36.3207888281295,129.189920695253
3691,인천광역시 부평구 십정2동 동암남부 경로당,,,
3692,경상북도  성주군 월항주차공원 공중화장실,,,
3693,대구광역시 달성군 달성습지 생태학습관,대구 달성군 화원읍 구라리 862,35.8160761227283,128.48626193382
3694,전라남도  송월동 행정복지센터,전남 나주시 송월동 1356,35.0171761923597,126.71705991636
3695,경상북도  성주군 청년창업 LAB 조성사업,,,
3696,경상남도  창원시 의창구청,경남 창원시 의창구 도계동 895,35.2538079754887,128.640158710673
3697,경상북도  대가야의 목금토-꿈꾸는 시간 여행자센터,,,
3698,전라남도 화순군 화순내수면 양식단지,,,
3699,부산광역시  송정경로당,부산 기장군 철마면 송정리 577-2,35.3047266816948,129.111561536233
3700,강원도  달방수변공원 공중화장실,강원 동해시 이로동 863,37.5040786560393,129.040495853413
3701,경상남도  비봉산 정상부근 공중화장실,,,
3702,제주특별자치도 제주시 신창항 다이버 체험학습장 지원센터,,,
3703,전라북도  격포항 채석강 갤러리 공중화장실,,,
3704,강원도  고한시네마,강원 정선군 고한읍 고한리 63-55,37.1993894689688,128.856972288164
3705,광주광역시  광산농악 전수교육관 건립공사,,,
3706,전라남도  영암군 재활 및 치매안심센터,,,
3707,전라남도  가정역 주차장,전남 곡성군 오곡면 송정리 64,35.2309414908866,127.369320589491
3708,전라남도  보성군 예당어린이집,전남 보성군 득량면 예당리 458-34,34.7795066090807,127.199014257046
3709,대구광역시 수성구 SW융합테크비즈센터,대구 수성구 대흥동 848-1,35.8352785866512,128.682375032787
3710,강원도  명태웰빙 농수산물판매장 및 힐링센터,,,
3711,경상북도  본촌동 경로당,경북 영천시 본촌동 619,35.9248746912843,128.953056501699
3712,경상북도  대창분회 경로당,,,
3713,경상북도  쌈지공원 공중화장실,,,
3714,경상북도  산내면 행정복합타운,경북 경주시 산내면 의곡리 138-4,35.7555227917994,129.044590726394
3715,제주특별자치도 제주시 제주시 민속오일시장 화장실,제주특별자치도 제주시 도두일동 1212,33.4966125474966,126.474310588115
3716,서울특별시 강동구 천호동 마을활력소,서울 강동구 천호동 29-5,37.5483690639357,127.141692056139
3717,충청북도  보은군 치매안심센터,충북 보은군 보은읍 삼산리 172-2,36.4870405446967,127.715545246366
3718,충청남도  보령해양경찰서 장항파출소,충남 서천군 장항읍 장암리 435,36.0079179727704,126.663646437702
3719,충청북도  충주시 아동청소년센터 건립공사,,,
3720,전라북도  거마공원 공중화장실,전북 전주시 완산구 삼천동1가 176-2,35.7992921871335,127.120716720304
3721,경기도  서농도서관,경기 용인시 기흥구 서천동 335-2,37.2468656245261,127.073444694734
3722,제주특별자치도 서귀포시 성읍민속마을 매표소(관리소),,,
3723,제주특별자치도 제주시 나라키움 제주복합관사,제주특별자치도 제주시 이도이동 1860-1,33.4963187183468,126.532748557348
3724,"인천광역시  도화2,3동 행정복지센터",인천 미추홀구 주안동 266-1,37.4637711198267,126.676645881955
3725,서울특별시 송파구 송파구 청소년 문화의집,서울 송파구 잠실동 194-7,37.5096394935796,127.080134292377
3726,충청북도  예심하우스,충북 청주시 상당구 남일면 신송리 416-1,36.5756071931147,127.494563800796
3727,경상남도  호산 노인복지시설,,,
3728,강원도  평창군 보건의료원,강원 평창군 평창읍 하리 233,37.3690622182871,128.390743123367
3729,제주특별자치도 제주시 전천후육상경기장,,,
3730,경상북도  삼구정공원 공중화장실,,,
3731,대전광역시 유성구 유성경찰서 상대파출소,,,
3732,제주특별자치도 서귀포시 서귀포 소방서 중문119센터,제주특별자치도 서귀포시 회수동 641-8,33.2541784578199,126.438032755413
3733,부산광역시 영도구 중앙해양특수구조단 청사 및 훈련시설,,,
3734,경상북도  비안면 이두2리 경로당,경북 의성군 비안면 이두리 230-1,36.3378058793641,128.4946048559
3735,경상북도  옥산면 구성1리 경로당,경북 의성군 옥산면 구성리 444-5,36.3931561199019,128.809596289507
3736,경기도 남양주시 진건·퇴계원 행정복지센터 복지동,,,
3737,전라남도  장흥경찰서 대덕파출소,전남 장흥군 대덕읍 신월리 118-14,34.4993165755366,126.888494706356
3738,제주특별자치도 제주시 협재해수욕장 공중화장실,,,
3739,경기도  전통시장 창업경제타운 조성사업,,,
3740,제주특별자치도 서귀포시 농업기술원 야외화장실,,,
3741,제주특별자치도 서귀포시 감산리 전천후게이트볼장,,,
3742,제주특별자치도 서귀포시 서귀포시 제1청사 별관,제주특별자치도 서귀포시 서홍동 440-1,33.2539840951257,126.559992263106
3743,경기도 의정부시 의정부시 송산2동 공공복합청사,,,
3744,전라남도  미암면 생태숲 화장실,,,
3745,전라남도  청년상인 창업점포,,,
3746,강원도  홍천군 서면 중방대리 경로당,,,
3747,경상남도  함양문화원,경남 함양군 함양읍 교산리 337,35.5280890622789,127.728830358116
3748,경기도  국민건강보험공단 평택지사,경기 평택시 고덕면 여염리 4227-2,37.0559364766512,127.048421842984
3749,전라남도  담양군 외추보건진료소,전남 담양군 금성면 외추리 98,35.3208279024254,127.031387073821
3750,충청북도  이천~충주 철도건설 221역사,,,
3751,충청북도  이천~충주 철도건설 112역사,,,
3752,경기도  이천~충주 철도건설 111역사,,,
3753,전라남도 구례군 효곡보건진료소,전남 구례군 간전면 효곡리 366-6,35.1391102442611,127.541131443831
3754,서울특별시 종로구 창덕궁 종합관람지원센터,서울 종로구 와룡동 4-1,37.5777832982016,126.989508413607
3755,경기도  (가칭)의왕특수학교,,,
3756,제주특별자치도 서귀포시 말문화시설(헌마공원 김만일기념.전시관),,,
3757,경기도  광주역세권 도시개발사업 중 지하주차장 설계,,,
3758,강원도  철정1리 경로당,강원 홍천군 두촌면 철정리 1246-46,37.8069992255534,127.990161939211
3759,경기도  군포시 국민체육센터,경기 군포시 부곡동 1226,37.339193458146,126.935609686819
3760,경상북도  의성군 종합지원센터,경북 의성군 의성읍 철파리 418-36,36.3583980178173,128.681126553078
3761,서울특별시 동작구 상도은빛어르신복지관,서울 동작구 상도1동 535,37.506488530305,126.951317831393
3762,부산광역시  해운대 기술교육원,부산 해운대구 재송동 1061-9,35.1880302683156,129.125190264285
3763,전라북도  임실 농촌 공공도서관,,,
3764,경기도  도척근린공원 다목적체육관 중축공사,,,
3765,인천광역시 강화군 강화여자중학교,인천 강화군 강화읍 갑곳리 155-1,37.7444847494109,126.495415431761
3766,충청북도  금수산 힐링체험관,,,
3767,"인천광역시 강화군 신문1,3리 경로당 신축공사",,,
3768,경기도  김포향산초중학교,경기 김포시 고촌읍 향산리 29-4,37.6193402174253,126.74935151574
3769,경상북도  정부경북지방합동청사,경북 예천군 호명면 금능리 743,36.5775712443092,128.467032816778
3770,경기도  상면파출소,경기 가평군 상면 연하리 171-31,37.8048790140544,127.357395753976
3771,경기도  용인 역북지구 문화공원 공중화장실,,,
3772,경상북도  진안 유 휴양촌(명상수련원),,,
3773,경상북도  진안 유 휴양촌(체험시설),,,
3774,경상북도  진안 유 휴양촌(상업시설),,,
3775,전라남도  황산면사무소,전남 해남군 황산면 우항리 422-4,34.5767776441642,126.436428914239
3776,경상북도  경주 경찰서 용강 파출소,경북 경주시 용강동 884,35.8682153304091,129.224554371147
3777,충청남도  계룡시 종합사회복지관 신축공사,,,
3778,경기도  시흥시 거점형 공공직장어린이집,,,
3779,경기도  군포산업진흥원 및 어린이집,,,
3780,충청남도  홍성경찰서 내포지구대,,,
3781,충청남도  보령 농산물 종합가공 지원센터,,,
3782,경상북도 경주시 건천읍 행정복합타운,경북 경주시 산내면 의곡리 138-4,35.7555227917994,129.044590726394
3783,강원도  강릉시 교2동 화부산 경로당,강원 강릉시 교동 896-3,37.7603767221519,128.89181758601
3784,강원도  성산면 위촌1리 경로당,,,
3785,경기도  전방사무소,경기 연천군 청산면 백의리 826-29,38.0219966421227,127.137670739724
3786,서울특별시 마포구 서울서부지방법원 등기국,서울 마포구 아현동 783,37.5520732195689,126.954836700165
3787,충청남도  천안시 장애인종합복지관,충남 천안시 서북구 두정동 1843,36.8386050314819,127.131198196942
3788,경상북도  청룡공원 공중화장실,,,
3789,전라남도 나주시 (가칭)도담유치원,,,
3790,서울특별시 도봉구 김근태 기념도서관,,,
3791,서울특별시 마포구 염리종합사회복지관,서울 마포구 염리동 520,37.5489644901254,126.946797287521
3792,인천광역시 중구 (가칭) 하늘5 초등학교 신축공사,,,
3793,경기도 양주시 경기북부 장애인복지종합지원센터,,,
3794,경기도 파주시 동패초등학교,경기 파주시 동패동 1782,37.712343686882,126.734554365419
3795,서울특별시 마포구 시립마포 실버케어센터,,,
3796,강원도 강릉시 대전경로당,강원 강릉시 대전동 487-3,37.7910567726724,128.850271324745
3797,경기도 의정부시 의정부 고산 제1초등학교,,,
3798,울산광역시 북구 메아리동산 재활관,,,
3799,울산광역시 남구 울산해양경찰서 울산항파출소,울산 남구 매암동 139-65,35.5038661895866,129.386821020731
3800,서울특별시 관악구 구립 어울림 경로당 신축설계,,,
3801,강원도 철원군 철원문화원,강원 철원군 동송읍 이평리 730-8,38.2011446931443,127.220265726168
3802,강원도 동해시 묵호항여객선터미널 공중화장실,,,
3803,경기도 수원시 유천경로당,경기 수원시 권선구 세류3동 344-13,37.2622253179845,127.010517888155
3804,충청남도 홍성군 충남공감마루 건립공사,,,
3805,강원도 양양군 오색 자연휴양 체험지구 정비사업 오색주차장1,,,
3806,제주특별자치도 제주시 남사경로당 신축사업,,,
3807,전라남도 목포시 국민건강보험공단 목포지사 사옥,,,
3808,경상남도 합천군 초계시장 공영화장실,,,
3809,울산광역시 북구 송정경로당,울산 북구 송정동 1236-4,35.6052846858234,129.368424355213
3810,부산광역시 연제구 연제구청 직장어린이집,,,
3811,전라북도 정읍시 감곡문화체육센터,전북 정읍시 감곡면 방교리 605-7,35.7137109667891,126.926135545773
3812,충청북도 제천시 백운 덕동계곡 관광편의시설 확충사업 신축공사,,,
3813,서울특별시 은평구 수색동 주민센터,서울 은평구 수색동 363-12,37.583466984099,126.893745890633
3814,경기도 평택시 (가칭)용죽초등학교,,,
3815,경상북도 울진군 영덕세무서 울진지서,경북 울진군 울진읍 읍내리 347,36.9898463947559,129.396411957385
3816,경상남도 통영시 통영시 두억보건진료소,경남 통영시 한산면 두억리 247,34.7850013031824,128.479606578848
3817,충청남도 천안시 천변공원 화장실 설치공사,,,
3818,서울특별시 동작구 신대방1동 구립데이케어센터,서울 동작구 신대방동 693-10,37.4868792420001,126.910660136911
3819,서울특별시 중구 서울중앙지사 복합시설(2동),,,
3820,서울특별시 강서구 강서구 마곡지구 마곡광장,,,
3821,경상북도 청송군 파천면 신기2리 경로당,,,
3822,경상북도 포항시 유강3어린이공원 공중화장실,,,
3823,경상북도 청송군 진보면 고현리 경로당,경북 청송군 진보면 고현리 124-9,36.5218635522539,129.108195598668
3824,강원도 홍천군 광원 보건진료소,강원 홍천군 내면 광원리 779-8,37.8294543492839,128.444236372736
3825,전라남도 여수시 이순신대교 전망대 공중화장실,,,
3826,전라남도 여수시 어르신 다목적체육센터,,,
3827,제주특별자치도 제주시 용담 생활문화센터,제주특별자치도 제주시 용담이동 906-1,33.5107133005938,126.502134910985
3828,대구광역시 서구 서대구역사,대구 서구 평리동 627-5,35.8757407642291,128.550634767479
3829,경상북도 구미시 사곡역사,경북 구미시 상모동 171,36.0885747092911,128.348658782454
3830,제주특별자치도 제주시 (가칭)장애인회관,,,
3831,충청남도 서천군 서천군 보건소 비인지소,충남 서천군 비인면 성내리 313-1,36.1414226036585,126.601390419493
3832,충청남도 천안시 신풍1리 경로당,,,
3833,강원도 원주시 원주경찰서 직장어린이집,강원 원주시 행구동 1832-25,37.3454685344143,127.978116472626
3834,경상북도 청송군 현서면 공중화장실,경북 군위군 삼국유사면 양지리 59-2,36.1684180881527,128.837430241689
3835,대구광역시 달서구 월성수복정경로당,대구 달서구 월성동 273,35.8324469380722,128.530447885264
3836,경상남도 진주시 숲속 어린이도서관,,,
3837,경상남도 밀양시 남천공원 공중화장실,,,
3838,대구광역시 달성군 포산중학교,대구 달성군 현풍읍 대리 407-2,35.660286457638,128.431844122603
3839,대구광역시 달성군 포산중학교,대구 달성군 현풍읍 부리 407-2,35.6971188025399,128.446664788892
3840,대구광역시 달성군 포산중학교,대구 달성군 현풍읍 성하리 407-2,35.6994745162602,128.440646281066
3841,대구광역시 달성군 포산중학교,대구 달성군 현풍읍 원교리 407-2,35.6829419617091,128.447405653936
3842,대구광역시 달성군 포산중학교,대구 달성군 현풍읍 중리 407-2,35.690384011944,128.448121730456
3843,경기도 동두천시 35호 어린이공원 화장실,,,
3844,충청북도 충주시 충주시 육아종합지원센터,충북 충주시 금릉동 533,36.9908757175451,127.906292654499
